{
"type": "FeatureCollection",
"name": "cities",
"crs": { "type": "name", "properties": { "name": "urn:ogc:def:crs:OGC:1.3:CRS84" } },
"features": [
{ "type": "Feature", "properties": { "ID_UC_G0": 5929, "city_id": "ghsl_5929", "city_name": "Tokyo" }, "geometry": { "type": "MultiPolygon", "coordinates": [ [ [ [ 139.757381380423027, 36.205381100279681 ], [ 139.768779910834922, 36.205381100279681 ], [ 139.749234344518442, 36.187834293588601 ], [ 139.760631280935399, 36.187834293588601 ], [ 139.750864136544578, 36.179061444538668 ], [ 139.76226027648886, 36.179061444538668 ], [ 139.752496623650927, 36.170288964824074 ], [ 139.741101279829678, 36.170288964824074 ], [ 139.711838414514546, 36.14397374023067 ], [ 139.723231372062827, 36.14397374023067 ], [ 139.713484850107648, 36.135202736396032 ], [ 139.724877012929738, 36.135202736396032 ], [ 139.715133974021256, 36.126432101166316 ], [ 139.703742605576593, 36.126432101166316 ], [ 139.684270940326911, 36.108891935938061 ], [ 139.69566072106241, 36.108891935938061 ], [ 139.685930502785993, 36.10012240564793 ], [ 139.697319490189386, 36.10012240564793 ], [ 139.687592748249614, 36.091353243379451 ], [ 139.721757331507803, 36.091353243379451 ], [ 139.73148645239965, 36.10012240564793 ], [ 139.742875439803043, 36.10012240564793 ], [ 139.733145525927199, 36.091353243379451 ], [ 139.744533720346567, 36.091353243379451 ], [ 139.734807282785965, 36.082584448986985 ], [ 139.746194684569275, 36.082584448986985 ], [ 139.717038590785478, 36.056280271609964 ], [ 139.728423616746284, 36.056280271609964 ], [ 139.718712652823626, 36.047512947266149 ], [ 139.730096887538281, 36.047512947266149 ], [ 139.720389392184643, 36.038745990070964 ], [ 139.754539723631325, 36.038745990070964 ], [ 139.744834114335731, 36.029979399879075 ], [ 139.756216767599113, 36.029979399879075 ], [ 139.746514624753786, 36.021213176545295 ], [ 139.757896487811678, 36.021213176545295 ], [ 139.748197810011817, 36.012447319924419 ], [ 139.77095995640974, 36.012447319924419 ], [ 139.761263952739114, 36.003681829871333 ], [ 139.772644236425492, 36.003681829871333 ], [ 139.76295169534032, 35.994916706240993 ], [ 139.83122866246066, 35.994916706240993 ], [ 139.840925938543933, 36.003681829871333 ], [ 139.852306222230339, 36.003681829871333 ], [ 139.842608156980702, 35.994916706240993 ], [ 139.865367146020844, 35.994916706240993 ], [ 139.855671755556983, 35.986151948888384 ], [ 139.878429166956465, 35.986151948888384 ], [ 139.868736450568406, 35.977387557668592 ], [ 139.880114367793681, 35.977387557668592 ], [ 139.870425112900847, 35.968623532436744 ], [ 139.904556500190466, 35.968623532436744 ], [ 139.885186006287967, 35.951096579357639 ], [ 139.896561560163434, 35.951096579357639 ], [ 139.88688189426918, 35.942333651220956 ], [ 139.921006194617433, 35.942333651220956 ], [ 139.930688221789751, 35.951096579357639 ], [ 139.94206377566519, 35.951096579357639 ], [ 139.961442145673175, 35.968623532436744 ], [ 139.950065016576644, 35.968623532436744 ], [ 139.959759788370775, 35.977387557668592 ], [ 139.937003953920197, 35.977387557668592 ], [ 139.94670140115494, 35.986151948888384 ], [ 139.969458812554421, 35.986151948888384 ], [ 139.979162091221411, 35.994916706240993 ], [ 139.990541585741454, 35.994916706240993 ], [ 139.980837518254162, 35.986151948888384 ], [ 139.992216223953903, 35.986151948888384 ], [ 139.982515622821353, 35.977387557668592 ], [ 139.993893540046656, 35.977387557668592 ], [ 139.984196403866264, 35.968623532436744 ], [ 139.995573532962823, 35.968623532436744 ], [ 139.985879860333114, 35.959859873047996 ], [ 140.008632542959731, 35.959859873047996 ], [ 139.998941545042385, 35.951096579357639 ], [ 140.010317098917824, 35.951096579357639 ], [ 140.000629562096691, 35.942333651220956 ], [ 140.023379095662193, 35.942333651220956 ], [ 140.013694231791277, 35.933571088493309 ], [ 140.0478161718965, 35.933571088493309 ], [ 140.038133193865434, 35.924808891030111 ], [ 140.060879581129939, 35.924808891030111 ], [ 140.051199274979268, 35.916047058686885 ], [ 140.085316497701569, 35.916047058686885 ], [ 140.075638077011234, 35.907285591319145 ], [ 140.09838132073213, 35.907285591319145 ], [ 140.079034061133569, 35.889763750932666 ], [ 140.090404112599572, 35.889763750932666 ], [ 140.080736056274191, 35.881003377625312 ], [ 140.092105323059059, 35.881003377625312 ], [ 140.082440718737388, 35.872243368716234 ], [ 140.127914648527565, 35.872243368716234 ], [ 140.118251142838204, 35.863483724061282 ], [ 140.163721936653815, 35.863483724061282 ], [ 140.144401357085314, 35.845965526937448 ], [ 140.121669094091459, 35.845965526937448 ], [ 140.131325700660824, 35.854724443516368 ], [ 140.063124211838328, 35.854724443516368 ], [ 140.053472305109892, 35.845965526937448 ], [ 140.042106173612979, 35.845965526937448 ], [ 140.022816608816981, 35.828448785101742 ], [ 140.034181174729554, 35.828448785101742 ], [ 140.02454194693621, 35.819690959557207 ], [ 140.03590573057096, 35.819690959557207 ], [ 140.026269943015365, 35.810933497403113 ], [ 140.048995946414351, 35.810933497403113 ], [ 140.039362816122036, 35.802176398495703 ], [ 140.084811696549195, 35.802176398495703 ], [ 140.0751796603233, 35.793419662691363 ], [ 140.086541099179698, 35.793419662691363 ], [ 140.076912500418274, 35.784663289846414 ], [ 140.088273158366377, 35.784663289846414 ], [ 140.078647995690261, 35.775907279817332 ], [ 140.112727627835824, 35.775907279817332 ], [ 140.103104339418024, 35.767151632460589 ], [ 140.137181630890268, 35.767151632460589 ], [ 140.127560216720497, 35.758396347632768 ], [ 140.138918533995081, 35.758396347632768 ], [ 140.129300553145811, 35.749641425190461 ], [ 140.140658090879072, 35.749641425190461 ], [ 140.131043541974776, 35.740886864990365 ], [ 140.210540851707663, 35.740886864990365 ], [ 140.200925060220953, 35.732132666889221 ], [ 140.257704958592996, 35.732132666889221 ], [ 140.267324644373986, 35.740886864990365 ], [ 140.290038161440492, 35.740886864990365 ], [ 140.280416917941778, 35.732132666889221 ], [ 140.29177289761617, 35.732132666889221 ], [ 140.282155087747668, 35.723378830743791 ], [ 140.270799886591135, 35.723378830743791 ], [ 140.232373841575026, 35.688367102857406 ], [ 140.221021751083526, 35.688367102857406 ], [ 140.173087602583479, 35.644610569843316 ], [ 140.184435812395861, 35.644610569843316 ], [ 140.174860789711886, 35.635860345391905 ], [ 140.208903093797488, 35.635860345391905 ], [ 140.199329936399408, 35.627110481324841 ], [ 140.210676596316546, 35.627110481324841 ], [ 140.191541296739217, 35.609611833773855 ], [ 140.202886408117081, 35.609611833773855 ], [ 140.193324262880537, 35.600863050005096 ], [ 140.204668600496888, 35.600863050005096 ], [ 140.176004936409186, 35.574618857018073 ], [ 140.187346954771215, 35.574618857018073 ], [ 140.177799985196685, 35.565871511654777 ], [ 140.211823723057194, 35.565871511654777 ], [ 140.202278612991165, 35.557124525537482 ], [ 140.236300034639527, 35.557124525537482 ], [ 140.217217707215354, 35.539631630472783 ], [ 140.205878776461105, 35.539631630472783 ], [ 140.186814677489451, 35.522140170688388 ], [ 140.164139899539208, 35.522140170688388 ], [ 140.154615642760575, 35.513394978671705 ], [ 140.143279024169402, 35.513394978671705 ], [ 140.124244542126576, 35.495905669680603 ], [ 140.135579620960272, 35.495905669680603 ], [ 140.126067851903599, 35.487161552422904 ], [ 140.092064923524077, 35.487161552422904 ], [ 140.08255962012143, 35.478417793134966 ], [ 140.071226079699073, 35.478417793134966 ], [ 140.052229474506646, 35.460931347902452 ], [ 140.040897471150856, 35.460931347902452 ], [ 140.031406164331656, 35.452188661674995 ], [ 140.020074929005204, 35.452188661674995 ], [ 140.001106294865139, 35.434704361291068 ], [ 139.98977659459041, 35.434704361291068 ], [ 139.980299262251492, 35.425962746852065 ], [ 139.968970328999433, 35.425962746852065 ], [ 139.959497905480049, 35.417221489393462 ], [ 139.948169738915453, 35.417221489393462 ], [ 139.957641395747402, 35.425962746852065 ], [ 139.946312462495342, 35.425962746852065 ], [ 139.955787493766195, 35.434704361291068 ], [ 139.944457793491495, 35.434704361291068 ], [ 139.953936200533292, 35.443446332851643 ], [ 139.942605732900489, 35.443446332851643 ], [ 139.952087517046465, 35.452188661674995 ], [ 139.940756281720013, 35.452188661674995 ], [ 139.969224215898009, 35.478417793134966 ], [ 140.00322483716505, 35.478417793134966 ], [ 140.01272475730525, 35.487161552422904 ], [ 140.001390447845438, 35.487161552422904 ], [ 140.048948566272259, 35.530885721241482 ], [ 140.037610406576164, 35.530885721241482 ], [ 140.056661251834385, 35.548377898524137 ], [ 140.068000953984154, 35.548377898524137 ], [ 140.08707001756872, 35.565871511654777 ], [ 140.064387525661743, 35.565871511654777 ], [ 140.073926771150838, 35.574618857018073 ], [ 140.062584752788808, 35.574618857018073 ], [ 140.081674223072127, 35.592114626051043 ], [ 140.058987094685534, 35.592114626051043 ], [ 140.068536549100656, 35.600863050005096 ], [ 140.057192211484335, 35.600863050005096 ], [ 140.066745071582261, 35.609611833773855 ], [ 140.044054848826448, 35.609611833773855 ], [ 140.053610341862452, 35.618360977499627 ], [ 140.030918570906181, 35.618360977499627 ], [ 140.0404766975592, 35.627110481324841 ], [ 140.029130037642034, 35.627110481324841 ], [ 140.03869157336959, 35.635860345391905 ], [ 140.015996703979198, 35.635860345391905 ], [ 140.025560875022478, 35.644610569843316 ], [ 140.002864455397685, 35.644610569843316 ], [ 140.012431262437531, 35.65336115482166 ], [ 139.978384306630829, 35.65336115482166 ], [ 139.987952974552684, 35.662112100469528 ], [ 139.953903691357937, 35.662112100469528 ], [ 139.963474220164443, 35.670863406929612 ], [ 139.952123682963872, 35.670863406929612 ], [ 139.942553930293059, 35.662112100469528 ], [ 139.931204169228153, 35.662112100469528 ], [ 139.921639380286337, 35.65336115482166 ], [ 139.944337350824128, 35.65336115482166 ], [ 139.93477519652339, 35.644610569843316 ], [ 139.946123406335772, 35.644610569843316 ], [ 139.927010098387626, 35.627110481324841 ], [ 139.91566343847046, 35.627110481324841 ], [ 139.896568400913708, 35.609611833773855 ], [ 139.885223289535844, 35.609611833773855 ], [ 139.894767945168809, 35.618360977499627 ], [ 139.860730288734487, 35.618360977499627 ], [ 139.870276798801825, 35.627110481324841 ], [ 139.858930138884659, 35.627110481324841 ], [ 139.868480052941692, 35.635860345391905 ], [ 139.845785183551328, 35.635860345391905 ], [ 139.836236819050356, 35.627110481324841 ], [ 139.847583478967522, 35.627110481324841 ], [ 139.838038517778216, 35.618360977499627 ], [ 139.81534674682203, 35.618360977499627 ], [ 139.82489015913319, 35.627110481324841 ], [ 139.813543499216053, 35.627110481324841 ], [ 139.794462398512593, 35.609611833773855 ], [ 139.817152621268406, 35.609611833773855 ], [ 139.788557622186005, 35.583366561769452 ], [ 139.799900413294608, 35.583366561769452 ], [ 139.790376312099937, 35.574618857018073 ], [ 139.801718330461966, 35.574618857018073 ], [ 139.792197622777877, 35.565871511654777 ], [ 139.803538868731351, 35.565871511654777 ], [ 139.794021553210541, 35.557124525537482 ], [ 139.816702500976163, 35.557124525537482 ], [ 139.788170893261878, 35.530885721241482 ], [ 139.799509052957973, 35.530885721241482 ], [ 139.790006063359897, 35.522140170688388 ], [ 139.812680841310168, 35.522140170688388 ], [ 139.784192177115756, 35.495905669680603 ], [ 139.77285709828206, 35.495905669680603 ], [ 139.763369949188956, 35.487161552422904 ], [ 139.752035639729115, 35.487161552422904 ], [ 139.742553407451226, 35.478417793134966 ], [ 139.753886947873582, 35.478417793134966 ], [ 139.74440809232749, 35.469674391675298 ], [ 139.733075320606446, 35.469674391675298 ], [ 139.723601377188061, 35.460931347902452 ], [ 139.712269373832243, 35.460931347902452 ], [ 139.693335444978544, 35.443446332851643 ], [ 139.704665912611347, 35.443446332851643 ], [ 139.685746997698345, 35.425962746852065 ], [ 139.697075930950376, 35.425962746852065 ], [ 139.687621907929952, 35.417221489393462 ], [ 139.710278241059115, 35.417221489393462 ], [ 139.681936358431301, 35.390999857489319 ], [ 139.670610489919284, 35.390999857489319 ], [ 139.661172216594679, 35.382260026541843 ], [ 139.67249731975852, 35.382260026541843 ], [ 139.663062405533026, 35.373520551869802 ], [ 139.674386743683158, 35.373520551869802 ], [ 139.655527751589517, 35.356042670788796 ], [ 139.666850560714806, 35.356042670788796 ], [ 139.657426479872697, 35.347304264098369 ], [ 139.668748524986569, 35.347304264098369 ], [ 139.649911185784617, 35.329828517714411 ], [ 139.672552221969084, 35.329828517714411 ], [ 139.65372828550818, 35.312354193055981 ], [ 139.665047277912578, 35.312354193055981 ], [ 139.655640713678252, 35.303617563522693 ], [ 139.689595403859073, 35.303617563522693 ], [ 139.680190662178632, 35.294881288999498 ], [ 139.69150813022776, 35.294881288999498 ], [ 139.682106734477287, 35.286145369346109 ], [ 139.704740147218843, 35.286145369346109 ], [ 139.695341334741471, 35.277409804422263 ], [ 139.706657279766574, 35.277409804422263 ], [ 139.697261810930286, 35.268674594087777 ], [ 139.753837730989773, 35.268674594087777 ], [ 139.744442561761872, 35.259939738202497 ], [ 139.755756985092916, 35.259939738202497 ], [ 139.727593805678367, 35.233737295841479 ], [ 139.738905948959257, 35.233737295841479 ], [ 139.729525660003389, 35.225003856352849 ], [ 139.74083704393118, 35.225003856352849 ], [ 139.722087232797804, 35.207538038483953 ], [ 139.688157634149746, 35.207538038483953 ], [ 139.660070423940141, 35.181341962355404 ], [ 139.648762831808, 35.181341962355404 ], [ 139.639409358400798, 35.172610643267284 ], [ 139.628102523634936, 35.172610643267284 ], [ 139.656172926756909, 35.198805659824146 ], [ 139.644863818899864, 35.198805659824146 ], [ 139.65422803550166, 35.207538038483953 ], [ 139.631608303069612, 35.207538038483953 ], [ 139.622245603185775, 35.198805659824146 ], [ 139.610936495328701, 35.198805659824146 ], [ 139.601578640746794, 35.190073634494503 ], [ 139.590270290917658, 35.190073634494503 ], [ 139.599627387471656, 35.198805659824146 ], [ 139.588318279614612, 35.198805659824146 ], [ 139.607043217470732, 35.216270770613605 ], [ 139.584421967658301, 35.216270770613605 ], [ 139.59378905286988, 35.225003856352849 ], [ 139.582477668942118, 35.225003856352849 ], [ 139.601222596814097, 35.24247108921935 ], [ 139.612535499779796, 35.24247108921935 ], [ 139.631298328451379, 35.259939738202497 ], [ 139.619983905120364, 35.259939738202497 ], [ 139.629370706858879, 35.268674594087777 ], [ 139.606740338835067, 35.268674594087777 ], [ 139.597355058458248, 35.259939738202497 ], [ 139.586040635127205, 35.259939738202497 ], [ 139.576660213481688, 35.251205236626376 ], [ 139.565346550499328, 35.251205236626376 ], [ 139.574726211796161, 35.259939738202497 ], [ 139.552097365134074, 35.259939738202497 ], [ 139.570865939465477, 35.277409804422263 ], [ 139.548234049415299, 35.277409804422263 ], [ 139.557622964398774, 35.286145369346109 ], [ 139.534989551657219, 35.286145369346109 ], [ 139.544381045589262, 35.294881288999498 ], [ 139.533063577540162, 35.294881288999498 ], [ 139.542458413075565, 35.303617563522693 ], [ 139.531140183015282, 35.303617563522693 ], [ 139.521746109491033, 35.294881288999498 ], [ 139.499111173392805, 35.294881288999498 ], [ 139.508503722894744, 35.303617563522693 ], [ 139.497185492834461, 35.303617563522693 ], [ 139.487793705343677, 35.294881288999498 ], [ 139.465158769245448, 35.294881288999498 ], [ 139.474549032713924, 35.303617563522693 ], [ 139.463230802653669, 35.303617563522693 ], [ 139.472624407037756, 35.312354193055981 ], [ 139.370753475398118, 35.312354193055981 ], [ 139.361366732111208, 35.303617563522693 ], [ 139.350048502050925, 35.303617563522693 ], [ 139.35943448299372, 35.312354193055981 ], [ 139.336796498184952, 35.312354193055981 ], [ 139.327412041930415, 35.303617563522693 ], [ 139.304775581809878, 35.303617563522693 ], [ 139.29539674850875, 35.294881288999498 ], [ 139.261444344361394, 35.294881288999498 ], [ 139.252071892387846, 35.286145369346109 ], [ 139.240755186017083, 35.286145369346109 ], [ 139.231387588712749, 35.277409804422263 ], [ 139.220071643687675, 35.277409804422263 ], [ 139.210708898418517, 35.268674594087777 ], [ 139.199393714406625, 35.268674594087777 ], [ 139.180682009098803, 35.251205236626376 ], [ 139.169368346116414, 35.251205236626376 ], [ 139.150674498352458, 35.233737295841479 ], [ 139.13936235507154, 35.233737295841479 ], [ 139.148706478185829, 35.24247108921935 ], [ 139.126080672254432, 35.24247108921935 ], [ 139.144778125216391, 35.259939738202497 ], [ 139.133463701885347, 35.259939738202497 ], [ 139.142817794347138, 35.268674594087777 ], [ 139.131502610335218, 35.268674594087777 ], [ 139.140860028512037, 35.277409804422263 ], [ 139.129544083486934, 35.277409804422263 ], [ 139.138904828680069, 35.286145369346109 ], [ 139.116271415938542, 35.286145369346109 ], [ 139.125634727772024, 35.294881288999498 ], [ 139.114317259722895, 35.294881288999498 ], [ 139.123683900845549, 35.303617563522693 ], [ 139.101047440725011, 35.303617563522693 ], [ 139.11041665009688, 35.312354193055981 ], [ 139.087778665288084, 35.312354193055981 ], [ 139.097150443548287, 35.32109117773976 ], [ 139.085830688466643, 35.32109117773976 ], [ 139.104585007253178, 35.33856621312043 ], [ 139.115906288689416, 35.33856621312043 ], [ 139.12529035951971, 35.347304264098369 ], [ 139.159256494861381, 35.347304264098369 ], [ 139.149870132998188, 35.33856621312043 ], [ 139.161191414434455, 35.33856621312043 ], [ 139.151808389726398, 35.329828517714411 ], [ 139.174449425910836, 35.329828517714411 ], [ 139.16506897403832, 35.32109117773976 ], [ 139.176388729119992, 35.32109117773976 ], [ 139.167011612118898, 35.312354193055981 ], [ 139.178330604523296, 35.312354193055981 ], [ 139.168956821086624, 35.303617563522693 ], [ 139.214229741327699, 35.303617563522693 ], [ 139.223606574140916, 35.312354193055981 ], [ 139.234925566545314, 35.312354193055981 ], [ 139.244307259609997, 35.32109117773976 ], [ 139.255627014691669, 35.32109117773976 ], [ 139.265013570648705, 35.329828517714411 ], [ 139.276334088740924, 35.329828517714411 ], [ 139.295121036228096, 35.347304264098369 ], [ 139.283798991114224, 35.347304264098369 ], [ 139.29319785957955, 35.356042670788796 ], [ 139.23658381395299, 35.356042670788796 ], [ 139.227188765544753, 35.347304264098369 ], [ 139.215866720430853, 35.347304264098369 ], [ 139.225261004827672, 35.356042670788796 ], [ 139.202615386577065, 35.356042670788796 ], [ 139.212012248408371, 35.364781433332361 ], [ 139.166717954525723, 35.364781433332361 ], [ 139.17611586507752, 35.373520551869802 ], [ 139.16479152692736, 35.373520551869802 ], [ 139.174192780549134, 35.382260026541843 ], [ 139.162867677385293, 35.382260026541843 ], [ 139.19109380753838, 35.408480588774168 ], [ 139.202421207750575, 35.408480588774168 ], [ 139.193007618975258, 35.399740044853118 ], [ 139.21566088736472, 35.399740044853118 ], [ 139.206249880927516, 35.390999857489319 ], [ 139.251553354975471, 35.390999857489319 ], [ 139.260967424143615, 35.399740044853118 ], [ 139.272294058338332, 35.399740044853118 ], [ 139.300563267128865, 35.425962746852065 ], [ 139.289234333876834, 35.425962746852065 ], [ 139.298664877831726, 35.434704361291068 ], [ 139.287335177556997, 35.434704361291068 ], [ 139.325095538648469, 35.469674391675298 ], [ 139.313762766927425, 35.469674391675298 ], [ 139.323212411824642, 35.478417793134966 ], [ 139.311878871402314, 35.478417793134966 ], [ 139.321331880255514, 35.487161552422904 ], [ 139.309997570795673, 35.487161552422904 ], [ 139.328914455399257, 35.504650145049666 ], [ 139.317578606855164, 35.504650145049666 ], [ 139.327042485604409, 35.513394978671705 ], [ 139.315705867013236, 35.513394978671705 ], [ 139.325173115379528, 35.522140170688388 ], [ 139.313835726404392, 35.522140170688388 ], [ 139.323306345721619, 35.530885721241482 ], [ 139.311968186025524, 35.530885721241482 ], [ 139.330920314248971, 35.548377898524137 ], [ 139.319580612099202, 35.548377898524137 ], [ 139.329062124015962, 35.557124525537482 ], [ 139.317721650133166, 35.557124525537482 ], [ 139.327206538684578, 35.565871511654777 ], [ 139.304524046777573, 35.565871511654777 ], [ 139.314011540894398, 35.574618857018073 ], [ 139.279985485808282, 35.574618857018073 ], [ 139.270500308917093, 35.565871511654777 ], [ 139.247817817010116, 35.565871511654777 ], [ 139.257301449084224, 35.574618857018073 ], [ 139.245959430722195, 35.574618857018073 ], [ 139.255446440082551, 35.583366561769452 ], [ 139.221418066756826, 35.583366561769452 ], [ 139.230906908574553, 35.592114626051043 ], [ 139.264937601154458, 35.592114626051043 ], [ 139.274432915956027, 35.600863050005096 ], [ 139.285777253572377, 35.600863050005096 ], [ 139.304781900306779, 35.618360977499627 ], [ 139.293436014828671, 35.618360977499627 ], [ 139.302943802943958, 35.627110481324841 ], [ 139.268903823192488, 35.627110481324841 ], [ 139.278413448791696, 35.635860345391905 ], [ 139.267066014096514, 35.635860345391905 ], [ 139.276579027405035, 35.644610569843316 ], [ 139.265230817592652, 35.644610569843316 ], [ 139.274747219958954, 35.65336115482166 ], [ 139.263398234690044, 35.65336115482166 ], [ 139.272918027463589, 35.662112100469528 ], [ 139.261568266398683, 35.662112100469528 ], [ 139.271091450930015, 35.670863406929612 ], [ 139.248390376528874, 35.670863406929612 ], [ 139.28651861495274, 35.705872243747635 ], [ 139.275164969809708, 35.705872243747635 ], [ 139.284706689098698, 35.714625356410956 ], [ 139.250643420160316, 35.714625356410956 ], [ 139.260186983660134, 35.723378830743791 ], [ 139.203410977877468, 35.723378830743791 ], [ 139.212954828547595, 35.732132666889221 ], [ 139.224310808221986, 35.732132666889221 ], [ 139.233859617846718, 35.740886864990365 ], [ 139.24521637638, 35.740886864990365 ], [ 139.254770147683644, 35.749641425190461 ], [ 139.266127685416905, 35.749641425190461 ], [ 139.285249344084946, 35.767151632460589 ], [ 139.27389024692755, 35.767151632460589 ], [ 139.283456578960198, 35.775907279817332 ], [ 139.226657192050908, 35.775907279817332 ], [ 139.245794623807484, 35.793419662691363 ], [ 139.268517501520279, 35.793419662691363 ], [ 139.278094068967448, 35.802176398495703 ], [ 139.289456289074224, 35.802176398495703 ], [ 139.299037834246946, 35.810933497403113 ], [ 139.310400835946439, 35.810933497403113 ], [ 139.329578088150015, 35.828448785101742 ], [ 139.318213522237414, 35.828448785101742 ], [ 139.32780766916909, 35.837206974180546 ], [ 139.293711623569351, 35.837206974180546 ], [ 139.303307626312858, 35.845965526937448 ], [ 139.291941494815944, 35.845965526937448 ], [ 139.311144552610926, 35.863483724061282 ], [ 139.322512251064808, 35.863483724061282 ], [ 139.341733715258215, 35.881003377625312 ], [ 139.330364448473347, 35.881003377625312 ], [ 139.339980715843495, 35.889763750932666 ], [ 139.31724061291149, 35.889763750932666 ], [ 139.346110005385384, 35.916047058686885 ], [ 139.334737597811312, 35.916047058686885 ], [ 139.344368382298313, 35.924808891030111 ], [ 139.321621995033809, 35.924808891030111 ], [ 139.331255429686678, 35.933571088493309 ], [ 139.297133489581455, 35.933571088493309 ], [ 139.306768788348904, 35.942333651220956 ], [ 139.295394021566153, 35.942333651220956 ], [ 139.30503275864055, 35.951096579357639 ], [ 139.293657204765111, 35.951096579357639 ], [ 139.303299381534231, 35.959859873047996 ], [ 139.314675722847568, 35.959859873047996 ], [ 139.324322916266766, 35.968623532436744 ], [ 139.335700045363325, 35.968623532436744 ], [ 139.35500870476821, 35.986151948888384 ], [ 139.366387410467951, 35.986151948888384 ], [ 139.356730175430073, 35.977387557668592 ], [ 139.447753513232414, 35.977387557668592 ], [ 139.438094207232183, 35.968623532436744 ], [ 139.449471336328742, 35.968623532436744 ], [ 139.439815477294019, 35.959859873047996 ], [ 139.462568159920636, 35.959859873047996 ], [ 139.452914959021257, 35.951096579357639 ], [ 139.464290512896696, 35.951096579357639 ], [ 139.45464075652464, 35.942333651220956 ], [ 139.47739029009017, 35.942333651220956 ], [ 139.487041620647602, 35.951096579357639 ], [ 139.498417174523041, 35.951096579357639 ], [ 139.508073525173899, 35.959859873047996 ], [ 139.519449866487236, 35.959859873047996 ], [ 139.538776851034811, 35.977387557668592 ], [ 139.527398933809508, 35.977387557668592 ], [ 139.537067995964151, 35.986151948888384 ], [ 139.525689290264381, 35.986151948888384 ], [ 139.535361804939186, 35.994916706240993 ], [ 139.523982310419115, 35.994916706240993 ], [ 139.533658279011007, 36.003681829871333 ], [ 139.510897711638194, 36.003681829871333 ], [ 139.520576346032669, 36.012447319924419 ], [ 139.509195272833693, 36.012447319924419 ], [ 139.518877363596033, 36.021213176545295 ], [ 139.507495500538141, 36.021213176545295 ], [ 139.517181049068455, 36.029979399879075 ], [ 139.505798395805073, 36.029979399879075 ], [ 139.515487403504579, 36.038745990070964 ], [ 139.504103959689019, 36.038745990070964 ], [ 139.513796427960017, 36.047512947266149 ], [ 139.491027958530736, 36.047512947266149 ], [ 139.500723097530511, 36.056280271609964 ], [ 139.489338071569733, 36.056280271609964 ], [ 139.499036673601836, 36.065047963247757 ], [ 139.476265038493494, 36.065047963247757 ], [ 139.485966313022601, 36.073816022324934 ], [ 139.463193094032704, 36.073816022324934 ], [ 139.472897041770267, 36.082584448986985 ], [ 139.461509639986957, 36.082584448986985 ], [ 139.471217054281198, 36.091353243379451 ], [ 139.437052471023037, 36.091353243379451 ], [ 139.446761767314456, 36.10012240564793 ], [ 139.435372779911035, 36.10012240564793 ], [ 139.445085544881124, 36.108891935938061 ], [ 139.422305983410126, 36.108891935938061 ], [ 139.432021424788985, 36.117661834395598 ], [ 139.420630850373101, 36.117661834395598 ], [ 139.430349762904228, 36.126432101166316 ], [ 139.396175657570183, 36.126432101166316 ], [ 139.405896453911254, 36.135202736396032 ], [ 139.417288616733344, 36.135202736396032 ], [ 139.427014475807624, 36.14397374023067 ], [ 139.438407433355906, 36.14397374023067 ], [ 139.448138357973676, 36.152745112816213 ], [ 139.45953211059711, 36.152745112816213 ], [ 139.479008371941234, 36.170288964824074 ], [ 139.490403715762483, 36.170288964824074 ], [ 139.480662651618388, 36.16151685429864 ], [ 139.492057199666078, 36.16151685429864 ], [ 139.48231961584392, 36.152745112816213 ], [ 139.505107121090759, 36.152745112816213 ], [ 139.466193148036609, 36.117661834395598 ], [ 139.477583722452493, 36.117661834395598 ], [ 139.46786510635215, 36.108891935938061 ], [ 139.479254887087706, 36.108891935938061 ], [ 139.46953974212127, 36.10012240564793 ], [ 139.503706704331478, 36.10012240564793 ], [ 139.49399344311999, 36.091353243379451 ], [ 139.505381637539358, 36.091353243379451 ], [ 139.49567184533683, 36.082584448986985 ], [ 139.507059247120139, 36.082584448986985 ], [ 139.497352922517535, 36.073816022324934 ], [ 139.542899360497273, 36.073816022324934 ], [ 139.533194126264306, 36.065047963247757 ], [ 139.544579943818462, 36.065047963247757 ], [ 139.534878175412871, 36.056280271609964 ], [ 139.546263201373705, 36.056280271609964 ], [ 139.536564897389326, 36.047512947266149 ], [ 139.559333366818606, 36.047512947266149 ], [ 139.569033253295231, 36.056280271609964 ], [ 139.580418279256037, 36.056280271609964 ], [ 139.599832407971974, 36.073816022324934 ], [ 139.611219017466937, 36.073816022324934 ], [ 139.620933264953067, 36.082584448986985 ], [ 139.632320666736348, 36.082584448986985 ], [ 139.661491378855885, 36.108891935938061 ], [ 139.650101598120358, 36.108891935938061 ], [ 139.659832913106584, 36.117661834395598 ], [ 139.648442338690728, 36.117661834395598 ], [ 139.658177131797856, 36.126432101166316 ], [ 139.669568500242548, 36.126432101166316 ], [ 139.708553612571933, 36.16151685429864 ], [ 139.697159064524271, 36.16151685429864 ], [ 139.706915248365988, 36.170288964824074 ], [ 139.695519904544739, 36.170288964824074 ], [ 139.705279576767509, 36.179061444538668 ], [ 139.693883436823256, 36.179061444538668 ], [ 139.703646598850696, 36.187834293588601 ], [ 139.692249662433767, 36.187834293588601 ], [ 139.702016315690656, 36.196607512120174 ], [ 139.690618582451236, 36.196607512120174 ], [ 139.710163165880772, 36.214155058213557 ], [ 139.73296182174991, 36.214155058213557 ], [ 139.723185789187312, 36.205381100279681 ], [ 139.745982850011103, 36.205381100279681 ], [ 139.755760477618992, 36.214155058213557 ], [ 139.767159805553547, 36.214155058213557 ], [ 139.757381380423027, 36.205381100279681 ] ], [ [ 139.6687262551537, 35.399740044853118 ], [ 139.657399620958955, 35.399740044853118 ], [ 139.647958752895278, 35.390999857489319 ], [ 139.659284621407295, 35.390999857489319 ], [ 139.6687262551537, 35.399740044853118 ] ] ] ] } },
{ "type": "Feature", "properties": { "ID_UC_G0": 178, "city_id": "ghsl_178", "city_name": "Singapore" }, "geometry": { "type": "MultiPolygon", "coordinates": [ [ [ [ 103.75889619319193, 1.431576268033568 ], [ 103.748916497491919, 1.431576268033568 ], [ 103.7484674699366, 1.415398996848906 ], [ 103.758447122444267, 1.415398996848906 ], [ 103.758003160504984, 1.399221768904464 ], [ 103.767982770311718, 1.399221768904464 ], [ 103.767762683917439, 1.391133170992759 ], [ 103.77774227255793, 1.391133170992759 ], [ 103.77752344237166, 1.383044583705631 ], [ 103.787503009968788, 1.383044583705631 ], [ 103.787069139903792, 1.366867440757813 ], [ 103.817007717540292, 1.366867440757813 ], [ 103.8174417127601, 1.383044583705631 ], [ 103.827421280357214, 1.383044583705631 ], [ 103.827640215760439, 1.391133170992759 ], [ 103.837619804400944, 1.391133170992759 ], [ 103.837840038958774, 1.399221768904464 ], [ 103.867778868378949, 1.399221768904464 ], [ 103.868000444939568, 1.407310377502571 ], [ 103.877980076035342, 1.407310377502571 ], [ 103.87820295253654, 1.415398996848906 ], [ 103.888182605044236, 1.415398996848906 ], [ 103.888632237292285, 1.431576268033568 ], [ 103.898611932992324, 1.431576268033568 ], [ 103.8983864557988, 1.423487627005296 ], [ 103.918345803883668, 1.423487627005296 ], [ 103.917898600418511, 1.407310377502571 ], [ 103.937857862610059, 1.407310377502571 ], [ 103.937415690805935, 1.391133170992759 ], [ 103.97733404536794, 1.391133170992759 ], [ 103.976896823066554, 1.374956006981256 ], [ 103.986876369743101, 1.374956006981256 ], [ 103.98665965748053, 1.366867440757813 ], [ 103.976680131601697, 1.366867440757813 ], [ 103.975615870180476, 1.326424764990811 ], [ 103.965636446447846, 1.326424764990811 ], [ 103.965219739526944, 1.310247766026822 ], [ 103.945260972059188, 1.310247766026822 ], [ 103.945054577448147, 1.302159281585305 ], [ 103.925095849610699, 1.302159281585305 ], [ 103.924890773587592, 1.294070807088353 ], [ 103.894952740908437, 1.294070807088353 ], [ 103.894749002528854, 1.285982342474151 ], [ 103.884769677872001, 1.285982342474151 ], [ 103.884567237483125, 1.277893887680888 ], [ 103.864608627062864, 1.277893887680888 ], [ 103.864407503720543, 1.26980544264675 ], [ 103.854428217834311, 1.26980544264675 ], [ 103.854029843799566, 1.253628581608605 ], [ 103.814112853372436, 1.253628581608605 ], [ 103.814311325083565, 1.261717007309925 ], [ 103.794352791713379, 1.261717007309925 ], [ 103.794154358158877, 1.253628581608605 ], [ 103.774195862945305, 1.253628581608605 ], [ 103.774593930744601, 1.26980544264675 ], [ 103.764614644858369, 1.26980544264675 ], [ 103.764815574961517, 1.277893887680888 ], [ 103.74485696454127, 1.277893887680888 ], [ 103.745059132676019, 1.285982342474151 ], [ 103.755038457332873, 1.285982342474151 ], [ 103.755241921739014, 1.294070807088353 ], [ 103.725303889059859, 1.294070807088353 ], [ 103.725100483362311, 1.285982342474151 ], [ 103.695162509391736, 1.285982342474151 ], [ 103.695365856380704, 1.294070807088353 ], [ 103.675407167927943, 1.294070807088353 ], [ 103.675203860078028, 1.285982342474151 ], [ 103.665224535421174, 1.285982342474151 ], [ 103.665427823701549, 1.294070807088353 ], [ 103.615531102569605, 1.294070807088353 ], [ 103.615735568130191, 1.302159281585305 ], [ 103.625714932048922, 1.302159281585305 ], [ 103.626545626022093, 1.334513279636914 ], [ 103.636525069938315, 1.334513279636914 ], [ 103.636735952093332, 1.342601804474848 ], [ 103.646715416315985, 1.342601804474848 ], [ 103.646504513854538, 1.334513279636914 ], [ 103.666463401686968, 1.334513279636914 ], [ 103.666674344761262, 1.342601804474848 ], [ 103.6766538089839, 1.342601804474848 ], [ 103.676866048367359, 1.350690339566428 ], [ 103.696825017671102, 1.350690339566428 ], [ 103.697038574184916, 1.358778884973477 ], [ 103.716997584592818, 1.358778884973477 ], [ 103.717212458751931, 1.366867440757813 ], [ 103.727191984630778, 1.366867440757813 ], [ 103.727625604386105, 1.383044583705631 ], [ 103.737605171983219, 1.383044583705631 ], [ 103.73916320947005, 1.439664919995551 ], [ 103.759122644430988, 1.439664919995551 ], [ 103.75889619319193, 1.431576268033568 ] ] ] ] } },
{ "type": "Feature", "properties": { "ID_UC_G0": 698, "city_id": "ghsl_698", "city_name": "Copenhagen" }, "geometry": { "type": "MultiPolygon", "coordinates": [ [ [ [ 12.521770780905504, 55.793700843135973 ], [ 12.536081376083683, 55.793700843135973 ], [ 12.531985207690168, 55.773641438101009 ], [ 12.546291126877026, 55.773641438101009 ], [ 12.544242686826307, 55.763613149566396 ], [ 12.572849853728991, 55.763613149566396 ], [ 12.57490296525075, 55.773641438101009 ], [ 12.617820722811331, 55.773641438101009 ], [ 12.613701812592655, 55.753585803002018 ], [ 12.599400563372029, 55.753585803002018 ], [ 12.595291620897781, 55.733533933731621 ], [ 12.638181376701066, 55.733533933731621 ], [ 12.63612189973847, 55.723509410000489 ], [ 12.664710410823849, 55.723509410000489 ], [ 12.66264760249353, 55.713485826189398 ], [ 12.634063747860363, 55.713485826189398 ], [ 12.632006919780405, 55.703463181786908 ], [ 12.64629652036839, 55.703463181786908 ], [ 12.642182181495894, 55.683420709163904 ], [ 12.656467133113406, 55.683420709163904 ], [ 12.650298570168033, 55.653364033031977 ], [ 12.664576559524884, 55.653364033031977 ], [ 12.65841291958125, 55.623315784042319 ], [ 12.629870838590085, 55.623315784042319 ], [ 12.627823553782326, 55.613301571372304 ], [ 12.613554826602915, 55.613301571372304 ], [ 12.611511166142684, 55.603288293019958 ], [ 12.597244750796367, 55.603288293019958 ], [ 12.595204710451876, 55.5932759484785 ], [ 12.580940605457025, 55.5932759484785 ], [ 12.585017372244081, 55.613301571372304 ], [ 12.570748645064668, 55.613301571372304 ], [ 12.574826015997521, 55.633330931537145 ], [ 12.560552660701267, 55.633330931537145 ], [ 12.562590992917343, 55.643347014364359 ], [ 12.519763978168761, 55.643347014364359 ], [ 12.517732594812514, 55.633330931537145 ], [ 12.503459239516264, 55.633330931537145 ], [ 12.495355975487934, 55.5932759484785 ], [ 12.452563660503385, 55.5932759484785 ], [ 12.458618352643102, 55.623315784042319 ], [ 12.444347312147521, 55.623315784042319 ], [ 12.446365818331257, 55.633330931537145 ], [ 12.432092463035007, 55.633330931537145 ], [ 12.434109948671598, 55.643347014364359 ], [ 12.334180247591576, 55.643347014364359 ], [ 12.33618280431736, 55.653364033031977 ], [ 12.321904814960511, 55.653364033031977 ], [ 12.32590914866516, 55.67340087992266 ], [ 12.340191778037889, 55.67340087992266 ], [ 12.342198197528196, 55.683420709163904 ], [ 12.356483149145708, 55.683420709163904 ], [ 12.360504508608654, 55.703463181786908 ], [ 12.346214908020666, 55.703463181786908 ], [ 12.348225201528679, 55.713485826189398 ], [ 12.333933274212093, 55.713485826189398 ], [ 12.337953086078075, 55.733533933731621 ], [ 12.352249671345836, 55.733533933731621 ], [ 12.354263850171174, 55.743559397894686 ], [ 12.368562766664429, 55.743559397894686 ], [ 12.366546256613599, 55.733533933731621 ], [ 12.409436012416881, 55.733533933731621 ], [ 12.411459516144188, 55.743559397894686 ], [ 12.425758432637442, 55.743559397894686 ], [ 12.42778557272451, 55.753585803002018 ], [ 12.442086821945137, 55.753585803002018 ], [ 12.446149692569001, 55.773641438101009 ], [ 12.431843773382139, 55.773641438101009 ], [ 12.437940894675917, 55.803731960664869 ], [ 12.523818507297383, 55.803731960664869 ], [ 12.521770780905504, 55.793700843135973 ] ] ] ] } },
{ "type": "Feature", "properties": { "ID_UC_G0": 1590, "city_id": "ghsl_1590", "city_name": "Amsterdam" }, "geometry": { "type": "MultiPolygon", "coordinates": [ [ [ [ 4.790370258555078, 52.512590279661055 ], [ 4.803979264971428, 52.512590279661055 ], [ 4.803305689962892, 52.50284732364058 ], [ 4.816912788234742, 52.50284732364058 ], [ 4.815563003930871, 52.483363791281079 ], [ 4.829166289252709, 52.483363791281079 ], [ 4.828490082619282, 52.47362321415266 ], [ 4.842091463133703, 52.47362321415266 ], [ 4.840736425879847, 52.454144436027107 ], [ 4.854334000109845, 52.454144436027107 ], [ 4.852976739588572, 52.434668823451666 ], [ 4.866570511968372, 52.434668823451666 ], [ 4.865890575228271, 52.424932203261967 ], [ 4.906666194573758, 52.424932203261967 ], [ 4.905980959202232, 52.415196373280423 ], [ 4.933160909114711, 52.415196373280423 ], [ 4.932472278456229, 52.405461333114559 ], [ 4.959648434260396, 52.405461333114559 ], [ 4.958956412389547, 52.39572708237214 ], [ 4.972542594341299, 52.39572708237214 ], [ 4.971849080174874, 52.385993620661225 ], [ 4.985433367279176, 52.385993620661225 ], [ 4.984738362677405, 52.376260947590211 ], [ 4.998320756036199, 52.376260947590211 ], [ 4.997624262856905, 52.366529062767718 ], [ 5.011204763571191, 52.366529062767718 ], [ 5.009112040250097, 52.337338133882405 ], [ 4.995537210872725, 52.337338133882405 ], [ 4.994147862397775, 52.317881448706565 ], [ 5.007718916371682, 52.317881448706565 ], [ 5.007022960898493, 52.308154285173259 ], [ 5.020592128814207, 52.308154285173259 ], [ 5.019894692229065, 52.298427907157155 ], [ 5.006327409277096, 52.298427907157155 ], [ 5.005632261163855, 52.288702314269258 ], [ 4.937805265755131, 52.288702314269258 ], [ 4.938490994517243, 52.298427907157155 ], [ 4.924923711565274, 52.298427907157155 ], [ 4.925607953404208, 52.308154285173259 ], [ 4.89846961757278, 52.308154285173259 ], [ 4.897789145661332, 52.298427907157155 ], [ 4.884221862709362, 52.298427907157155 ], [ 4.883543669428152, 52.288702314269258 ], [ 4.869978270346406, 52.288702314269258 ], [ 4.868626827908077, 52.269253482323236 ], [ 4.855065193289949, 52.269253482323236 ], [ 4.854391940191222, 52.259530242488523 ], [ 4.840832186168341, 52.259530242488523 ], [ 4.838820401697093, 52.230365222883655 ], [ 4.77104980783579, 52.230365222883655 ], [ 4.770389370799483, 52.220645115024055 ], [ 4.729732643207443, 52.220645115024055 ], [ 4.73104263920426, 52.240086113156174 ], [ 4.717486643103388, 52.240086113156174 ], [ 4.718140332068033, 52.2498077862287 ], [ 4.704582457550596, 52.2498077862287 ], [ 4.705887212490536, 52.269253482323236 ], [ 4.733010481726794, 52.269253482323236 ], [ 4.733667190133403, 52.278977506120761 ], [ 4.747230706437509, 52.278977506120761 ], [ 4.747889678610703, 52.288702314269258 ], [ 4.761455077692449, 52.288702314269258 ], [ 4.762116316141627, 52.298427907157155 ], [ 4.789250882045569, 52.298427907157155 ], [ 4.789916274247068, 52.308154285173259 ], [ 4.803485442162782, 52.308154285173259 ], [ 4.802818164997539, 52.298427907157155 ], [ 4.82995273090148, 52.298427907157155 ], [ 4.83062377799421, 52.308154285173259 ], [ 4.844192945909924, 52.308154285173259 ], [ 4.845539982510947, 52.327609398146407 ], [ 4.831967041383465, 52.327609398146407 ], [ 4.832639258344267, 52.337338133882405 ], [ 4.805489599589523, 52.337338133882405 ], [ 4.804821159128501, 52.327609398146407 ], [ 4.777675276873539, 52.327609398146407 ], [ 4.778339940834781, 52.337338133882405 ], [ 4.76476511145741, 52.337338133882405 ], [ 4.766091818612743, 52.356797965802734 ], [ 4.77967042778258, 52.356797965802734 ], [ 4.781669060714632, 52.385993620661225 ], [ 4.76808477361033, 52.385993620661225 ], [ 4.768749865065016, 52.39572708237214 ], [ 4.755163683113263, 52.39572708237214 ], [ 4.755827265729146, 52.405461333114559 ], [ 4.742239187827064, 52.405461333114559 ], [ 4.742901259727366, 52.415196373280423 ], [ 4.756491234683605, 52.415196373280423 ], [ 4.757155590306968, 52.424932203261967 ], [ 4.770747463422131, 52.424932203261967 ], [ 4.771414105309772, 52.434668823451666 ], [ 4.785007877689572, 52.434668823451666 ], [ 4.787685941076021, 52.47362321415266 ], [ 4.774084560561601, 52.47362321415266 ], [ 4.774753147965355, 52.483363791281079 ], [ 4.733943291999839, 52.483363791281079 ], [ 4.734606551751055, 52.493105160978878 ], [ 4.748211742991719, 52.493105160978878 ], [ 4.749543239306029, 52.512590279661055 ], [ 4.776761252138729, 52.512590279661055 ], [ 4.777431401966988, 52.522334029435441 ], [ 4.791042317642107, 52.522334029435441 ], [ 4.790370258555078, 52.512590279661055 ] ] ] ] } },
{ "type": "Feature", "properties": { "ID_UC_G0": 5071, "city_id": "ghsl_5071", "city_name": "Barcelona" }, "geometry": { "type": "MultiPolygon", "coordinates": [ [ [ [ 2.187266287758713, 41.586966361371182 ], [ 2.199218562555208, 41.586966361371182 ], [ 2.199025991746783, 41.5779397733045 ], [ 2.234879676394828, 41.5779397733045 ], [ 2.235075386944696, 41.586966361371182 ], [ 2.258979936537687, 41.586966361371182 ], [ 2.258782132826858, 41.5779397733045 ], [ 2.270733361042874, 41.5779397733045 ], [ 2.270534603008978, 41.568913656513637 ], [ 2.282484785130078, 41.568913656513637 ], [ 2.281686494951933, 41.532813898245642 ], [ 2.25779448976919, 41.532813898245642 ], [ 2.257597235878931, 41.523790134937613 ], [ 2.245652276958937, 41.523790134937613 ], [ 2.245260129360007, 41.505744018482872 ], [ 2.233317256331496, 41.505744018482872 ], [ 2.233512241971707, 41.514766841747573 ], [ 2.209624410506768, 41.514766841747573 ], [ 2.209431510274475, 41.505744018482872 ], [ 2.197488637245964, 41.505744018482872 ], [ 2.197105188908943, 41.487699780959453 ], [ 2.2090459779791, 41.487699780959453 ], [ 2.208853345810903, 41.478678366315926 ], [ 2.232732841441291, 41.478678366315926 ], [ 2.232927556119415, 41.487699780959453 ], [ 2.292631501470201, 41.487699780959453 ], [ 2.29283151510429, 41.496721664950975 ], [ 2.328657007527795, 41.496721664950975 ], [ 2.328860240559582, 41.505744018482872 ], [ 2.340803113588092, 41.505744018482872 ], [ 2.341007483563928, 41.514766841747573 ], [ 2.352951399296397, 41.514766841747573 ], [ 2.353156907238886, 41.523790134937613 ], [ 2.36510186615888, 41.523790134937613 ], [ 2.365308513091533, 41.532813898245642 ], [ 2.377254515682904, 41.532813898245642 ], [ 2.377046825078875, 41.523790134937613 ], [ 2.388991783998869, 41.523790134937613 ], [ 2.388783146493804, 41.514766841747573 ], [ 2.400727062226273, 41.514766841747573 ], [ 2.400307992374804, 41.496721664950975 ], [ 2.38836616156697, 41.496721664950975 ], [ 2.38815781403146, 41.487699780959453 ], [ 2.364276235891145, 41.487699780959453 ], [ 2.364070067408426, 41.478678366315926 ], [ 2.328250823962843, 41.478678366315926 ], [ 2.328047873318978, 41.46965742082817 ], [ 2.292231752190993, 41.46965742082817 ], [ 2.292032016436972, 41.460636944304035 ], [ 2.280094349684696, 41.460636944304035 ], [ 2.279895746257062, 41.45161693655146 ], [ 2.267959119313308, 41.45161693655146 ], [ 2.26776164719457, 41.442597397378456 ], [ 2.255826059577756, 41.442597397378456 ], [ 2.255629717751316, 41.433578326593199 ], [ 2.243695168980145, 41.433578326593199 ], [ 2.243109802411275, 41.406523922646585 ], [ 2.231178367292067, 41.406523922646585 ], [ 2.230984462640181, 41.397506723495496 ], [ 2.219054064444244, 41.397506723495496 ], [ 2.218861285974849, 41.388489991774264 ], [ 2.206931924222296, 41.388489991774264 ], [ 2.206740270923584, 41.37947372729159 ], [ 2.194811945134807, 41.37947372729159 ], [ 2.194240622099357, 41.352427735363428 ], [ 2.182315401327078, 41.352427735363428 ], [ 2.181559002940558, 41.316372942544149 ], [ 2.157716828045033, 41.316372942544149 ], [ 2.157343280798069, 41.298348341166992 ], [ 2.145424257147251, 41.298348341166992 ], [ 2.145609955934437, 41.307360409094933 ], [ 2.121769845312944, 41.307360409094933 ], [ 2.121953565701745, 41.316372942544149 ], [ 2.074269215910695, 41.316372942544149 ], [ 2.074808489997388, 41.343413337923991 ], [ 2.062884303273265, 41.343413337923991 ], [ 2.063063193604286, 41.352427735363428 ], [ 2.051137972832007, 41.352427735363428 ], [ 2.051493932343958, 41.370457929856272 ], [ 2.039566642039633, 41.370457929856272 ], [ 2.039743709880718, 41.37947372729159 ], [ 2.027815384091942, 41.37947372729159 ], [ 2.028167693309255, 41.397506723495496 ], [ 2.052028489701129, 41.397506723495496 ], [ 2.051850221439107, 41.388489991774264 ], [ 2.087638306696766, 41.388489991774264 ], [ 2.087819684288939, 41.397506723495496 ], [ 2.099750082484876, 41.397506723495496 ], [ 2.100115163986537, 41.415541589418872 ], [ 2.112047636509188, 41.415541589418872 ], [ 2.112231341958314, 41.424559724003899 ], [ 2.124164852364858, 41.424559724003899 ], [ 2.124349681268435, 41.433578326593199 ], [ 2.136284230039606, 41.433578326593199 ], [ 2.136470183409621, 41.442597397378456 ], [ 2.148405771026435, 41.442597397378456 ], [ 2.148592849875765, 41.45161693655146 ], [ 2.16052947681952, 41.45161693655146 ], [ 2.160905974721718, 41.46965742082817 ], [ 2.148967267679057, 41.46965742082817 ], [ 2.149154606734932, 41.478678366315926 ], [ 2.101395615474156, 41.478678366315926 ], [ 2.10121243950841, 41.46965742082817 ], [ 2.089273732465749, 41.46965742082817 ], [ 2.088727832942367, 41.442597397378456 ], [ 2.06485665770874, 41.442597397378456 ], [ 2.065036461269485, 41.45161693655146 ], [ 2.029226580438223, 41.45161693655146 ], [ 2.029580197252442, 41.46965742082817 ], [ 2.017641490209781, 41.46965742082817 ], [ 2.017817380767797, 41.478678366315926 ], [ 2.005877632952604, 41.478678366315926 ], [ 2.006227575716254, 41.496721664950975 ], [ 2.018169406524089, 41.496721664950975 ], [ 2.018345541818304, 41.505744018482872 ], [ 2.030288414846815, 41.505744018482872 ], [ 2.030465674519733, 41.514766841747573 ], [ 2.054353505984671, 41.514766841747573 ], [ 2.054532934239027, 41.523790134937613 ], [ 2.066477893159022, 41.523790134937613 ], [ 2.06738150695028, 41.568913656513637 ], [ 2.07933168907138, 41.568913656513637 ], [ 2.079513709586632, 41.5779397733045 ], [ 2.103416166018662, 41.5779397733045 ], [ 2.10323205331358, 41.568913656513637 ], [ 2.11518223543468, 41.568913656513637 ], [ 2.114997162529083, 41.559888010805388 ], [ 2.126946299040547, 41.559888010805388 ], [ 2.126760266854089, 41.550862835986642 ], [ 2.150656449627731, 41.550862835986642 ], [ 2.150844572063474, 41.559888010805388 ], [ 2.162793708574938, 41.559888010805388 ], [ 2.163361738165722, 41.586966361371182 ], [ 2.175314012962217, 41.586966361371182 ], [ 2.175504579034713, 41.595993420907028 ], [ 2.187457900897542, 41.595993420907028 ], [ 2.187266287758713, 41.586966361371182 ] ] ] ] } },
{ "type": "Feature", "properties": { "ID_UC_G0": 1689, "city_id": "ghsl_1689", "city_name": "Zurich" }, "geometry": { "type": "MultiPolygon", "coordinates": [ [ [ [ 8.595091611597134, 47.451153744057152 ], [ 8.658758956868223, 47.451153744057152 ], [ 8.657787887134077, 47.441782236694635 ], [ 8.645055846123586, 47.441782236694635 ], [ 8.639248464889677, 47.385566170621502 ], [ 8.613801488557161, 47.385566170621502 ], [ 8.612838178995716, 47.376198986723459 ], [ 8.600116113738705, 47.376198986723459 ], [ 8.598193823362367, 47.357466468265592 ], [ 8.585474601730173, 47.357466468265592 ], [ 8.583557126942418, 47.33873641376254 ], [ 8.596273507871222, 47.33873641376254 ], [ 8.595314089826886, 47.32937230980869 ], [ 8.608029051498228, 47.32937230980869 ], [ 8.605149498549789, 47.301283687851765 ], [ 8.579728082010499, 47.301283687851765 ], [ 8.578772048866002, 47.291922042922614 ], [ 8.591481340790246, 47.291922042922614 ], [ 8.589567915247237, 47.273200595009534 ], [ 8.602274376660326, 47.273200595009534 ], [ 8.601316985741107, 47.263840791479744 ], [ 8.626727080233696, 47.263840791479744 ], [ 8.625767353370174, 47.254481601204155 ], [ 8.613063719565508, 47.254481601204155 ], [ 8.612105897457941, 47.245123023910203 ], [ 8.599403676370244, 47.245123023910203 ], [ 8.600360085760839, 47.254481601204155 ], [ 8.587656451956168, 47.254481601204155 ], [ 8.588611938494813, 47.263840791479744 ], [ 8.57590689124852, 47.263840791479744 ], [ 8.57686145383415, 47.273200595009534 ], [ 8.564154992421063, 47.273200595009534 ], [ 8.565108629951425, 47.282561012066211 ], [ 8.526985001034726, 47.282561012066211 ], [ 8.528885248931918, 47.301283687851765 ], [ 8.516174540662274, 47.301283687851765 ], [ 8.518073905591681, 47.320008821021368 ], [ 8.505360362449006, 47.320008821021368 ], [ 8.509159271937017, 47.357466468265592 ], [ 8.496440050304823, 47.357466468265592 ], [ 8.497389576880268, 47.366832419363014 ], [ 8.484668933801105, 47.366832419363014 ], [ 8.485617526425617, 47.376198986723459 ], [ 8.472895461168607, 47.376198986723459 ], [ 8.473843118728313, 47.385566170621502 ], [ 8.461119630562056, 47.385566170621502 ], [ 8.462066351941873, 47.394933971331838 ], [ 8.436616528327011, 47.394933971331838 ], [ 8.435672654229538, 47.385566170621502 ], [ 8.422949166063278, 47.385566170621502 ], [ 8.423891616519578, 47.394933971331838 ], [ 8.385716881097284, 47.394933971331838 ], [ 8.389474429510683, 47.432411347796233 ], [ 8.414935656914356, 47.432411347796233 ], [ 8.413992691429145, 47.423041077086232 ], [ 8.452180252812333, 47.423041077086232 ], [ 8.451233494994614, 47.413671424289063 ], [ 8.502144540145185, 47.413671424289063 ], [ 8.503097001323251, 47.423041077086232 ], [ 8.52855537557871, 47.423041077086232 ], [ 8.529511180230891, 47.432411347796233 ], [ 8.54224179393273, 47.432411347796233 ], [ 8.543199518039657, 47.441782236694635 ], [ 8.555931559050148, 47.441782236694635 ], [ 8.557851344141502, 47.460525870159699 ], [ 8.596056037642132, 47.460525870159699 ], [ 8.595091611597134, 47.451153744057152 ] ] ] ] } },
{ "type": "Feature", "properties": { "ID_UC_G0": 1693, "city_id": "ghsl_1693", "city_name": "Stockholm" }, "geometry": { "type": "MultiPolygon", "coordinates": [ [ [ [ 17.824468101190149, 59.459805553761498 ], [ 17.839728775934319, 59.459805553761498 ], [ 17.836229374713675, 59.449399790897786 ], [ 17.851487055958081, 59.449399790897786 ], [ 17.844489982635107, 59.428591746791916 ], [ 17.859741683474969, 59.428591746791916 ], [ 17.856244012120673, 59.418189464120481 ], [ 17.901990153910905, 59.418189464120481 ], [ 17.905496785994544, 59.428591746791916 ], [ 17.920748486834402, 59.428591746791916 ], [ 17.927775462180126, 59.449399790897786 ], [ 17.943033143424532, 59.449399790897786 ], [ 17.946553499143505, 59.459805553761498 ], [ 17.961814173887678, 59.459805553761498 ], [ 17.958290824668943, 59.449399790897786 ], [ 17.973548505913353, 59.449399790897786 ], [ 17.97002475380183, 59.438995188812918 ], [ 17.985279443745629, 59.438995188812918 ], [ 17.981755290193838, 59.428591746791916 ], [ 17.9970069910337, 59.428591746791916 ], [ 17.986441085996173, 59.397388373972902 ], [ 18.00168383267922, 59.397388373972902 ], [ 17.998164048520437, 59.386989565071715 ], [ 18.01340381486127, 59.386989565071715 ], [ 18.009883632114764, 59.376591912670143 ], [ 18.025120420297604, 59.376591912670143 ], [ 18.021599840404235, 59.366195416057458 ], [ 18.036833652610831, 59.366195416057458 ], [ 18.033312677008716, 59.355800074523607 ], [ 18.094236030647259, 59.355800074523607 ], [ 18.09776890143722, 59.366195416057458 ], [ 18.113002713643816, 59.366195416057458 ], [ 18.116541149394635, 59.376591912670143 ], [ 18.177488302125983, 59.376591912670143 ], [ 18.166845079858767, 59.34540588735932 ], [ 18.182072946648255, 59.34540588735932 ], [ 18.178527428365626, 59.335012853855964 ], [ 18.285101709771453, 59.335012853855964 ], [ 18.277976923340724, 59.314230245001021 ], [ 18.293195888306041, 59.314230245001021 ], [ 18.289634437448658, 59.30384066823575 ], [ 18.167906421226039, 59.30384066823575 ], [ 18.164371258326636, 59.293452242303943 ], [ 18.149158217071754, 59.293452242303943 ], [ 18.135055173271947, 59.251910032819751 ], [ 18.119853953512287, 59.251910032819751 ], [ 18.112823747628266, 59.2311458147786 ], [ 18.082433103756404, 59.2311458147786 ], [ 18.085941029663029, 59.241527350492547 ], [ 18.070742759890205, 59.241527350492547 ], [ 18.074250294233316, 59.251910032819751 ], [ 18.043847854713999, 59.251910032819751 ], [ 18.040346220344553, 59.241527350492547 ], [ 18.025147950571725, 59.241527350492547 ], [ 18.021651816012685, 59.2311458147786 ], [ 18.006456494076755, 59.2311458147786 ], [ 18.002965852160305, 59.220765424976939 ], [ 17.957388723420657, 59.220765424976939 ], [ 17.960870528268966, 59.2311458147786 ], [ 17.945675206333036, 59.2311458147786 ], [ 17.952640536156046, 59.251910032819751 ], [ 17.937439316396393, 59.251910032819751 ], [ 17.940922840642362, 59.262293862461789 ], [ 17.880106153046963, 59.262293862461789 ], [ 17.883580402766281, 59.27267884012106 ], [ 17.868373276573454, 59.27267884012106 ], [ 17.871847106731437, 59.28306496650054 ], [ 17.90226727201949, 59.28306496650054 ], [ 17.90574955699368, 59.293452242303943 ], [ 17.920962598248554, 59.293452242303943 ], [ 17.927940729138534, 59.314230245001021 ], [ 17.912721764173217, 59.314230245001021 ], [ 17.916211692134855, 59.324620973305578 ], [ 17.900989762065073, 59.324620973305578 ], [ 17.90447927617921, 59.335012853855964 ], [ 17.874029481491831, 59.335012853855964 ], [ 17.877515610858502, 59.34540588735932 ], [ 17.862287744069015, 59.34540588735932 ], [ 17.865773454502722, 59.355800074523607 ], [ 17.804850100864179, 59.355800074523607 ], [ 17.808326469511879, 59.366195416057458 ], [ 17.793092657305277, 59.366195416057458 ], [ 17.79656859755503, 59.376591912670143 ], [ 17.78133180937219, 59.376591912670143 ], [ 17.788285379116552, 59.397388373972902 ], [ 17.773042632433505, 59.397388373972902 ], [ 17.776520261156019, 59.407788340085084 ], [ 17.791765990367985, 59.407788340085084 ], [ 17.798734880115529, 59.428591746791916 ], [ 17.78348317927567, 59.428591746791916 ], [ 17.790456330980447, 59.449399790897786 ], [ 17.775198649736041, 59.449399790897786 ], [ 17.778686076957637, 59.459805553761498 ], [ 17.79394675170181, 59.459805553761498 ], [ 17.797439739558222, 59.470212478119699 ], [ 17.827967080449401, 59.470212478119699 ], [ 17.824468101190149, 59.459805553761498 ] ] ] ] } },
{ "type": "Feature", "properties": { "ID_UC_G0": 5816, "city_id": "ghsl_5816", "city_name": "London" }, "geometry": { "type": "MultiPolygon", "coordinates": [ [ [ [ 0.0, 51.774359307588441 ], [ 0.013467094760072, 51.774359307588441 ], [ 0.013463443458983, 51.75499254008038 ], [ 0.0, 51.75499254008038 ], [ 0.0, 51.745310302200338 ], [ -0.01346161937355, 51.745310302200338 ], [ -0.013454333445624, 51.706588981136257 ], [ 0.0, 51.706588981136257 ], [ 0.0, 51.69691055662183 ], [ 0.040357543688274, 51.69691055662183 ], [ 0.040352090153423, 51.68723289366406 ], [ 0.026901393435615, 51.68723289366406 ], [ 0.026897759819819, 51.677555991891346 ], [ 0.0, 51.677555991891346 ], [ 0.0, 51.667879850932415 ], [ -0.013447064138201, 51.667879850932415 ], [ -0.013443435699908, 51.648529849972242 ], [ 0.0, 51.648529849972242 ], [ 0.0, 51.638855989229747 ], [ 0.040324869094814, 51.638855989229747 ], [ 0.040330307099725, 51.648529849972242 ], [ 0.053773742799633, 51.648529849972242 ], [ 0.053780997607282, 51.658204470416308 ], [ 0.067226247009103, 51.658204470416308 ], [ 0.067235320691004, 51.667879850932415 ], [ 0.080682384829205, 51.667879850932415 ], [ 0.080671496410924, 51.658204470416308 ], [ 0.094116745812744, 51.658204470416308 ], [ 0.094104049899358, 51.648529849972242 ], [ 0.08066061419945, 51.648529849972242 ], [ 0.080638868376307, 51.629182887818665 ], [ 0.094078679772358, 51.629182887818665 ], [ 0.094066005546734, 51.619510545368989 ], [ 0.120942007131515, 51.619510545368989 ], [ 0.120925720977899, 51.609838961511088 ], [ 0.214979059516265, 51.609838961511088 ], [ 0.21500801267825, 51.619510545368989 ], [ 0.22844601347064, 51.619510545368989 ], [ 0.228415250736032, 51.609838961511088 ], [ 0.255287633175565, 51.609838961511088 ], [ 0.255184604911751, 51.580828757795274 ], [ 0.268615373591317, 51.580828757795274 ], [ 0.268579264450903, 51.57116020461303 ], [ 0.282008227673448, 51.57116020461303 ], [ 0.281970334638185, 51.561492408178182 ], [ 0.268543175845891, 51.561492408178182 ], [ 0.268507107759276, 51.551825368122643 ], [ 0.255081752371312, 51.551825368122643 ], [ 0.25504750716537, 51.542159084078605 ], [ 0.241623954156666, 51.542159084078605 ], [ 0.241591529765987, 51.532493555678506 ], [ 0.228169778112321, 51.532493555678506 ], [ 0.228139172474056, 51.522828782555045 ], [ 0.214719221152052, 51.522828782555045 ], [ 0.214690432205912, 51.513164764341219 ], [ 0.201272280193042, 51.513164764341219 ], [ 0.20124530588129, 51.503501500670254 ], [ 0.18782895215587, 51.503501500670254 ], [ 0.187778642970712, 51.484177235491174 ], [ 0.201191403182906, 51.484177235491174 ], [ 0.201164474770992, 51.474516233250846 ], [ 0.214575439755724, 51.474516233250846 ], [ 0.21454673240935, 51.464855984088985 ], [ 0.227955903184935, 51.464855984088985 ], [ 0.227925418926441, 51.455196487640073 ], [ 0.241332796510349, 51.455196487640073 ], [ 0.241300537359572, 51.445537743538992 ], [ 0.268111708177303, 51.445537743538992 ], [ 0.268147551678166, 51.455196487640073 ], [ 0.30836968442989, 51.455196487640073 ], [ 0.308328464403898, 51.445537743538992 ], [ 0.321734049812763, 51.445537743538992 ], [ 0.3216910619908, 51.435879751420764 ], [ 0.227864502243483, 51.435879751420764 ], [ 0.227834069790534, 51.426222510920752 ], [ 0.174226053369232, 51.426222510920752 ], [ 0.17420279467702, 51.416566021674527 ], [ 0.160802579701865, 51.416566021674527 ], [ 0.160824049263906, 51.426222510920752 ], [ 0.134020041053255, 51.426222510920752 ], [ 0.134002149751554, 51.416566021674527 ], [ 0.120601934776399, 51.416566021674527 ], [ 0.12056975778454, 51.397255295487156 ], [ 0.133966397538378, 51.397255295487156 ], [ 0.133912845069172, 51.368294831514341 ], [ 0.120521560562254, 51.368294831514341 ], [ 0.120505512995686, 51.358642842152889 ], [ 0.107116011551721, 51.358642842152889 ], [ 0.107101755114458, 51.348991601501687 ], [ 0.080326316335843, 51.348991601501687 ], [ 0.080337008663791, 51.358642842152889 ], [ 0.05355800577586, 51.358642842152889 ], [ 0.053565138027669, 51.368294831514341 ], [ 0.013391284506917, 51.368294831514341 ], [ 0.013389501443965, 51.358642842152889 ], [ 0.0, 51.358642842152889 ], [ 0.0, 51.329691364880844 ], [ -0.013384158301561, 51.329691364880844 ], [ -0.013385938342115, 51.339341109198365 ], [ -0.05354375336846, 51.339341109198365 ], [ -0.053536633206243, 51.329691364880844 ], [ -0.066920791507804, 51.329691364880844 ], [ -0.066911896334091, 51.320042368187337 ], [ -0.080294275600909, 51.320042368187337 ], [ -0.08028360742237, 51.310394118756264 ], [ -0.107044809896493, 51.310394118756264 ], [ -0.10703059369173, 51.30074661622632 ], [ -0.133788242114663, 51.30074661622632 ], [ -0.133806012370616, 51.310394118756264 ], [ -0.173947816081801, 51.310394118756264 ], [ -0.173970930468637, 51.320042368187337 ], [ -0.200735689002274, 51.320042368187337 ], [ -0.200709018555924, 51.310394118756264 ], [ -0.214089619792985, 51.310394118756264 ], [ -0.21406118738346, 51.30074661622632 ], [ -0.227440011594926, 51.30074661622632 ], [ -0.227409819216546, 51.291099860236478 ], [ -0.240786867405755, 51.291099860236478 ], [ -0.240850822267109, 51.310394118756264 ], [ -0.25423142350417, 51.310394118756264 ], [ -0.254265206069547, 51.320042368187337 ], [ -0.294412343870001, 51.320042368187337 ], [ -0.294529826564759, 51.348991601501687 ], [ -0.307917545954066, 51.348991601501687 ], [ -0.307958533211198, 51.358642842152889 ], [ -0.334737536099128, 51.358642842152889 ], [ -0.334692984732681, 51.348991601501687 ], [ -0.348080704121988, 51.348991601501687 ], [ -0.348219783053813, 51.377947569948581 ], [ -0.361612851632806, 51.377947569948581 ], [ -0.361661048847609, 51.387601057818479 ], [ -0.388450756169654, 51.387601057818479 ], [ -0.388502552861296, 51.397255295487156 ], [ -0.401899192615134, 51.397255295487156 ], [ -0.401952805748128, 51.406910283317963 ], [ -0.455546513181212, 51.406910283317963 ], [ -0.455485751630485, 51.397255295487156 ], [ -0.468882391384323, 51.397255295487156 ], [ -0.468944940039483, 51.406910283317963 ], [ -0.482343366897754, 51.406910283317963 ], [ -0.482407739105594, 51.416566021674527 ], [ -0.536008599006216, 51.416566021674527 ], [ -0.53608016421302, 51.426222510920752 ], [ -0.562884172423671, 51.426222510920752 ], [ -0.562809028956527, 51.416566021674527 ], [ -0.576209243931682, 51.416566021674527 ], [ -0.576286176528997, 51.426222510920752 ], [ -0.589688180634322, 51.426222510920752 ], [ -0.589766946983132, 51.435879751420764 ], [ -0.509344181485433, 51.435879751420764 ], [ -0.509412245536875, 51.445537743538992 ], [ -0.49600666012801, 51.445537743538992 ], [ -0.496205704435113, 51.474516233250846 ], [ -0.48279473945038, 51.474516233250846 ], [ -0.483183059531973, 51.532493555678506 ], [ -0.496604811185639, 51.532493555678506 ], [ -0.496671461322036, 51.542159084078605 ], [ -0.483247908313333, 51.542159084078605 ], [ -0.483377716522603, 51.561492408178182 ], [ -0.469950557730309, 51.561492408178182 ], [ -0.47001371278908, 51.57116020461303 ], [ -0.456584749566535, 51.57116020461303 ], [ -0.456646135105239, 51.580828757795274 ], [ -0.443215366425674, 51.580828757795274 ], [ -0.443274980418864, 51.590498068093247 ], [ -0.429842405254656, 51.590498068093247 ], [ -0.429958119032531, 51.609838961511088 ], [ -0.443394310252297, 51.609838961511088 ], [ -0.443573560042954, 51.638855989229747 ], [ -0.457015183074558, 51.638855989229747 ], [ -0.457138479661901, 51.658204470416308 ], [ -0.44369323026008, 51.658204470416308 ], [ -0.443753116560627, 51.667879850932415 ], [ -0.430306052422426, 51.667879850932415 ], [ -0.430538670259976, 51.706588981136257 ], [ -0.390175669923104, 51.706588981136257 ], [ -0.390122922319986, 51.69691055662183 ], [ -0.376670407757228, 51.69691055662183 ], [ -0.376517795869623, 51.667879850932415 ], [ -0.363070731731422, 51.667879850932415 ], [ -0.363021733849156, 51.658204470416308 ], [ -0.349576484447336, 51.658204470416308 ], [ -0.349529328197617, 51.648529849972242 ], [ -0.336085892497708, 51.648529849972242 ], [ -0.336040575790116, 51.638855989229747 ], [ -0.322598952758512, 51.638855989229747 ], [ -0.322555473505228, 51.629182887818665 ], [ -0.241916605128921, 51.629182887818665 ], [ -0.241949214568884, 51.638855989229747 ], [ -0.228507591537279, 51.638855989229747 ], [ -0.22856923983095, 51.658204470416308 ], [ -0.147897743420027, 51.658204470416308 ], [ -0.147877792698992, 51.648529849972242 ], [ -0.120990921299175, 51.648529849972242 ], [ -0.121007244616385, 51.658204470416308 ], [ -0.107561995214565, 51.658204470416308 ], [ -0.107576513105606, 51.667879850932415 ], [ -0.067235320691004, 51.667879850932415 ], [ -0.067244399549547, 51.677555991891346 ], [ -0.053795519639637, 51.677555991891346 ], [ -0.053810058251033, 51.69691055662183 ], [ -0.067262572813791, 51.69691055662183 ], [ -0.067280766836353, 51.716268167579102 ], [ -0.080736920203623, 51.716268167579102 ], [ -0.080747845971375, 51.725948116322449 ], [ -0.040373922985687, 51.725948116322449 ], [ -0.0403793889911, 51.735628827738644 ], [ -0.026919592660733, 51.735628827738644 ], [ -0.026934189520144, 51.774359307588441 ], [ -0.013467094760072, 51.774359307588441 ], [ -0.013468921977471, 51.784043837963594 ], [ 0.0, 51.784043837963594 ], [ 0.0, 51.774359307588441 ] ] ] ] } },
{ "type": "Feature", "properties": { "ID_UC_G0": 2878, "city_id": "ghsl_2878", "city_name": "Paris" }, "geometry": { "type": "MultiPolygon", "coordinates": [ [ [ [ 2.207589174087315, 49.044054686051339 ], [ 2.220574992758417, 49.044054686051339 ], [ 2.220308181127901, 49.034574552203523 ], [ 2.23329243949707, 49.034574552203523 ], [ 2.233024210745833, 49.02509508600086 ], [ 2.258989608545203, 49.02509508600086 ], [ 2.258718405591564, 49.015616287136389 ], [ 2.271699545853585, 49.015616287136389 ], [ 2.271426929720614, 49.006138155303347 ], [ 2.323345259542799, 49.006138155303347 ], [ 2.323066560854577, 48.996660690195164 ], [ 2.349022611813846, 48.996660690195164 ], [ 2.349304424453892, 49.006138155303347 ], [ 2.362284006909438, 49.006138155303347 ], [ 2.362567527687728, 49.015616287136389 ], [ 2.375548667949749, 49.015616287136389 ], [ 2.375833898642369, 49.02509508600086 ], [ 2.388816597542054, 49.02509508600086 ], [ 2.388529808211769, 49.015616287136389 ], [ 2.40151094847379, 49.015616287136389 ], [ 2.401222754276077, 49.006138155303347 ], [ 2.42718191918717, 49.006138155303347 ], [ 2.426890764691653, 48.996660690195164 ], [ 2.452846815650922, 48.996660690195164 ], [ 2.452552704061252, 48.98718389150546 ], [ 2.465529173394909, 48.98718389150546 ], [ 2.465233663227768, 48.977707758928091 ], [ 2.504158405278733, 48.977707758928091 ], [ 2.504458581395882, 48.98718389150546 ], [ 2.517435050729539, 48.98718389150546 ], [ 2.517133319295721, 48.977707758928091 ], [ 2.53010823331271, 48.977707758928091 ], [ 2.529805108155169, 48.968232292157069 ], [ 2.594671905800173, 48.968232292157069 ], [ 2.594361173813958, 48.95875749088664 ], [ 2.620304785552098, 48.95875749088664 ], [ 2.619364269976721, 48.930337077024198 ], [ 2.606397120125351, 48.930337077024198 ], [ 2.605774043651437, 48.91139345635542 ], [ 2.618738093619851, 48.91139345635542 ], [ 2.618425255272448, 48.901922641678546 ], [ 2.631387756536173, 48.901922641678546 ], [ 2.630759483937576, 48.882983002118017 ], [ 2.643718890262392, 48.882983002118017 ], [ 2.643088193850367, 48.86404601358818 ], [ 2.656044508526104, 48.86404601358818 ], [ 2.655727867084285, 48.854578512700449 ], [ 2.668682637167622, 48.854578512700449 ], [ 2.668364620177699, 48.845111673659581 ], [ 2.681317846489241, 48.845111673659581 ], [ 2.680679234049997, 48.826179979905874 ], [ 2.667729092822702, 48.826179979905874 ], [ 2.667411582203953, 48.816715124587269 ], [ 2.654462982290342, 48.816715124587269 ], [ 2.653831546710747, 48.797787395553456 ], [ 2.666777066450799, 48.797787395553456 ], [ 2.666143223834152, 48.77886230664253 ], [ 2.653200781, 48.77886230664253 ], [ 2.653516080184591, 48.788324521233669 ], [ 2.614684137547743, 48.788324521233669 ], [ 2.614373452497566, 48.77886230664253 ], [ 2.575546123995127, 48.77886230664253 ], [ 2.575240215401326, 48.769400751478216 ], [ 2.562299309796294, 48.769400751478216 ], [ 2.561691051101659, 48.750479618223821 ], [ 2.548753217510237, 48.750479618223821 ], [ 2.547243054477639, 48.703188303967707 ], [ 2.560173222266866, 48.703188303967707 ], [ 2.55987013860527, 48.693732013376021 ], [ 2.546941501541607, 48.693732013376021 ], [ 2.546338874383962, 48.674821402050512 ], [ 2.55926445242652, 48.674821402050512 ], [ 2.558961849669716, 48.665367080717139 ], [ 2.584809949161329, 48.665367080717139 ], [ 2.583893940701411, 48.637008050441196 ], [ 2.596813410404918, 48.637008050441196 ], [ 2.596506871979889, 48.627556350593622 ], [ 2.609424816616605, 48.627556350593622 ], [ 2.609116915933646, 48.61810530537025 ], [ 2.596200495557737, 48.61810530537025 ], [ 2.595894281017667, 48.60865491447251 ], [ 2.582979384097182, 48.60865491447251 ], [ 2.583284075181828, 48.61810530537025 ], [ 2.55745123443001, 48.61810530537025 ], [ 2.557753038069742, 48.627556350593622 ], [ 2.53191714879631, 48.627556350593622 ], [ 2.532515133069324, 48.646460405211656 ], [ 2.545436128646208, 48.646460405211656 ], [ 2.546037799923909, 48.665367080717139 ], [ 2.533113750178102, 48.665367080717139 ], [ 2.533413296341403, 48.674821402050512 ], [ 2.520487718298845, 48.674821402050512 ], [ 2.520785893920192, 48.684276379503586 ], [ 2.482004572475266, 48.684276379503586 ], [ 2.482298316223292, 48.693732013376021 ], [ 2.443512405032303, 48.693732013376021 ], [ 2.44322325103034, 48.684276379503586 ], [ 2.430296143882031, 48.684276379503586 ], [ 2.429721352211649, 48.665367080717139 ], [ 2.442645401957456, 48.665367080717139 ], [ 2.442356706658026, 48.655913415203948 ], [ 2.468201751172925, 48.655913415203948 ], [ 2.467910155184902, 48.646460405211656 ], [ 2.454989159608018, 48.646460405211656 ], [ 2.454409480976015, 48.627556350593622 ], [ 2.46732742561273, 48.627556350593622 ], [ 2.467036291798646, 48.61810530537025 ], [ 2.492869132550464, 48.61810530537025 ], [ 2.493163314886162, 48.627556350593622 ], [ 2.506081259522878, 48.627556350593622 ], [ 2.505785552926374, 48.61810530537025 ], [ 2.518701973302282, 48.61810530537025 ], [ 2.518404899494752, 48.60865491447251 ], [ 2.505490002574267, 48.60865491447251 ], [ 2.504899370137531, 48.58975609446091 ], [ 2.491987517714142, 48.58975609446091 ], [ 2.491400550141856, 48.570859888174503 ], [ 2.504309361282487, 48.570859888174503 ], [ 2.504014590407963, 48.56141276443396 ], [ 2.439478131892293, 48.56141276443396 ], [ 2.439191109743806, 48.551966293231978 ], [ 2.426285336676378, 48.551966293231978 ], [ 2.426856494438699, 48.570859888174503 ], [ 2.439765305579331, 48.570859888174503 ], [ 2.440340108020584, 48.58975609446091 ], [ 2.427428255597195, 48.58975609446091 ], [ 2.427714362731022, 48.599205177602116 ], [ 2.414800988461176, 48.599205177602116 ], [ 2.415085724130865, 48.60865491447251 ], [ 2.376341033369407, 48.60865491447251 ], [ 2.376060865651639, 48.599205177602116 ], [ 2.350234117111947, 48.599205177602116 ], [ 2.350511239528435, 48.60865491447251 ], [ 2.324681445687463, 48.60865491447251 ], [ 2.324407368572255, 48.599205177602116 ], [ 2.31149399430241, 48.599205177602116 ], [ 2.311221583786691, 48.58975609446091 ], [ 2.298309731363302, 48.58975609446091 ], [ 2.29803898573208, 48.580307664750976 ], [ 2.285128654351563, 48.580307664750976 ], [ 2.285397878939913, 48.58975609446091 ], [ 2.259574174093134, 48.58975609446091 ], [ 2.259307991590528, 48.580307664750976 ], [ 2.220576997448976, 48.580307664750976 ], [ 2.220838616822966, 48.58975609446091 ], [ 2.233750469246355, 48.58975609446091 ], [ 2.234277167244062, 48.60865491447251 ], [ 2.247192064164548, 48.60865491447251 ], [ 2.247722366788561, 48.627556350593622 ], [ 2.234804422151845, 48.627556350593622 ], [ 2.235068258706721, 48.637008050441196 ], [ 2.222148789003214, 48.637008050441196 ], [ 2.222411239224101, 48.646460405211656 ], [ 2.248253230377869, 48.646460405211656 ], [ 2.248518872796277, 48.655913415203948 ], [ 2.261441395053728, 48.655913415203948 ], [ 2.261708705516162, 48.665367080717139 ], [ 2.274632755261969, 48.665367080717139 ], [ 2.275440123204684, 48.693732013376021 ], [ 2.262511486141021, 48.693732013376021 ], [ 2.262779363114654, 48.703188303967707 ], [ 2.236919027536201, 48.703188303967707 ], [ 2.236654212013696, 48.693732013376021 ], [ 2.223725574950032, 48.693732013376021 ], [ 2.223462429509092, 48.684276379503586 ], [ 2.210535322360784, 48.684276379503586 ], [ 2.210273845277449, 48.674821402050512 ], [ 2.158571533107216, 48.674821402050512 ], [ 2.158826893767549, 48.684276379503586 ], [ 2.120045572322623, 48.684276379503586 ], [ 2.119794798979542, 48.674821402050512 ], [ 2.106869220936983, 48.674821402050512 ], [ 2.107367841377065, 48.693732013376021 ], [ 2.120296478440729, 48.693732013376021 ], [ 2.120547517433161, 48.703188303967707 ], [ 2.185198356379294, 48.703188303967707 ], [ 2.185457186027358, 48.712645251578685 ], [ 2.198388885352963, 48.712645251578685 ], [ 2.198649384479191, 48.722102856509245 ], [ 2.211582616152599, 48.722102856509245 ], [ 2.212107095775896, 48.741020039531051 ], [ 2.225043394581603, 48.741020039531051 ], [ 2.225307377724673, 48.750479618223821 ], [ 2.238245211316096, 48.750479618223821 ], [ 2.2387766696705, 48.769400751478216 ], [ 2.225835764065468, 48.769400751478216 ], [ 2.226100167473176, 48.77886230664253 ], [ 2.187272838970736, 48.77886230664253 ], [ 2.187013047250372, 48.769400751478216 ], [ 2.174072141645341, 48.769400751478216 ], [ 2.173814024087007, 48.759939855439129 ], [ 2.160874654896013, 48.759939855439129 ], [ 2.161387953302444, 48.77886230664253 ], [ 2.148445510468297, 48.77886230664253 ], [ 2.148700825905571, 48.788324521233669 ], [ 2.122812864147672, 48.788324521233669 ], [ 2.122560624800004, 48.77886230664253 ], [ 2.109618181965858, 48.77886230664253 ], [ 2.11162752358409, 48.854578512700449 ], [ 2.098672753500752, 48.854578512700449 ], [ 2.098922977469409, 48.86404601358818 ], [ 2.060054033442198, 48.86404601358818 ], [ 2.061037700932274, 48.901922641678546 ], [ 2.074000202195998, 48.901922641678546 ], [ 2.074247994946417, 48.91139345635542 ], [ 2.087212044914832, 48.91139345635542 ], [ 2.086962703459724, 48.901922641678546 ], [ 2.112887705987173, 48.901922641678546 ], [ 2.113140144851663, 48.91139345635542 ], [ 2.126104194820078, 48.91139345635542 ], [ 2.127376162527446, 48.95875749088664 ], [ 2.140347968396516, 48.95875749088664 ], [ 2.140604322285143, 48.968232292157069 ], [ 2.153577681814144, 48.968232292157069 ], [ 2.154093909387131, 48.98718389150546 ], [ 2.141117440053474, 48.98718389150546 ], [ 2.14163110516515, 49.006138155303347 ], [ 2.167590270076243, 49.006138155303347 ], [ 2.167850423757421, 49.015616287136389 ], [ 2.180831564019442, 49.015616287136389 ], [ 2.181093415147092, 49.02509508600086 ], [ 2.194076114046778, 49.02509508600086 ], [ 2.194867187233241, 49.053535487851498 ], [ 2.207854567039355, 49.053535487851498 ], [ 2.207589174087315, 49.044054686051339 ] ] ] ] } },
{ "type": "Feature", "properties": { "ID_UC_G0": 8099, "city_id": "ghsl_8099", "city_name": "New York City" }, "geometry": { "type": "MultiPolygon", "coordinates": [ [ [ [ -73.858507760371154, 40.614778947430075 ], [ -73.870349752957409, 40.614778947430075 ], [ -73.876564045763587, 40.623756185833145 ], [ -73.8647210569778, 40.623756185833145 ], [ -73.858507760371154, 40.614778947430075 ] ] ], [ [ [ -73.812946963115763, 40.992213663309258 ], [ -73.801062734012049, 40.992213663309258 ], [ -73.79475874072844, 40.983217769385313 ], [ -73.770992312792629, 40.983217769385313 ], [ -73.764693250173778, 40.974222334189704 ], [ -73.752811050874442, 40.974222334189704 ], [ -73.746515901173211, 40.965227357535476 ], [ -73.722753530977911, 40.965227357535476 ], [ -73.729046652275812, 40.974222334189704 ], [ -73.705282253677183, 40.974222334189704 ], [ -73.698991160782569, 40.965227357535476 ], [ -73.710872345880247, 40.965227357535476 ], [ -73.70458313395757, 40.956232839235703 ], [ -73.716463305320232, 40.956232839235703 ], [ -73.703891534233207, 40.938245176952549 ], [ -73.715769679524783, 40.938245176952549 ], [ -73.709487118416206, 40.929252032595883 ], [ -73.72136425137117, 40.929252032595883 ], [ -73.715083567812201, 40.920259345847086 ], [ -73.738835809980017, 40.920259345847086 ], [ -73.732555991827681, 40.911267116519788 ], [ -73.75630621118404, 40.911267116519788 ], [ -73.750027258631704, 40.902275344427608 ], [ -73.761901357369183, 40.902275344427608 ], [ -73.755624281086071, 40.893284029384361 ], [ -73.767497369347666, 40.893284029384361 ], [ -73.761222168597797, 40.884293171203872 ], [ -73.808710481598666, 40.884293171203872 ], [ -73.80243412700537, 40.875302769700085 ], [ -73.814305195708442, 40.875302769700085 ], [ -73.808030716570414, 40.866312824687057 ], [ -73.819900776190323, 40.866312824687057 ], [ -73.801091607704805, 40.839345726734273 ], [ -73.812958642856401, 40.839345726734273 ], [ -73.781662551608377, 40.794409675964815 ], [ -73.769800547982712, 40.794409675964815 ], [ -73.763550954307661, 40.7854238310154 ], [ -73.751689955601393, 40.7854238310154 ], [ -73.764190003204462, 40.803395975735455 ], [ -73.740463985191212, 40.803395975735455 ], [ -73.746716304095756, 40.812382730512432 ], [ -73.722988274396883, 40.812382730512432 ], [ -73.716737967177963, 40.803395975735455 ], [ -73.657422922144818, 40.803395975735455 ], [ -73.65118051172611, 40.794409675964815 ], [ -73.627456504474779, 40.794409675964815 ], [ -73.614984298557729, 40.776438440702137 ], [ -73.603124304309517, 40.776438440702137 ], [ -73.596893498754369, 40.767453504840063 ], [ -73.573175518252029, 40.767453504840063 ], [ -73.579404315813122, 40.776438440702137 ], [ -73.55568432731674, 40.776438440702137 ], [ -73.561913976301028, 40.7854238310154 ], [ -73.538191978888477, 40.7854238310154 ], [ -73.544422479095161, 40.794409675964815 ], [ -73.532560475469509, 40.794409675964815 ], [ -73.538792832078556, 40.803395975735455 ], [ -73.515066814065307, 40.803395975735455 ], [ -73.521300021956463, 40.812382730512432 ], [ -73.509436007107041, 40.812382730512432 ], [ -73.51567107238418, 40.821369940480999 ], [ -73.50380605122983, 40.821369940480999 ], [ -73.510042974616482, 40.830357605826478 ], [ -73.498176946694826, 40.830357605826478 ], [ -73.473250457341194, 40.794409675964815 ], [ -73.461388453715543, 40.794409675964815 ], [ -73.455164987944585, 40.7854238310154 ], [ -73.467025986650853, 40.7854238310154 ], [ -73.448369712237977, 40.758469023244338 ], [ -73.436511725523047, 40.758469023244338 ], [ -73.43029967754596, 40.749484995730157 ], [ -73.418442693906769, 40.749484995730157 ], [ -73.412234498896865, 40.740501422112835 ], [ -73.376666555825693, 40.740501422112835 ], [ -73.382871742989167, 40.749484995730157 ], [ -73.371014759349976, 40.749484995730157 ], [ -73.377221791948429, 40.758469023244338 ], [ -73.365363805233514, 40.758469023244338 ], [ -73.371572683982151, 40.767453504840063 ], [ -73.347854703479825, 40.767453504840063 ], [ -73.354064425097391, 40.776438440702137 ], [ -73.342204430849208, 40.776438440702137 ], [ -73.348415999588127, 40.7854238310154 ], [ -73.277250007350489, 40.7854238310154 ], [ -73.283458399330627, 40.794409675964815 ], [ -73.271596395704961, 40.794409675964815 ], [ -73.277806633932769, 40.803395975735455 ], [ -73.265943624926152, 40.803395975735455 ], [ -73.278370649297088, 40.821369940480999 ], [ -73.230910564679675, 40.821369940480999 ], [ -73.224699650720567, 40.812382730512432 ], [ -73.21283563587113, 40.812382730512432 ], [ -73.206628579893007, 40.803395975735455 ], [ -73.182902561879757, 40.803395975735455 ], [ -73.170501018994045, 40.7854238310154 ], [ -73.182362017700328, 40.7854238310154 ], [ -73.169969849712288, 40.767453504840063 ], [ -73.181828839963458, 40.767453504840063 ], [ -73.175636017794716, 40.758469023244338 ], [ -73.187494004509645, 40.758469023244338 ], [ -73.162747108560865, 40.722535635830496 ], [ -73.198309040078314, 40.722535635830496 ], [ -73.192126405951896, 40.713553422796544 ], [ -73.20397938188809, 40.713553422796544 ], [ -73.197798582535768, 40.704571662921602 ], [ -73.245206483172112, 40.704571662921602 ], [ -73.239024516931735, 40.695590356021434 ], [ -73.274577441454511, 40.695590356021434 ], [ -73.262216013352912, 40.677629100408922 ], [ -73.297762940093989, 40.677629100408922 ], [ -73.303945235174936, 40.686609501911889 ], [ -73.315795210156381, 40.686609501911889 ], [ -73.309611915674353, 40.677629100408922 ], [ -73.321460891254716, 40.677629100408922 ], [ -73.315279432385154, 40.668649151328552 ], [ -73.350823362297419, 40.668649151328552 ], [ -73.344641741362963, 40.659669654486905 ], [ -73.368335697667717, 40.659669654486905 ], [ -73.362154913819623, 40.650690609700199 ], [ -73.445076774694272, 40.650690609700199 ], [ -73.438891840290367, 40.641712016784723 ], [ -73.498116753064792, 40.641712016784723 ], [ -73.491929667110014, 40.632733875556873 ], [ -73.551149594319597, 40.632733875556873 ], [ -73.557341665839218, 40.641712016784723 ], [ -73.569186648394108, 40.641712016784723 ], [ -73.562993579761525, 40.632733875556873 ], [ -73.574837565203438, 40.632733875556873 ], [ -73.568646337333021, 40.623756185833145 ], [ -73.59233231490461, 40.623756185833145 ], [ -73.586141930887663, 40.614778947430075 ], [ -73.597983923473905, 40.614778947430075 ], [ -73.604175303690397, 40.623756185833145 ], [ -73.616018292476198, 40.623756185833145 ], [ -73.609825916060146, 40.614778947430075 ], [ -73.633509901232614, 40.614778947430075 ], [ -73.639704270047773, 40.623756185833145 ], [ -73.687076225190935, 40.623756185833145 ], [ -73.674682357158744, 40.605802160164359 ], [ -73.686523354001736, 40.605802160164359 ], [ -73.69271986416382, 40.614778947430075 ], [ -73.728245841922529, 40.614778947430075 ], [ -73.722046344530753, 40.605802160164359 ], [ -73.733887341373745, 40.605802160164359 ], [ -73.727689688091132, 40.596825823852711 ], [ -73.739529689646957, 40.596825823852711 ], [ -73.733333879763066, 40.587849938311997 ], [ -73.792528913385226, 40.587849938311997 ], [ -73.786330968686798, 40.578874503359117 ], [ -73.833683018081118, 40.578874503359117 ], [ -73.827483935421697, 40.569899518811113 ], [ -73.862994990705687, 40.569899518811113 ], [ -73.869197055126847, 40.578874503359117 ], [ -73.85735904277827, 40.578874503359117 ], [ -73.863562953731829, 40.587849938311997 ], [ -73.828045933558528, 40.587849938311997 ], [ -73.834249702093516, 40.596825823852711 ], [ -73.822409700537705, 40.596825823852711 ], [ -73.834823775198686, 40.614778947430075 ], [ -73.822981782612445, 40.614778947430075 ], [ -73.835405244925667, 40.632733875556873 ], [ -73.823561259483739, 40.632733875556873 ], [ -73.804933322431765, 40.605802160164359 ], [ -73.769410331902748, 40.605802160164359 ], [ -73.77561381226748, 40.614778947430075 ], [ -73.751929827095012, 40.614778947430075 ], [ -73.758134157905673, 40.623756185833145 ], [ -73.746291169119885, 40.623756185833145 ], [ -73.752497346832229, 40.632733875556873 ], [ -73.740653361390315, 40.632733875556873 ], [ -73.753072257943003, 40.650690609700199 ], [ -73.764918238067935, 40.650690609700199 ], [ -73.771132954848511, 40.659669654486905 ], [ -73.782979933000902, 40.659669654486905 ], [ -73.78919849788214, 40.668649151328552 ], [ -73.812894451156978, 40.668649151328552 ], [ -73.806673889305642, 40.659669654486905 ], [ -73.81852086745802, 40.659669654486905 ], [ -73.806086299491824, 40.641712016784723 ], [ -73.87715619482114, 40.641712016784723 ], [ -73.870937201251436, 40.632733875556873 ], [ -73.882781186693364, 40.632733875556873 ], [ -73.876564045763587, 40.623756185833145 ], [ -73.900250023335175, 40.623756185833145 ], [ -73.894033738129878, 40.614778947430075 ], [ -73.905875730716119, 40.614778947430075 ], [ -73.899661297175783, 40.605802160164359 ], [ -73.911502294018774, 40.605802160164359 ], [ -73.899079973905117, 40.587849938311997 ], [ -73.91091898062956, 40.587849938311997 ], [ -73.90471109217259, 40.578874503359117 ], [ -73.928387116869743, 40.578874503359117 ], [ -73.922180082845671, 40.569899518811113 ], [ -74.016876230269659, 40.569899518811113 ], [ -74.02930904787388, 40.587849938311997 ], [ -74.005631034425022, 40.587849938311997 ], [ -74.011849725430821, 40.596825823852711 ], [ -74.023689726986646, 40.596825823852711 ], [ -74.029912262448804, 40.605802160164359 ], [ -74.041753259291809, 40.605802160164359 ], [ -74.054208877550451, 40.623756185833145 ], [ -74.042365888764664, 40.623756185833145 ], [ -74.048596982880213, 40.632733875556873 ], [ -74.036752997438299, 40.632733875556873 ], [ -74.049221761066761, 40.650690609700199 ], [ -74.061067741191707, 40.650690609700199 ], [ -74.067307408657925, 40.659669654486905 ], [ -74.091001364962679, 40.659669654486905 ], [ -74.084759701441612, 40.650690609700199 ], [ -74.072913721316667, 40.650690609700199 ], [ -74.060440968322126, 40.632733875556873 ], [ -74.072284953764054, 40.632733875556873 ], [ -74.04114805459831, 40.587849938311997 ], [ -74.064826068047182, 40.587849938311997 ], [ -74.058605252704098, 40.578874503359117 ], [ -74.070443265052674, 40.578874503359117 ], [ -74.064224303981646, 40.569899518811113 ], [ -74.087898340837654, 40.569899518811113 ], [ -74.081680239857477, 40.560924984485062 ], [ -74.093516264819911, 40.560924984485062 ], [ -74.087300017135902, 40.551950900198193 ], [ -74.099135049087522, 40.551950900198193 ], [ -74.092920653985047, 40.542977265767753 ], [ -74.140256811566246, 40.542977265767753 ], [ -74.134041292024989, 40.534004081011126 ], [ -74.145874339318212, 40.534004081011126 ], [ -74.139660672292976, 40.525031345745788 ], [ -74.163324783583207, 40.525031345745788 ], [ -74.157111977165997, 40.516059059789256 ], [ -74.18077410606746, 40.516059059789256 ], [ -74.174562160452268, 40.507087222959193 ], [ -74.221882455291464, 40.507087222959193 ], [ -74.215669390096636, 40.4981158350733 ], [ -74.239327556940793, 40.4981158350733 ], [ -74.233115353841299, 40.489144895949423 ], [ -74.244943447428582, 40.489144895949423 ], [ -74.251156640362851, 40.4981158350733 ], [ -74.286643890629094, 40.4981158350733 ], [ -74.292862897550265, 40.507087222959193 ], [ -74.304692971260081, 40.507087222959193 ], [ -74.310915815025467, 40.516059059789256 ], [ -74.334577943926931, 40.516059059789256 ], [ -74.328353118679672, 40.507087222959193 ], [ -74.36384333980908, 40.507087222959193 ], [ -74.357618391161537, 40.4981158350733 ], [ -74.369447474583609, 40.4981158350733 ], [ -74.3632243833015, 40.489144895949423 ], [ -74.410536757650661, 40.489144895949423 ], [ -74.40431255487222, 40.480174405405442 ], [ -74.427966763282612, 40.480174405405442 ], [ -74.421743428866847, 40.471204363259339 ], [ -74.457221774693423, 40.471204363259339 ], [ -74.45099832035217, 40.462234769329221 ], [ -74.462823447150186, 40.462234769329221 ], [ -74.45660185002761, 40.453265623433225 ], [ -74.468425988800035, 40.453265623433225 ], [ -74.462206248181545, 40.444296925389622 ], [ -74.485852550578556, 40.444296925389622 ], [ -74.50452623579551, 40.471204363259339 ], [ -74.492700120519984, 40.471204363259339 ], [ -74.498929388513773, 40.480174405405442 ], [ -74.487102284308577, 40.480174405405442 ], [ -74.505804224326695, 40.507087222959193 ], [ -74.493974150616893, 40.507087222959193 ], [ -74.500212846237133, 40.516059059789256 ], [ -74.464719652884952, 40.516059059789256 ], [ -74.470958230356203, 40.525031345745788 ], [ -74.459126174711088, 40.525031345745788 ], [ -74.465366616235158, 40.534004081011126 ], [ -74.45353356894195, 40.534004081011126 ], [ -74.447294119065972, 40.525031345745788 ], [ -74.423630007775742, 40.525031345745788 ], [ -74.429867474355504, 40.534004081011126 ], [ -74.418034427062281, 40.534004081011126 ], [ -74.430515943732857, 40.551950900198193 ], [ -74.442350975684477, 40.551950900198193 ], [ -74.448597013692847, 40.560924984485062 ], [ -74.472269063617716, 40.560924984485062 ], [ -74.466021039587716, 40.551950900198193 ], [ -74.477856071539335, 40.551950900198193 ], [ -74.484105088580151, 40.560924984485062 ], [ -74.507777138505006, 40.560924984485062 ], [ -74.501526135442575, 40.551950900198193 ], [ -74.513361167394194, 40.551950900198193 ], [ -74.507112032820601, 40.542977265767753 ], [ -74.530780111611207, 40.542977265767753 ], [ -74.537031231297433, 40.551950900198193 ], [ -74.548866263249053, 40.551950900198193 ], [ -74.555121238354729, 40.560924984485062 ], [ -74.649809438054177, 40.560924984485062 ], [ -74.656075225381542, 40.569899518811113 ], [ -74.644238206953531, 40.569899518811113 ], [ -74.650505870132989, 40.578874503359117 ], [ -74.603153820738697, 40.578874503359117 ], [ -74.596890133241544, 40.569899518811113 ], [ -74.549542059529557, 40.569899518811113 ], [ -74.555801771344377, 40.578874503359117 ], [ -74.543963758995801, 40.578874503359117 ], [ -74.53770504110156, 40.569899518811113 ], [ -74.514031004245567, 40.569899518811113 ], [ -74.520287734298634, 40.578874503359117 ], [ -74.508449721950072, 40.578874503359117 ], [ -74.514708323575604, 40.587849938311997 ], [ -74.479191303402303, 40.587849938311997 ], [ -74.485449787663626, 40.596825823852711 ], [ -74.473609786107801, 40.596825823852711 ], [ -74.479870142482881, 40.605802160164359 ], [ -74.468029145639875, 40.605802160164359 ], [ -74.474291374855582, 40.614778947430075 ], [ -74.4506073896831, 40.614778947430075 ], [ -74.456870496267342, 40.623756185833145 ], [ -74.445027507481555, 40.623756185833145 ], [ -74.451292487905476, 40.632733875556873 ], [ -74.427604517021635, 40.632733875556873 ], [ -74.433870374900764, 40.641712016784723 ], [ -74.410180409790982, 40.641712016784723 ], [ -74.416447144940236, 40.650690609700199 ], [ -74.39275518469033, 40.650690609700199 ], [ -74.39902279692447, 40.659669654486905 ], [ -74.351634884314961, 40.659669654486905 ], [ -74.357901376478537, 40.668649151328552 ], [ -74.334205423203684, 40.668649151328552 ], [ -74.340472791165482, 40.677629100408922 ], [ -74.328623815585132, 40.677629100408922 ], [ -74.341165177137981, 40.695590356021434 ], [ -74.353016151978906, 40.695590356021434 ], [ -74.359292148126514, 40.704571662921602 ], [ -74.382996098444707, 40.704571662921602 ], [ -74.376718101660771, 40.695590356021434 ], [ -74.412271026183561, 40.695590356021434 ], [ -74.418552023921961, 40.704571662921602 ], [ -74.406700048762872, 40.704571662921602 ], [ -74.412982927379105, 40.713553422796544 ], [ -74.401129951442925, 40.713553422796544 ], [ -74.407414711671521, 40.722535635830496 ], [ -74.395560734499028, 40.722535635830496 ], [ -74.401847377075029, 40.731518302207789 ], [ -74.389992398206786, 40.731518302207789 ], [ -74.402572335960102, 40.749484995730157 ], [ -74.378858368681705, 40.749484995730157 ], [ -74.366282440470314, 40.731518302207789 ], [ -74.354427461602057, 40.731518302207789 ], [ -74.348144825809101, 40.722535635830496 ], [ -74.324436871464144, 40.722535635830496 ], [ -74.330717503865586, 40.731518302207789 ], [ -74.318862524997343, 40.731518302207789 ], [ -74.312582894291666, 40.722535635830496 ], [ -74.288874939946695, 40.722535635830496 ], [ -74.295152567260871, 40.731518302207789 ], [ -74.283297588392628, 40.731518302207789 ], [ -74.289577094652415, 40.740501422112835 ], [ -74.277721113628701, 40.740501422112835 ], [ -74.284002499568132, 40.749484995730157 ], [ -74.272145515928941, 40.749484995730157 ], [ -74.278428782282646, 40.758469023244338 ], [ -74.266570795567716, 40.758469023244338 ], [ -74.272855943070994, 40.767453504840063 ], [ -74.260996952819809, 40.767453504840063 ], [ -74.267283982208554, 40.776438440702137 ], [ -74.255423987960356, 40.776438440702137 ], [ -74.274299390489404, 40.803395975735455 ], [ -74.262436381482786, 40.803395975735455 ], [ -74.293948206119111, 40.84833430338989 ], [ -74.282080163274685, 40.84833430338989 ], [ -74.288390211790613, 40.857323335978911 ], [ -74.276521160790168, 40.857323335978911 ], [ -74.270212120430259, 40.84833430338989 ], [ -74.258344077585832, 40.84833430338989 ], [ -74.252038943465024, 40.839345726734273 ], [ -74.216437838010279, 40.839345726734273 ], [ -74.222739949052553, 40.84833430338989 ], [ -74.210871906208112, 40.84833430338989 ], [ -74.223482803267089, 40.866312824687057 ], [ -74.235352862886998, 40.866312824687057 ], [ -74.241663669019061, 40.875302769700085 ], [ -74.253534737722148, 40.875302769700085 ], [ -74.266167076335051, 40.893284029384361 ], [ -74.218674723288629, 40.893284029384361 ], [ -74.224991208131812, 40.902275344427608 ], [ -74.213117109394318, 40.902275344427608 ], [ -74.21943548863311, 40.911267116519788 ], [ -74.207560378954938, 40.911267116519788 ], [ -74.213880653336318, 40.920259345847086 ], [ -74.202004532252403, 40.920259345847086 ], [ -74.20832670252409, 40.929252032595883 ], [ -74.19644956956914, 40.929252032595883 ], [ -74.209100613579778, 40.947238779103621 ], [ -74.17346313929761, 40.947238779103621 ], [ -74.179789988464066, 40.956232839235703 ], [ -74.167909817101403, 40.956232839235703 ], [ -74.174238564688963, 40.965227357535476 ], [ -74.150476194493649, 40.965227357535476 ], [ -74.156805827051301, 40.974222334189704 ], [ -74.144923627751993, 40.974222334189704 ], [ -74.157589607123228, 40.992213663309258 ], [ -74.145705378019514, 40.992213663309258 ], [ -74.152041726804597, 41.001210016148562 ], [ -74.140156482097623, 41.001210016148562 ], [ -74.152835903503643, 41.01920409932211 ], [ -74.10528679423561, 41.01920409932211 ], [ -74.092615503269727, 41.001210016148562 ], [ -74.104500747976715, 41.001210016148562 ], [ -74.085512631255398, 40.974222334189704 ], [ -74.073630431956062, 40.974222334189704 ], [ -74.067307898810029, 40.965227357535476 ], [ -74.043545528614715, 40.965227357535476 ], [ -74.037227932112117, 40.956232839235703 ], [ -73.977827075298805, 40.956232839235703 ], [ -73.984139603126422, 40.965227357535476 ], [ -73.972258418028758, 40.965227357535476 ], [ -73.953332585356307, 40.938245176952549 ], [ -73.941454440064732, 40.938245176952549 ], [ -73.935152644560262, 40.929252032595883 ], [ -73.911398378650361, 40.929252032595883 ], [ -73.917698149481581, 40.938245176952549 ], [ -73.905820004190005, 40.938245176952549 ], [ -73.91212166122834, 40.947238779103621 ], [ -73.900242503134265, 40.947238779103621 ], [ -73.912852492540452, 40.965227357535476 ], [ -73.900971307442802, 40.965227357535476 ], [ -73.907279641765612, 40.974222334189704 ], [ -73.89539744246629, 40.974222334189704 ], [ -73.901707666439634, 40.983217769385313 ], [ -73.889824452471728, 40.983217769385313 ], [ -73.89613656684169, 40.992213663309258 ], [ -73.884252337737991, 40.992213663309258 ], [ -73.896883256726028, 41.010206828090446 ], [ -73.884996995948029, 41.010206828090446 ], [ -73.891315802529448, 41.01920409932211 ], [ -73.843766693261401, 41.01920409932211 ], [ -73.831140119716324, 41.001210016148562 ], [ -73.819254875009364, 41.001210016148562 ], [ -73.812946963115763, 40.992213663309258 ] ], [ [ -74.025529800816855, 40.650690609700199 ], [ -74.031766474200808, 40.659669654486905 ], [ -74.008072517896039, 40.659669654486905 ], [ -74.02679370904265, 40.686609501911889 ], [ -74.003093759079775, 40.686609501911889 ], [ -74.009337881592018, 40.695590356021434 ], [ -74.021188856432957, 40.695590356021434 ], [ -74.027436843672021, 40.704571662921602 ], [ -74.051140793990186, 40.704571662921602 ], [ -74.03864368402408, 40.686609501911889 ], [ -74.050493659005525, 40.686609501911889 ], [ -74.056741780955718, 40.695590356021434 ], [ -74.068592755796644, 40.695590356021434 ], [ -74.056097377236895, 40.677629100408922 ], [ -74.067946352817259, 40.677629100408922 ], [ -74.049221761066761, 40.650690609700199 ], [ -74.025529800816855, 40.650690609700199 ] ] ] ] } }
]
}
