{
"type": "FeatureCollection",
"name": "ghsl_348",
"crs": { "type": "name", "properties": { "name": "urn:ogc:def:crs:OGC:1.3:CRS84" } },
"features": [
{ "type": "Feature", "properties": { "city_id": "ghsl_348", "city_name": "Seoul" }, "geometry": { "type": "MultiPolygon", "coordinates": [ [ [ [ 127.044616254790611, 37.764269154089583 ], [ 127.056161567063867, 37.764269154089583 ], [ 127.04667541507493, 37.755427777143758 ], [ 127.069764315650119, 37.755427777143758 ], [ 127.079252191610351, 37.764269154089583 ], [ 127.090797503883607, 37.764269154089583 ], [ 127.081308765937735, 37.755427777143758 ], [ 127.104397666512938, 37.755427777143758 ], [ 127.113888128430077, 37.764269154089583 ], [ 127.125433440703318, 37.764269154089583 ], [ 127.115942116800539, 37.755427777143758 ], [ 127.127486567088155, 37.755427777143758 ], [ 127.117998598212395, 37.746586796734299 ], [ 127.10645500952748, 37.746586796734299 ], [ 127.087493436082411, 37.728906024892886 ], [ 127.07595156945483, 37.728906024892886 ], [ 127.057008556709675, 37.711226837302959 ], [ 127.068548702809267, 37.711226837302959 ], [ 127.049620792177635, 37.693549232703234 ], [ 127.061159219277101, 37.693549232703234 ], [ 127.051700708053673, 37.684711023630868 ], [ 127.074775844397308, 37.684711023630868 ], [ 127.065319815561878, 37.675873209833583 ], [ 127.123003363689506, 37.675873209833583 ], [ 127.132463685256383, 37.684711023630868 ], [ 127.144001253428229, 37.684711023630868 ], [ 127.162936223435779, 37.702387837208114 ], [ 127.151396937027116, 37.702387837208114 ], [ 127.198803719006747, 37.746586796734299 ], [ 127.18726013032186, 37.746586796734299 ], [ 127.196753268813779, 37.755427777143758 ], [ 127.242931069964172, 37.755427777143758 ], [ 127.23343448506148, 37.746586796734299 ], [ 127.244978073746395, 37.746586796734299 ], [ 127.21651103959077, 37.720066233145332 ], [ 127.228052045763278, 37.720066233145332 ], [ 127.209093369070416, 37.702387837208114 ], [ 127.220632655479065, 37.702387837208114 ], [ 127.211158771570126, 37.693549232703234 ], [ 127.222697198669579, 37.693549232703234 ], [ 127.213226662459121, 37.684711023630868 ], [ 127.224764230630939, 37.684711023630868 ], [ 127.19637526767761, 37.658198767434911 ], [ 127.207910261353845, 37.658198767434911 ], [ 127.198454816503698, 37.649362138519059 ], [ 127.209988952776513, 37.649362138519059 ], [ 127.200536847749348, 37.640525904249316 ], [ 127.223603406249268, 37.640525904249316 ], [ 127.214153782983615, 37.631690064468614 ], [ 127.225686205591089, 37.631690064468614 ], [ 127.216239919691745, 37.62285461901994 ], [ 127.227771486036886, 37.62285461901994 ], [ 127.218328536087, 37.614019567746382 ], [ 127.229859246549807, 37.614019567746382 ], [ 127.220419631133709, 37.605184910491054 ], [ 127.255009196014385, 37.605184910491054 ], [ 127.236137398136691, 37.587516777408034 ], [ 127.247665543230298, 37.587516777408034 ], [ 127.219386666817371, 37.561017529002747 ], [ 127.230912249954415, 37.561017529002747 ], [ 127.221493465303723, 37.552185232566643 ], [ 127.233018195212694, 37.552185232566643 ], [ 127.223602734839744, 37.54335332905265 ], [ 127.235126611899062, 37.54335332905265 ], [ 127.225714474397591, 37.534521818304484 ], [ 127.237237498985436, 37.534521818304484 ], [ 127.22782868295026, 37.52569070016591 ], [ 127.216306510455865, 37.52569070016591 ], [ 127.197503094615087, 37.508029641092811 ], [ 127.185982625174404, 37.508029641092811 ], [ 127.157811300928074, 37.481540993152841 ], [ 127.169329218618373, 37.481540993152841 ], [ 127.159946250744213, 37.472712227394403 ], [ 127.171463318604978, 37.472712227394403 ], [ 127.162083659756732, 37.463883853153753 ], [ 127.185116096572486, 37.463883853153753 ], [ 127.175738896279128, 37.455055870275181 ], [ 127.187254265610548, 37.455055870275181 ], [ 127.177880371931309, 37.44622827860308 ], [ 127.189394892562547, 37.44622827860308 ], [ 127.180024304104833, 37.437401077981846 ], [ 127.191537976411936, 37.437401077981846 ], [ 127.144743032006488, 37.39327093519919 ], [ 127.156252468326926, 37.39327093519919 ], [ 127.146905066306076, 37.384446077620318 ], [ 127.158413656554671, 37.384446077620318 ], [ 127.149069548540481, 37.375621610005325 ], [ 127.172085037643299, 37.375621610005325 ], [ 127.162743376930351, 37.366797532199143 ], [ 127.1742502761591, 37.366797532199143 ], [ 127.16491190706283, 37.357973844046867 ], [ 127.153405852782413, 37.357973844046867 ], [ 127.134743205667675, 37.340327636084496 ], [ 127.146247571173575, 37.340327636084496 ], [ 127.136921600127479, 37.331505115964852 ], [ 127.148425121806838, 37.331505115964852 ], [ 127.129783876359085, 37.313861242675188 ], [ 127.141285711505773, 37.313861242675188 ], [ 127.131970433980868, 37.305039889196031 ], [ 127.143471426421073, 37.305039889196031 ], [ 127.134159429379935, 37.296218924287992 ], [ 127.168659879699973, 37.296218924287992 ], [ 127.159349477849005, 37.287398347796632 ], [ 127.182348094140906, 37.287398347796632 ], [ 127.163736282938444, 37.269758359446719 ], [ 127.175233908280475, 37.269758359446719 ], [ 127.156636882125397, 37.252119922912321 ], [ 127.14514093809845, 37.252119922912321 ], [ 127.117278758330301, 37.225665175068173 ], [ 127.128772183172842, 37.225665175068173 ], [ 127.119492165833066, 37.216847700359601 ], [ 127.130984751690207, 37.216847700359601 ], [ 127.121708000050631, 37.208030612681 ], [ 127.133199747293418, 37.208030612681 ], [ 127.123926259993709, 37.199213911878672 ], [ 127.135417168993072, 37.199213911878672 ], [ 127.126146944673906, 37.190397597798921 ], [ 127.137637015800507, 37.190397597798921 ], [ 127.128370053103779, 37.181581670288132 ], [ 127.139859286728125, 37.181581670288132 ], [ 127.130595584296785, 37.172766129192759 ], [ 127.142083980789124, 37.172766129192759 ], [ 127.123567187691847, 37.15513620563442 ], [ 127.112080464353312, 37.15513620563442 ], [ 127.093581710345873, 37.137507825896904 ], [ 127.105066762009571, 37.137507825896904 ], [ 127.068114946013537, 37.102255692981451 ], [ 127.056633233268812, 37.102255692981451 ], [ 127.06586422888779, 37.11106814827312 ], [ 127.054381681966703, 37.11106814827312 ], [ 127.063615924083962, 37.119880988754211 ], [ 127.040649161151464, 37.119880988754211 ], [ 127.0314165881245, 37.11106814827312 ], [ 127.019934041203399, 37.11106814827312 ], [ 127.029165779685215, 37.119880988754211 ], [ 127.006199016752717, 37.119880988754211 ], [ 127.015433167058475, 37.128694214577791 ], [ 127.003948950678094, 37.128694214577791 ], [ 127.013186348700074, 37.137507825896904 ], [ 127.001701297036377, 37.137507825896904 ], [ 127.01094194412272, 37.146321822864714 ], [ 126.999456056806366, 37.146321822864714 ], [ 127.02720001586566, 37.172766129192759 ], [ 127.015711619373334, 37.172766129192759 ], [ 127.024966950484924, 37.181581670288132 ], [ 127.013477716860606, 37.181581670288132 ], [ 127.022736304534533, 37.190397597798921 ], [ 126.999756162281329, 37.190397597798921 ], [ 126.990499249611943, 37.181581670288132 ], [ 126.979010015987626, 37.181581670288132 ], [ 126.988266091154756, 37.190397597798921 ], [ 126.965285948901567, 37.190397597798921 ], [ 126.974544443001946, 37.199213911878672 ], [ 126.963053534002583, 37.199213911878672 ], [ 126.972315285893984, 37.208030612681 ], [ 126.93784004416554, 37.208030612681 ], [ 126.947103377975964, 37.216847700359601 ], [ 126.935610792118808, 37.216847700359601 ], [ 126.954148079744272, 37.234483036960555 ], [ 126.942653815545128, 37.234483036960555 ], [ 126.951927772449608, 37.243301286190629 ], [ 126.940432668522362, 37.243301286190629 ], [ 126.949709889640232, 37.252119922912321 ], [ 126.938213945613285, 37.252119922912321 ], [ 126.947494432306542, 37.260938947279648 ], [ 126.924500863309561, 37.260938947279648 ], [ 126.93378377609767, 37.269758359446719 ], [ 126.922286150755639, 37.269758359446719 ], [ 126.940862623076072, 37.287398347796632 ], [ 126.929363314930143, 37.287398347796632 ], [ 126.938656877566331, 37.296218924287992 ], [ 126.892656277139579, 37.296218924287992 ], [ 126.88336608234637, 37.287398347796632 ], [ 126.871866774200413, 37.287398347796632 ], [ 126.862581532127308, 37.278578159567637 ], [ 126.816587665896165, 37.278578159567637 ], [ 126.825869541616626, 37.287398347796632 ], [ 126.802870925324754, 37.287398347796632 ], [ 126.81215522639279, 37.296218924287992 ], [ 126.789154926179449, 37.296218924287992 ], [ 126.779872309032882, 37.287398347796632 ], [ 126.756873692740967, 37.287398347796632 ], [ 126.766154625966067, 37.296218924287992 ], [ 126.70865387543266, 37.296218924287992 ], [ 126.717934706133647, 37.305039889196031 ], [ 126.694932721253238, 37.305039889196031 ], [ 126.704215975931589, 37.313861242675188 ], [ 126.65820863534482, 37.313861242675188 ], [ 126.667492628460934, 37.322682984879954 ], [ 126.655989950234584, 37.322682984879954 ], [ 126.665277211274315, 37.331505115964852 ], [ 126.676780732953659, 37.331505115964852 ], [ 126.686072950937699, 37.340327636084496 ], [ 126.6745685854318, 37.340327636084496 ], [ 126.711775255586858, 37.375621610005325 ], [ 126.677252021932631, 37.375621610005325 ], [ 126.667946710094057, 37.366797532199143 ], [ 126.610412213950298, 37.366797532199143 ], [ 126.619713299175558, 37.375621610005325 ], [ 126.608205554624149, 37.375621610005325 ], [ 126.61750991487142, 37.384446077620318 ], [ 126.606001324622838, 37.384446077620318 ], [ 126.615308961265825, 37.39327093519919 ], [ 126.603799524945359, 37.39327093519919 ], [ 126.613110439358792, 37.402096182897019 ], [ 126.601600156591587, 37.402096182897019 ], [ 126.610914350151319, 37.410921820868928 ], [ 126.587892090973199, 37.410921820868928 ], [ 126.597208717859203, 37.419747849270173 ], [ 126.574184764286798, 37.419747849270173 ], [ 126.592827016443309, 37.437401077981846 ], [ 126.581313344136206, 37.437401077981846 ], [ 126.590639819738598, 37.44622827860308 ], [ 126.579125299107361, 37.44622827860308 ], [ 126.588455060376347, 37.455055870275181 ], [ 126.576939691044942, 37.455055870275181 ], [ 126.595609925566549, 37.472712227394403 ], [ 126.584092857705784, 37.472712227394403 ], [ 126.602777952287255, 37.490370150584823 ], [ 126.59125918439058, 37.490370150584823 ], [ 126.600607095918676, 37.499199699846173 ], [ 126.589087477438596, 37.499199699846173 ], [ 126.626517195829663, 37.534521818304484 ], [ 126.61499417124179, 37.534521818304484 ], [ 126.643107509964594, 37.561017529002747 ], [ 126.666158676238737, 37.561017529002747 ], [ 126.675539813454805, 37.569850218517381 ], [ 126.698592686942249, 37.569850218517381 ], [ 126.679831159581354, 37.552185232566643 ], [ 126.691355889490325, 37.552185232566643 ], [ 126.68198051305194, 37.54335332905265 ], [ 126.705028267170576, 37.54335332905265 ], [ 126.714405349308308, 37.552185232566643 ], [ 126.725930079217306, 37.552185232566643 ], [ 126.744698433917108, 37.569850218517381 ], [ 126.756224870660816, 37.569850218517381 ], [ 126.775011594392438, 37.587516777408034 ], [ 126.786539739486017, 37.587516777408034 ], [ 126.805344852565554, 37.605184910491054 ], [ 126.793814997605338, 37.605184910491054 ], [ 126.803222959426165, 37.614019567746382 ], [ 126.791692248963358, 37.614019567746382 ], [ 126.801103531266349, 37.62285461901994 ], [ 126.789571964921194, 37.62285461901994 ], [ 126.798986569114774, 37.631690064468614 ], [ 126.752856878684895, 37.631690064468614 ], [ 126.762272236251093, 37.640525904249316 ], [ 126.750738957001133, 37.640525904249316 ], [ 126.760157638137088, 37.649362138519059 ], [ 126.714021093045858, 37.649362138519059 ], [ 126.723440526952587, 37.658198767434911 ], [ 126.711905533276379, 37.658198767434911 ], [ 126.721328292434308, 37.667035791154028 ], [ 126.709792440973899, 37.667035791154028 ], [ 126.719218526796027, 37.675873209833583 ], [ 126.67307168829393, 37.675873209833583 ], [ 126.682498526555491, 37.684711023630868 ], [ 126.670960958383702, 37.684711023630868 ], [ 126.680391124994856, 37.693549232703234 ], [ 126.668852697895403, 37.693549232703234 ], [ 126.678286194272047, 37.702387837208114 ], [ 126.66674690786337, 37.702387837208114 ], [ 126.685624755655269, 37.720066233145332 ], [ 126.674083749482747, 37.720066233145332 ], [ 126.692976655413048, 37.737746212703279 ], [ 126.704519382878004, 37.737746212703279 ], [ 126.713972994240592, 37.746586796734299 ], [ 126.725516582925508, 37.746586796734299 ], [ 126.744438135686252, 37.764269154089583 ], [ 126.755983447959494, 37.764269154089583 ], [ 126.737060171610423, 37.746586796734299 ], [ 126.74860376029531, 37.746586796734299 ], [ 126.739147565272901, 37.737746212703279 ], [ 126.78531847513274, 37.737746212703279 ], [ 126.794778115034973, 37.746586796734299 ], [ 126.806321703719874, 37.746586796734299 ], [ 126.815786409322868, 37.755427777143758 ], [ 126.827330859610456, 37.755427777143758 ], [ 126.81786529240479, 37.746586796734299 ], [ 126.829408881089677, 37.746586796734299 ], [ 126.819946657527638, 37.737746212703279 ], [ 126.85457483992252, 37.737746212703279 ], [ 126.845114236903612, 37.728906024892886 ], [ 126.868197970158732, 37.728906024892886 ], [ 126.858739848242919, 37.720066233145332 ], [ 126.881821860587948, 37.720066233145332 ], [ 126.853467531486785, 37.693549232703234 ], [ 126.841929104387319, 37.693549232703234 ], [ 126.823048913425779, 37.675873209833583 ], [ 126.834585623051311, 37.675873209833583 ], [ 126.825150955577868, 37.667035791154028 ], [ 126.85975850995905, 37.667035791154028 ], [ 126.869195751927904, 37.675873209833583 ], [ 126.880732461553407, 37.675873209833583 ], [ 126.890174753648225, 37.684711023630868 ], [ 126.91324988999186, 37.684711023630868 ], [ 126.90380588080447, 37.675873209833583 ], [ 126.915342590430001, 37.675873209833583 ], [ 126.905901915800612, 37.667035791154028 ], [ 126.917437767261021, 37.667035791154028 ], [ 126.90800042577213, 37.658198767434911 ], [ 126.954140400477002, 37.658198767434911 ], [ 126.935271425000394, 37.640525904249316 ], [ 126.946804704250354, 37.640525904249316 ], [ 126.937375640404369, 37.631690064468614 ], [ 126.948908063011856, 37.631690064468614 ], [ 126.939482327408129, 37.62285461901994 ], [ 126.951013893753299, 37.62285461901994 ], [ 126.941591484979782, 37.614019567746382 ], [ 126.964652905905368, 37.614019567746382 ], [ 126.974077026443595, 37.62285461901994 ], [ 126.985608592788736, 37.62285461901994 ], [ 127.004471100500112, 37.640525904249316 ], [ 126.992937821250152, 37.640525904249316 ], [ 127.011815368858095, 37.658198767434911 ], [ 127.000280375181873, 37.658198767434911 ], [ 127.009724578944173, 37.667035791154028 ], [ 127.021260430404553, 37.667035791154028 ], [ 127.040163139881855, 37.684711023630868 ], [ 127.028625571710023, 37.684711023630868 ], [ 127.047543359349163, 37.702387837208114 ], [ 127.036004072940514, 37.702387837208114 ], [ 127.04546841061007, 37.711226837302959 ], [ 127.03392826451045, 37.711226837302959 ], [ 127.043395947003106, 37.720066233145332 ], [ 127.020313934658077, 37.720066233145332 ], [ 127.029784102944603, 37.728906024892886 ], [ 127.018242236317022, 37.728906024892886 ], [ 127.02771575189692, 37.737746212703279 ], [ 127.016173024431978, 37.737746212703279 ], [ 127.025649888733113, 37.746586796734299 ], [ 127.014106300048226, 37.746586796734299 ], [ 127.023586514499726, 37.755427777143758 ], [ 127.01204206421211, 37.755427777143758 ], [ 127.021525630244128, 37.764269154089583 ], [ 127.033070942517369, 37.764269154089583 ], [ 127.04255958629885, 37.773110927729718 ], [ 127.054105760940871, 37.773110927729718 ], [ 127.044616254790611, 37.764269154089583 ] ], [ [ 126.989340383638606, 37.463883853153753 ], [ 126.966307946822852, 37.463883853153753 ], [ 126.956946878982038, 37.455055870275181 ], [ 126.945431509650604, 37.455055870275181 ], [ 126.91737573153172, 37.428574268256028 ], [ 126.928888555890552, 37.428574268256028 ], [ 126.919544067872835, 37.419747849270173 ], [ 126.931056044659059, 37.419747849270173 ], [ 126.921714849056173, 37.410921820868928 ], [ 126.944737108234293, 37.410921820868928 ], [ 126.954079998231421, 37.419747849270173 ], [ 126.965591975017645, 37.419747849270173 ], [ 126.993648041831634, 37.44622827860308 ], [ 126.982133521200396, 37.44622827860308 ], [ 126.991492986976311, 37.455055870275181 ], [ 126.979977617644863, 37.455055870275181 ], [ 126.989340383638606, 37.463883853153753 ] ], [ [ 127.095131310959161, 37.455055870275181 ], [ 127.072100572296307, 37.455055870275181 ], [ 127.062735165619017, 37.44622827860308 ], [ 127.051220644987794, 37.44622827860308 ], [ 127.04186023641978, 37.437401077981846 ], [ 127.030346564112676, 37.437401077981846 ], [ 127.002292756179614, 37.410921820868928 ], [ 127.013803885768695, 37.410921820868928 ], [ 127.004460053444092, 37.402096182897019 ], [ 127.015970336211296, 37.402096182897019 ], [ 126.997293393074543, 37.384446077620318 ], [ 126.985784802825961, 37.384446077620318 ], [ 126.967126090041575, 37.366797532199143 ], [ 126.978632989270338, 37.366797532199143 ], [ 126.969308984295907, 37.357973844046867 ], [ 126.992321092856727, 37.357973844046867 ], [ 126.982999527184006, 37.349150545393599 ], [ 126.994504736890207, 37.349150545393599 ], [ 126.975872296616643, 37.331505115964852 ], [ 126.987375818295973, 37.331505115964852 ], [ 126.978064940572125, 37.322682984879954 ], [ 127.001070297024796, 37.322682984879954 ], [ 126.99176185459882, 37.313861242675188 ], [ 127.014765524892212, 37.313861242675188 ], [ 127.024075653477496, 37.322682984879954 ], [ 127.035578331703817, 37.322682984879954 ], [ 127.05421264712642, 37.340327636084496 ], [ 127.065717012632291, 37.340327636084496 ], [ 127.103038570334817, 37.375621610005325 ], [ 127.091530825783423, 37.375621610005325 ], [ 127.100870705311749, 37.384446077620318 ], [ 127.043327754068841, 37.384446077620318 ], [ 127.052667541442887, 37.39327093519919 ], [ 127.064176977763324, 37.39327093519919 ], [ 127.101580921272699, 37.428574268256028 ], [ 127.090068096913896, 37.428574268256028 ], [ 127.099428597955225, 37.437401077981846 ], [ 127.08791492564815, 37.437401077981846 ], [ 127.097278727512702, 37.44622827860308 ], [ 127.085764206881464, 37.44622827860308 ], [ 127.095131310959161, 37.455055870275181 ] ] ] ] } }
]
}
