{
"type": "FeatureCollection",
"name": "ghsl_8099",
"crs": { "type": "name", "properties": { "name": "urn:ogc:def:crs:OGC:1.3:CRS84" } },
"features": [
{ "type": "Feature", "properties": { "city_id": "ghsl_8099", "city_name": "New York City" }, "geometry": { "type": "MultiPolygon", "coordinates": [ [ [ [ -73.858507760371154, 40.614778947430075 ], [ -73.870349752957409, 40.614778947430075 ], [ -73.876564045763587, 40.623756185833145 ], [ -73.8647210569778, 40.623756185833145 ], [ -73.858507760371154, 40.614778947430075 ] ] ], [ [ [ -73.812946963115763, 40.992213663309258 ], [ -73.801062734012049, 40.992213663309258 ], [ -73.79475874072844, 40.983217769385313 ], [ -73.770992312792629, 40.983217769385313 ], [ -73.764693250173778, 40.974222334189704 ], [ -73.752811050874442, 40.974222334189704 ], [ -73.746515901173211, 40.965227357535476 ], [ -73.722753530977911, 40.965227357535476 ], [ -73.729046652275812, 40.974222334189704 ], [ -73.705282253677183, 40.974222334189704 ], [ -73.698991160782569, 40.965227357535476 ], [ -73.710872345880247, 40.965227357535476 ], [ -73.70458313395757, 40.956232839235703 ], [ -73.716463305320232, 40.956232839235703 ], [ -73.703891534233207, 40.938245176952549 ], [ -73.715769679524783, 40.938245176952549 ], [ -73.709487118416206, 40.929252032595883 ], [ -73.72136425137117, 40.929252032595883 ], [ -73.715083567812201, 40.920259345847086 ], [ -73.738835809980017, 40.920259345847086 ], [ -73.732555991827681, 40.911267116519788 ], [ -73.75630621118404, 40.911267116519788 ], [ -73.750027258631704, 40.902275344427608 ], [ -73.761901357369183, 40.902275344427608 ], [ -73.755624281086071, 40.893284029384361 ], [ -73.767497369347666, 40.893284029384361 ], [ -73.761222168597797, 40.884293171203872 ], [ -73.808710481598666, 40.884293171203872 ], [ -73.80243412700537, 40.875302769700085 ], [ -73.814305195708442, 40.875302769700085 ], [ -73.808030716570414, 40.866312824687057 ], [ -73.819900776190323, 40.866312824687057 ], [ -73.801091607704805, 40.839345726734273 ], [ -73.812958642856401, 40.839345726734273 ], [ -73.781662551608377, 40.794409675964815 ], [ -73.769800547982712, 40.794409675964815 ], [ -73.763550954307661, 40.7854238310154 ], [ -73.751689955601393, 40.7854238310154 ], [ -73.764190003204462, 40.803395975735455 ], [ -73.740463985191212, 40.803395975735455 ], [ -73.746716304095756, 40.812382730512432 ], [ -73.722988274396883, 40.812382730512432 ], [ -73.716737967177963, 40.803395975735455 ], [ -73.657422922144818, 40.803395975735455 ], [ -73.65118051172611, 40.794409675964815 ], [ -73.627456504474779, 40.794409675964815 ], [ -73.614984298557729, 40.776438440702137 ], [ -73.603124304309517, 40.776438440702137 ], [ -73.596893498754369, 40.767453504840063 ], [ -73.573175518252029, 40.767453504840063 ], [ -73.579404315813122, 40.776438440702137 ], [ -73.55568432731674, 40.776438440702137 ], [ -73.561913976301028, 40.7854238310154 ], [ -73.538191978888477, 40.7854238310154 ], [ -73.544422479095161, 40.794409675964815 ], [ -73.532560475469509, 40.794409675964815 ], [ -73.538792832078556, 40.803395975735455 ], [ -73.515066814065307, 40.803395975735455 ], [ -73.521300021956463, 40.812382730512432 ], [ -73.509436007107041, 40.812382730512432 ], [ -73.51567107238418, 40.821369940480999 ], [ -73.50380605122983, 40.821369940480999 ], [ -73.510042974616482, 40.830357605826478 ], [ -73.498176946694826, 40.830357605826478 ], [ -73.473250457341194, 40.794409675964815 ], [ -73.461388453715543, 40.794409675964815 ], [ -73.455164987944585, 40.7854238310154 ], [ -73.467025986650853, 40.7854238310154 ], [ -73.448369712237977, 40.758469023244338 ], [ -73.436511725523047, 40.758469023244338 ], [ -73.43029967754596, 40.749484995730157 ], [ -73.418442693906769, 40.749484995730157 ], [ -73.412234498896865, 40.740501422112835 ], [ -73.376666555825693, 40.740501422112835 ], [ -73.382871742989167, 40.749484995730157 ], [ -73.371014759349976, 40.749484995730157 ], [ -73.377221791948429, 40.758469023244338 ], [ -73.365363805233514, 40.758469023244338 ], [ -73.371572683982151, 40.767453504840063 ], [ -73.347854703479825, 40.767453504840063 ], [ -73.354064425097391, 40.776438440702137 ], [ -73.342204430849208, 40.776438440702137 ], [ -73.348415999588127, 40.7854238310154 ], [ -73.277250007350489, 40.7854238310154 ], [ -73.283458399330627, 40.794409675964815 ], [ -73.271596395704961, 40.794409675964815 ], [ -73.277806633932769, 40.803395975735455 ], [ -73.265943624926152, 40.803395975735455 ], [ -73.278370649297088, 40.821369940480999 ], [ -73.230910564679675, 40.821369940480999 ], [ -73.224699650720567, 40.812382730512432 ], [ -73.21283563587113, 40.812382730512432 ], [ -73.206628579893007, 40.803395975735455 ], [ -73.182902561879757, 40.803395975735455 ], [ -73.170501018994045, 40.7854238310154 ], [ -73.182362017700328, 40.7854238310154 ], [ -73.169969849712288, 40.767453504840063 ], [ -73.181828839963458, 40.767453504840063 ], [ -73.175636017794716, 40.758469023244338 ], [ -73.187494004509645, 40.758469023244338 ], [ -73.162747108560865, 40.722535635830496 ], [ -73.198309040078314, 40.722535635830496 ], [ -73.192126405951896, 40.713553422796544 ], [ -73.20397938188809, 40.713553422796544 ], [ -73.197798582535768, 40.704571662921602 ], [ -73.245206483172112, 40.704571662921602 ], [ -73.239024516931735, 40.695590356021434 ], [ -73.274577441454511, 40.695590356021434 ], [ -73.262216013352912, 40.677629100408922 ], [ -73.297762940093989, 40.677629100408922 ], [ -73.303945235174936, 40.686609501911889 ], [ -73.315795210156381, 40.686609501911889 ], [ -73.309611915674353, 40.677629100408922 ], [ -73.321460891254716, 40.677629100408922 ], [ -73.315279432385154, 40.668649151328552 ], [ -73.350823362297419, 40.668649151328552 ], [ -73.344641741362963, 40.659669654486905 ], [ -73.368335697667717, 40.659669654486905 ], [ -73.362154913819623, 40.650690609700199 ], [ -73.445076774694272, 40.650690609700199 ], [ -73.438891840290367, 40.641712016784723 ], [ -73.498116753064792, 40.641712016784723 ], [ -73.491929667110014, 40.632733875556873 ], [ -73.551149594319597, 40.632733875556873 ], [ -73.557341665839218, 40.641712016784723 ], [ -73.569186648394108, 40.641712016784723 ], [ -73.562993579761525, 40.632733875556873 ], [ -73.574837565203438, 40.632733875556873 ], [ -73.568646337333021, 40.623756185833145 ], [ -73.59233231490461, 40.623756185833145 ], [ -73.586141930887663, 40.614778947430075 ], [ -73.597983923473905, 40.614778947430075 ], [ -73.604175303690397, 40.623756185833145 ], [ -73.616018292476198, 40.623756185833145 ], [ -73.609825916060146, 40.614778947430075 ], [ -73.633509901232614, 40.614778947430075 ], [ -73.639704270047773, 40.623756185833145 ], [ -73.687076225190935, 40.623756185833145 ], [ -73.674682357158744, 40.605802160164359 ], [ -73.686523354001736, 40.605802160164359 ], [ -73.69271986416382, 40.614778947430075 ], [ -73.728245841922529, 40.614778947430075 ], [ -73.722046344530753, 40.605802160164359 ], [ -73.733887341373745, 40.605802160164359 ], [ -73.727689688091132, 40.596825823852711 ], [ -73.739529689646957, 40.596825823852711 ], [ -73.733333879763066, 40.587849938311997 ], [ -73.792528913385226, 40.587849938311997 ], [ -73.786330968686798, 40.578874503359117 ], [ -73.833683018081118, 40.578874503359117 ], [ -73.827483935421697, 40.569899518811113 ], [ -73.862994990705687, 40.569899518811113 ], [ -73.869197055126847, 40.578874503359117 ], [ -73.85735904277827, 40.578874503359117 ], [ -73.863562953731829, 40.587849938311997 ], [ -73.828045933558528, 40.587849938311997 ], [ -73.834249702093516, 40.596825823852711 ], [ -73.822409700537705, 40.596825823852711 ], [ -73.834823775198686, 40.614778947430075 ], [ -73.822981782612445, 40.614778947430075 ], [ -73.835405244925667, 40.632733875556873 ], [ -73.823561259483739, 40.632733875556873 ], [ -73.804933322431765, 40.605802160164359 ], [ -73.769410331902748, 40.605802160164359 ], [ -73.77561381226748, 40.614778947430075 ], [ -73.751929827095012, 40.614778947430075 ], [ -73.758134157905673, 40.623756185833145 ], [ -73.746291169119885, 40.623756185833145 ], [ -73.752497346832229, 40.632733875556873 ], [ -73.740653361390315, 40.632733875556873 ], [ -73.753072257943003, 40.650690609700199 ], [ -73.764918238067935, 40.650690609700199 ], [ -73.771132954848511, 40.659669654486905 ], [ -73.782979933000902, 40.659669654486905 ], [ -73.78919849788214, 40.668649151328552 ], [ -73.812894451156978, 40.668649151328552 ], [ -73.806673889305642, 40.659669654486905 ], [ -73.81852086745802, 40.659669654486905 ], [ -73.806086299491824, 40.641712016784723 ], [ -73.87715619482114, 40.641712016784723 ], [ -73.870937201251436, 40.632733875556873 ], [ -73.882781186693364, 40.632733875556873 ], [ -73.876564045763587, 40.623756185833145 ], [ -73.900250023335175, 40.623756185833145 ], [ -73.894033738129878, 40.614778947430075 ], [ -73.905875730716119, 40.614778947430075 ], [ -73.899661297175783, 40.605802160164359 ], [ -73.911502294018774, 40.605802160164359 ], [ -73.899079973905117, 40.587849938311997 ], [ -73.91091898062956, 40.587849938311997 ], [ -73.90471109217259, 40.578874503359117 ], [ -73.928387116869743, 40.578874503359117 ], [ -73.922180082845671, 40.569899518811113 ], [ -74.016876230269659, 40.569899518811113 ], [ -74.02930904787388, 40.587849938311997 ], [ -74.005631034425022, 40.587849938311997 ], [ -74.011849725430821, 40.596825823852711 ], [ -74.023689726986646, 40.596825823852711 ], [ -74.029912262448804, 40.605802160164359 ], [ -74.041753259291809, 40.605802160164359 ], [ -74.054208877550451, 40.623756185833145 ], [ -74.042365888764664, 40.623756185833145 ], [ -74.048596982880213, 40.632733875556873 ], [ -74.036752997438299, 40.632733875556873 ], [ -74.049221761066761, 40.650690609700199 ], [ -74.061067741191707, 40.650690609700199 ], [ -74.067307408657925, 40.659669654486905 ], [ -74.091001364962679, 40.659669654486905 ], [ -74.084759701441612, 40.650690609700199 ], [ -74.072913721316667, 40.650690609700199 ], [ -74.060440968322126, 40.632733875556873 ], [ -74.072284953764054, 40.632733875556873 ], [ -74.04114805459831, 40.587849938311997 ], [ -74.064826068047182, 40.587849938311997 ], [ -74.058605252704098, 40.578874503359117 ], [ -74.070443265052674, 40.578874503359117 ], [ -74.064224303981646, 40.569899518811113 ], [ -74.087898340837654, 40.569899518811113 ], [ -74.081680239857477, 40.560924984485062 ], [ -74.093516264819911, 40.560924984485062 ], [ -74.087300017135902, 40.551950900198193 ], [ -74.099135049087522, 40.551950900198193 ], [ -74.092920653985047, 40.542977265767753 ], [ -74.140256811566246, 40.542977265767753 ], [ -74.134041292024989, 40.534004081011126 ], [ -74.145874339318212, 40.534004081011126 ], [ -74.139660672292976, 40.525031345745788 ], [ -74.163324783583207, 40.525031345745788 ], [ -74.157111977165997, 40.516059059789256 ], [ -74.18077410606746, 40.516059059789256 ], [ -74.174562160452268, 40.507087222959193 ], [ -74.221882455291464, 40.507087222959193 ], [ -74.215669390096636, 40.4981158350733 ], [ -74.239327556940793, 40.4981158350733 ], [ -74.233115353841299, 40.489144895949423 ], [ -74.244943447428582, 40.489144895949423 ], [ -74.251156640362851, 40.4981158350733 ], [ -74.286643890629094, 40.4981158350733 ], [ -74.292862897550265, 40.507087222959193 ], [ -74.304692971260081, 40.507087222959193 ], [ -74.310915815025467, 40.516059059789256 ], [ -74.334577943926931, 40.516059059789256 ], [ -74.328353118679672, 40.507087222959193 ], [ -74.36384333980908, 40.507087222959193 ], [ -74.357618391161537, 40.4981158350733 ], [ -74.369447474583609, 40.4981158350733 ], [ -74.3632243833015, 40.489144895949423 ], [ -74.410536757650661, 40.489144895949423 ], [ -74.40431255487222, 40.480174405405442 ], [ -74.427966763282612, 40.480174405405442 ], [ -74.421743428866847, 40.471204363259339 ], [ -74.457221774693423, 40.471204363259339 ], [ -74.45099832035217, 40.462234769329221 ], [ -74.462823447150186, 40.462234769329221 ], [ -74.45660185002761, 40.453265623433225 ], [ -74.468425988800035, 40.453265623433225 ], [ -74.462206248181545, 40.444296925389622 ], [ -74.485852550578556, 40.444296925389622 ], [ -74.50452623579551, 40.471204363259339 ], [ -74.492700120519984, 40.471204363259339 ], [ -74.498929388513773, 40.480174405405442 ], [ -74.487102284308577, 40.480174405405442 ], [ -74.505804224326695, 40.507087222959193 ], [ -74.493974150616893, 40.507087222959193 ], [ -74.500212846237133, 40.516059059789256 ], [ -74.464719652884952, 40.516059059789256 ], [ -74.470958230356203, 40.525031345745788 ], [ -74.459126174711088, 40.525031345745788 ], [ -74.465366616235158, 40.534004081011126 ], [ -74.45353356894195, 40.534004081011126 ], [ -74.447294119065972, 40.525031345745788 ], [ -74.423630007775742, 40.525031345745788 ], [ -74.429867474355504, 40.534004081011126 ], [ -74.418034427062281, 40.534004081011126 ], [ -74.430515943732857, 40.551950900198193 ], [ -74.442350975684477, 40.551950900198193 ], [ -74.448597013692847, 40.560924984485062 ], [ -74.472269063617716, 40.560924984485062 ], [ -74.466021039587716, 40.551950900198193 ], [ -74.477856071539335, 40.551950900198193 ], [ -74.484105088580151, 40.560924984485062 ], [ -74.507777138505006, 40.560924984485062 ], [ -74.501526135442575, 40.551950900198193 ], [ -74.513361167394194, 40.551950900198193 ], [ -74.507112032820601, 40.542977265767753 ], [ -74.530780111611207, 40.542977265767753 ], [ -74.537031231297433, 40.551950900198193 ], [ -74.548866263249053, 40.551950900198193 ], [ -74.555121238354729, 40.560924984485062 ], [ -74.649809438054177, 40.560924984485062 ], [ -74.656075225381542, 40.569899518811113 ], [ -74.644238206953531, 40.569899518811113 ], [ -74.650505870132989, 40.578874503359117 ], [ -74.603153820738697, 40.578874503359117 ], [ -74.596890133241544, 40.569899518811113 ], [ -74.549542059529557, 40.569899518811113 ], [ -74.555801771344377, 40.578874503359117 ], [ -74.543963758995801, 40.578874503359117 ], [ -74.53770504110156, 40.569899518811113 ], [ -74.514031004245567, 40.569899518811113 ], [ -74.520287734298634, 40.578874503359117 ], [ -74.508449721950072, 40.578874503359117 ], [ -74.514708323575604, 40.587849938311997 ], [ -74.479191303402303, 40.587849938311997 ], [ -74.485449787663626, 40.596825823852711 ], [ -74.473609786107801, 40.596825823852711 ], [ -74.479870142482881, 40.605802160164359 ], [ -74.468029145639875, 40.605802160164359 ], [ -74.474291374855582, 40.614778947430075 ], [ -74.4506073896831, 40.614778947430075 ], [ -74.456870496267342, 40.623756185833145 ], [ -74.445027507481555, 40.623756185833145 ], [ -74.451292487905476, 40.632733875556873 ], [ -74.427604517021635, 40.632733875556873 ], [ -74.433870374900764, 40.641712016784723 ], [ -74.410180409790982, 40.641712016784723 ], [ -74.416447144940236, 40.650690609700199 ], [ -74.39275518469033, 40.650690609700199 ], [ -74.39902279692447, 40.659669654486905 ], [ -74.351634884314961, 40.659669654486905 ], [ -74.357901376478537, 40.668649151328552 ], [ -74.334205423203684, 40.668649151328552 ], [ -74.340472791165482, 40.677629100408922 ], [ -74.328623815585132, 40.677629100408922 ], [ -74.341165177137981, 40.695590356021434 ], [ -74.353016151978906, 40.695590356021434 ], [ -74.359292148126514, 40.704571662921602 ], [ -74.382996098444707, 40.704571662921602 ], [ -74.376718101660771, 40.695590356021434 ], [ -74.412271026183561, 40.695590356021434 ], [ -74.418552023921961, 40.704571662921602 ], [ -74.406700048762872, 40.704571662921602 ], [ -74.412982927379105, 40.713553422796544 ], [ -74.401129951442925, 40.713553422796544 ], [ -74.407414711671521, 40.722535635830496 ], [ -74.395560734499028, 40.722535635830496 ], [ -74.401847377075029, 40.731518302207789 ], [ -74.389992398206786, 40.731518302207789 ], [ -74.402572335960102, 40.749484995730157 ], [ -74.378858368681705, 40.749484995730157 ], [ -74.366282440470314, 40.731518302207789 ], [ -74.354427461602057, 40.731518302207789 ], [ -74.348144825809101, 40.722535635830496 ], [ -74.324436871464144, 40.722535635830496 ], [ -74.330717503865586, 40.731518302207789 ], [ -74.318862524997343, 40.731518302207789 ], [ -74.312582894291666, 40.722535635830496 ], [ -74.288874939946695, 40.722535635830496 ], [ -74.295152567260871, 40.731518302207789 ], [ -74.283297588392628, 40.731518302207789 ], [ -74.289577094652415, 40.740501422112835 ], [ -74.277721113628701, 40.740501422112835 ], [ -74.284002499568132, 40.749484995730157 ], [ -74.272145515928941, 40.749484995730157 ], [ -74.278428782282646, 40.758469023244338 ], [ -74.266570795567716, 40.758469023244338 ], [ -74.272855943070994, 40.767453504840063 ], [ -74.260996952819809, 40.767453504840063 ], [ -74.267283982208554, 40.776438440702137 ], [ -74.255423987960356, 40.776438440702137 ], [ -74.274299390489404, 40.803395975735455 ], [ -74.262436381482786, 40.803395975735455 ], [ -74.293948206119111, 40.84833430338989 ], [ -74.282080163274685, 40.84833430338989 ], [ -74.288390211790613, 40.857323335978911 ], [ -74.276521160790168, 40.857323335978911 ], [ -74.270212120430259, 40.84833430338989 ], [ -74.258344077585832, 40.84833430338989 ], [ -74.252038943465024, 40.839345726734273 ], [ -74.216437838010279, 40.839345726734273 ], [ -74.222739949052553, 40.84833430338989 ], [ -74.210871906208112, 40.84833430338989 ], [ -74.223482803267089, 40.866312824687057 ], [ -74.235352862886998, 40.866312824687057 ], [ -74.241663669019061, 40.875302769700085 ], [ -74.253534737722148, 40.875302769700085 ], [ -74.266167076335051, 40.893284029384361 ], [ -74.218674723288629, 40.893284029384361 ], [ -74.224991208131812, 40.902275344427608 ], [ -74.213117109394318, 40.902275344427608 ], [ -74.21943548863311, 40.911267116519788 ], [ -74.207560378954938, 40.911267116519788 ], [ -74.213880653336318, 40.920259345847086 ], [ -74.202004532252403, 40.920259345847086 ], [ -74.20832670252409, 40.929252032595883 ], [ -74.19644956956914, 40.929252032595883 ], [ -74.209100613579778, 40.947238779103621 ], [ -74.17346313929761, 40.947238779103621 ], [ -74.179789988464066, 40.956232839235703 ], [ -74.167909817101403, 40.956232839235703 ], [ -74.174238564688963, 40.965227357535476 ], [ -74.150476194493649, 40.965227357535476 ], [ -74.156805827051301, 40.974222334189704 ], [ -74.144923627751993, 40.974222334189704 ], [ -74.157589607123228, 40.992213663309258 ], [ -74.145705378019514, 40.992213663309258 ], [ -74.152041726804597, 41.001210016148562 ], [ -74.140156482097623, 41.001210016148562 ], [ -74.152835903503643, 41.01920409932211 ], [ -74.10528679423561, 41.01920409932211 ], [ -74.092615503269727, 41.001210016148562 ], [ -74.104500747976715, 41.001210016148562 ], [ -74.085512631255398, 40.974222334189704 ], [ -74.073630431956062, 40.974222334189704 ], [ -74.067307898810029, 40.965227357535476 ], [ -74.043545528614715, 40.965227357535476 ], [ -74.037227932112117, 40.956232839235703 ], [ -73.977827075298805, 40.956232839235703 ], [ -73.984139603126422, 40.965227357535476 ], [ -73.972258418028758, 40.965227357535476 ], [ -73.953332585356307, 40.938245176952549 ], [ -73.941454440064732, 40.938245176952549 ], [ -73.935152644560262, 40.929252032595883 ], [ -73.911398378650361, 40.929252032595883 ], [ -73.917698149481581, 40.938245176952549 ], [ -73.905820004190005, 40.938245176952549 ], [ -73.91212166122834, 40.947238779103621 ], [ -73.900242503134265, 40.947238779103621 ], [ -73.912852492540452, 40.965227357535476 ], [ -73.900971307442802, 40.965227357535476 ], [ -73.907279641765612, 40.974222334189704 ], [ -73.89539744246629, 40.974222334189704 ], [ -73.901707666439634, 40.983217769385313 ], [ -73.889824452471728, 40.983217769385313 ], [ -73.89613656684169, 40.992213663309258 ], [ -73.884252337737991, 40.992213663309258 ], [ -73.896883256726028, 41.010206828090446 ], [ -73.884996995948029, 41.010206828090446 ], [ -73.891315802529448, 41.01920409932211 ], [ -73.843766693261401, 41.01920409932211 ], [ -73.831140119716324, 41.001210016148562 ], [ -73.819254875009364, 41.001210016148562 ], [ -73.812946963115763, 40.992213663309258 ] ], [ [ -74.025529800816855, 40.650690609700199 ], [ -74.031766474200808, 40.659669654486905 ], [ -74.008072517896039, 40.659669654486905 ], [ -74.02679370904265, 40.686609501911889 ], [ -74.003093759079775, 40.686609501911889 ], [ -74.009337881592018, 40.695590356021434 ], [ -74.021188856432957, 40.695590356021434 ], [ -74.027436843672021, 40.704571662921602 ], [ -74.051140793990186, 40.704571662921602 ], [ -74.03864368402408, 40.686609501911889 ], [ -74.050493659005525, 40.686609501911889 ], [ -74.056741780955718, 40.695590356021434 ], [ -74.068592755796644, 40.695590356021434 ], [ -74.056097377236895, 40.677629100408922 ], [ -74.067946352817259, 40.677629100408922 ], [ -74.049221761066761, 40.650690609700199 ], [ -74.025529800816855, 40.650690609700199 ] ] ] ] } }
]
}
