{
"type": "FeatureCollection",
"name": "ghsl_7794",
"crs": { "type": "name", "properties": { "name": "urn:ogc:def:crs:OGC:1.3:CRS84" } },
"features": [
{ "type": "Feature", "properties": { "city_id": "ghsl_7794", "city_name": "Lahore" }, "geometry": { "type": "MultiPolygon", "coordinates": [ [ [ [ 74.013799749550785, 31.749962209054711 ], [ 74.024831766207456, 31.749962209054711 ], [ 74.016275602057476, 31.732758646141651 ], [ 74.027306343577905, 31.732758646141651 ], [ 74.023030404291148, 31.724157317135759 ], [ 74.03406050865776, 31.724157317135759 ], [ 74.029785785007846, 31.715556289603743 ], [ 74.073903654963146, 31.715556289603743 ], [ 74.069628236904876, 31.706955563425748 ], [ 74.091685898678818, 31.706955563425748 ], [ 74.087411060279678, 31.698355138481919 ], [ 74.098439254840599, 31.698355138481919 ], [ 74.094165632462747, 31.689755014652501 ], [ 74.116220749483873, 31.689755014652501 ], [ 74.111947707113046, 31.681155191817751 ], [ 74.122974629848812, 31.681155191817751 ], [ 74.118702803296031, 31.672555669857974 ], [ 74.151781665005331, 31.672555669857974 ], [ 74.147509783583416, 31.663956448653504 ], [ 74.180586739620693, 31.663956448653504 ], [ 74.176314804191563, 31.655357528084753 ], [ 74.209389855382483, 31.655357528084753 ], [ 74.205117866807598, 31.646758908032155 ], [ 74.216142249197546, 31.646758908032155 ], [ 74.211871477135233, 31.638160588376167 ], [ 74.233918973117753, 31.638160588376167 ], [ 74.23819101397747, 31.646758908032155 ], [ 74.249215396367418, 31.646758908032155 ], [ 74.262044537369647, 31.672555669857974 ], [ 74.251018250133214, 31.672555669857974 ], [ 74.259579010121158, 31.689755014652501 ], [ 74.270606568631734, 31.689755014652501 ], [ 74.274890367815374, 31.698355138481919 ], [ 74.307974951498139, 31.698355138481919 ], [ 74.303689244163408, 31.689755014652501 ], [ 74.347799478205658, 31.689755014652501 ], [ 74.343513084564236, 31.681155191817751 ], [ 74.332486161828456, 31.681155191817751 ], [ 74.323920215782266, 31.663956448653504 ], [ 74.312894563769831, 31.663956448653504 ], [ 74.304337308317216, 31.646758908032155 ], [ 74.315361690707164, 31.646758908032155 ], [ 74.311085209056543, 31.638160588376167 ], [ 74.322108957047803, 31.638160588376167 ], [ 74.317833694144568, 31.629562568997319 ], [ 74.328856808011992, 31.629562568997319 ], [ 74.32458276361632, 31.620964849776161 ], [ 74.434807563799637, 31.620964849776161 ], [ 74.430529035501806, 31.612367430593316 ], [ 74.463594574833422, 31.612367430593316 ], [ 74.459316000434896, 31.603770311329416 ], [ 74.514422066154594, 31.603770311329416 ], [ 74.4973136467232, 31.569384831077727 ], [ 74.486294964036219, 31.569384831077727 ], [ 74.48202312320511, 31.560789209619749 ], [ 74.471005072447255, 31.560789209619749 ], [ 74.462468206005951, 31.543598864195911 ], [ 74.473484993726913, 31.543598864195911 ], [ 74.464954261920482, 31.526409714634699 ], [ 74.475969787698872, 31.526409714634699 ], [ 74.46744518643473, 31.509221759984495 ], [ 74.478459451363932, 31.509221759984495 ], [ 74.474199290938401, 31.500628230453842 ], [ 74.507240195681504, 31.500628230453842 ], [ 74.502979992073278, 31.492034999294393 ], [ 74.491966986900763, 31.492034999294393 ], [ 74.487709258840255, 31.483442066387386 ], [ 74.476696883136711, 31.483442066387386 ], [ 74.468188219424022, 31.46625709485588 ], [ 74.479199337007842, 31.46625709485588 ], [ 74.4749471416728, 31.457665055994067 ], [ 74.46393665273996, 31.457665055994067 ], [ 74.455439045813421, 31.440481871485371 ], [ 74.433420580917428, 31.440481871485371 ], [ 74.429175794783532, 31.431890725601399 ], [ 74.418167190169598, 31.431890725601399 ], [ 74.413924871122276, 31.423299877139748 ], [ 74.40291689407033, 31.423299877139748 ], [ 74.38173599414263, 31.3803500920224 ], [ 74.392740837461773, 31.3803500920224 ], [ 74.388509537610432, 31.371761025609043 ], [ 74.399513754997656, 31.371761025609043 ], [ 74.395283663303687, 31.36317225578987 ], [ 74.406287255030236, 31.36317225578987 ], [ 74.397831320305826, 31.345995605461624 ], [ 74.386828979087227, 31.345995605461624 ], [ 74.382604385017913, 31.3374077247164 ], [ 74.360600952275703, 31.3374077247164 ], [ 74.369049472250623, 31.354583782446753 ], [ 74.358046505913563, 31.354583782446753 ], [ 74.362272888123982, 31.36317225578987 ], [ 74.340265704670841, 31.36317225578987 ], [ 74.344492668061534, 31.371761025609043 ], [ 74.322484233287099, 31.371761025609043 ], [ 74.326711777546876, 31.3803500920224 ], [ 74.315706934227705, 31.3803500920224 ], [ 74.319935685248524, 31.388939455148147 ], [ 74.286919276681104, 31.388939455148147 ], [ 74.28269240427025, 31.3803500920224 ], [ 74.271687560951108, 31.3803500920224 ], [ 74.26746314635102, 31.371761025609043 ], [ 74.256458928963795, 31.371761025609043 ], [ 74.248016842542867, 31.354583782446753 ], [ 74.259019808879941, 31.354583782446753 ], [ 74.250583788564697, 31.3374077247164 ], [ 74.26158550493578, 31.3374077247164 ], [ 74.257369612205821, 31.328820140093097 ], [ 74.246368520411437, 31.328820140093097 ], [ 74.229525709851927, 31.29447276046033 ], [ 74.207528517464937, 31.29447276046033 ], [ 74.215943777354354, 31.311645858740416 ], [ 74.204943933901362, 31.311645858740416 ], [ 74.209153676768139, 31.320232851473747 ], [ 74.220154144256554, 31.320232851473747 ], [ 74.232796202026549, 31.345995605461624 ], [ 74.221793860807921, 31.345995605461624 ], [ 74.226010909868734, 31.354583782446753 ], [ 74.193002010857526, 31.354583782446753 ], [ 74.188786837152065, 31.345995605461624 ], [ 74.177784495933437, 31.345995605461624 ], [ 74.181999044520452, 31.354583782446753 ], [ 74.170996078183393, 31.354583782446753 ], [ 74.17521182877239, 31.36317225578987 ], [ 74.153204645319249, 31.36317225578987 ], [ 74.157420972478803, 31.371761025609043 ], [ 74.146416755091579, 31.371761025609043 ], [ 74.150634284440429, 31.3803500920224 ], [ 74.139629441121301, 31.3803500920224 ], [ 74.143848172888994, 31.388939455148147 ], [ 74.132842703366506, 31.388939455148147 ], [ 74.137062637782734, 31.397529115104472 ], [ 74.126056541785431, 31.397529115104472 ], [ 74.134500646501508, 31.414709325981946 ], [ 74.145507996263419, 31.414709325981946 ], [ 74.149733421875681, 31.423299877139748 ], [ 74.160741398927613, 31.423299877139748 ], [ 74.16919900216547, 31.440481871485371 ], [ 74.180208234613445, 31.440481871485371 ], [ 74.197147966611794, 31.474849431614111 ], [ 74.208159713119144, 31.474849431614111 ], [ 74.212399866251403, 31.483442066387386 ], [ 74.223412241954961, 31.483442066387386 ], [ 74.236145622921157, 31.509221759984495 ], [ 74.247159887850387, 31.509221759984495 ], [ 74.255659272131055, 31.526409714634699 ], [ 74.244643746352665, 31.526409714634699 ], [ 74.261662108047702, 31.560789209619749 ], [ 74.250644057289833, 31.560789209619749 ], [ 74.254902627609454, 31.569384831077727 ], [ 74.243883944922459, 31.569384831077727 ], [ 74.248143729063642, 31.577980751858512 ], [ 74.237124414173607, 31.577980751858512 ], [ 74.241385412373347, 31.586576972081264 ], [ 74.21934551763907, 31.586576972081264 ], [ 74.215085784393523, 31.577980751858512 ], [ 74.204066469503488, 31.577980751858512 ], [ 74.199809214174522, 31.569384831077727 ], [ 74.188790531487541, 31.569384831077727 ], [ 74.214357963432974, 31.620964849776161 ], [ 74.203335483414648, 31.620964849776161 ], [ 74.207602555470359, 31.629562568997319 ], [ 74.174533213868102, 31.629562568997319 ], [ 74.178800233161482, 31.638160588376167 ], [ 74.145728989187702, 31.638160588376167 ], [ 74.149995954857786, 31.646758908032155 ], [ 74.127947190077876, 31.646758908032155 ], [ 74.132214735936998, 31.655357528084753 ], [ 74.121189718873353, 31.655357528084753 ], [ 74.125458479558546, 31.663956448653504 ], [ 74.059304567483977, 31.663956448653504 ], [ 74.06357136711388, 31.672555669857974 ], [ 74.052545079877447, 31.672555669857974 ], [ 74.056813093434187, 31.681155191817751 ], [ 74.034759247962654, 31.681155191817751 ], [ 74.030492505404581, 31.672555669857974 ], [ 74.019466218168148, 31.672555669857974 ], [ 74.023732325226888, 31.681155191817751 ], [ 73.979624634283809, 31.681155191817751 ], [ 73.975361069222416, 31.672555669857974 ], [ 73.964334781985997, 31.672555669857974 ], [ 73.960073699372117, 31.663956448653504 ], [ 73.949048047359682, 31.663956448653504 ], [ 73.93202470878488, 31.629562568997319 ], [ 73.921001594917456, 31.629562568997319 ], [ 73.916751002938014, 31.620964849776161 ], [ 73.905728522919674, 31.620964849776161 ], [ 73.931255920276698, 31.672555669857974 ], [ 73.942282207513131, 31.672555669857974 ], [ 73.946543866076496, 31.681155191817751 ], [ 73.957570788812262, 31.681155191817751 ], [ 73.96610092010954, 31.698355138481919 ], [ 73.955072725548604, 31.698355138481919 ], [ 73.959339928035163, 31.706955563425748 ], [ 73.948311097148178, 31.706955563425748 ], [ 73.952579512586055, 31.715556289603743 ], [ 73.930520577608391, 31.715556289603743 ], [ 73.934789569358287, 31.724157317135759 ], [ 73.945819673724898, 31.724157317135759 ], [ 73.950091152934917, 31.732758646141651 ], [ 73.961121894455346, 31.732758646141651 ], [ 73.96967168292413, 31.749962209054711 ], [ 74.002767732894142, 31.749962209054711 ], [ 74.007047320531484, 31.758564443201827 ], [ 74.018079975170792, 31.758564443201827 ], [ 74.013799749550785, 31.749962209054711 ] ] ] ] } }
]
}
