{
"type": "FeatureCollection",
"name": "ghsl_5402",
"crs": { "type": "name", "properties": { "name": "urn:ogc:def:crs:OGC:1.3:CRS84" } },
"features": [
{ "type": "Feature", "properties": { "city_id": "ghsl_5402", "city_name": "Mexico City" }, "geometry": { "type": "MultiPolygon", "coordinates": [ [ [ [ -99.195376287047679, 19.779868956155479 ], [ -99.185016456626059, 19.779868956155479 ], [ -99.181827668270486, 19.771591228472989 ], [ -99.17146817091637, 19.771591228472989 ], [ -99.168281336958174, 19.76331366460116 ], [ -99.147563008046248, 19.76331366460116 ], [ -99.144378460446205, 19.755036264459903 ], [ -99.154737292173323, 19.755036264459903 ], [ -99.151554032146578, 19.746759027969187 ], [ -99.161912531314172, 19.746759027969187 ], [ -99.155550205841038, 19.730205045619289 ], [ -99.145192371284907, 19.730205045619289 ], [ -99.14201396959335, 19.721928299600112 ], [ -99.12129896458508, 19.721928299600112 ], [ -99.118122845248251, 19.713651716911471 ], [ -99.107765674627004, 19.713651716911471 ], [ -99.104591504827283, 19.705375297473417 ], [ -99.073520988105102, 19.705375297473417 ], [ -99.076694162763289, 19.713651716911471 ], [ -99.066336992142055, 19.713651716911471 ], [ -99.059992922804412, 19.697099041206013 ], [ -99.049636415441853, 19.697099041206013 ], [ -99.046467136548728, 19.688822948029323 ], [ -99.015398608588697, 19.688822948029323 ], [ -99.01856689335419, 19.697099041206013 ], [ -98.987497371266542, 19.697099041206013 ], [ -98.990666276845985, 19.705375297473417 ], [ -98.980309437938587, 19.705375297473417 ], [ -98.986651432031309, 19.721928299600112 ], [ -98.965936427023038, 19.721928299600112 ], [ -98.969109183830668, 19.730205045619289 ], [ -98.95875134927455, 19.730205045619289 ], [ -98.95240811530843, 19.713651716911471 ], [ -98.962765285929677, 19.713651716911471 ], [ -98.95642784917888, 19.697099041206013 ], [ -98.966784356541439, 19.697099041206013 ], [ -98.954127528360416, 19.663995646244619 ], [ -98.974837894105178, 19.663995646244619 ], [ -98.971677058975629, 19.655720204631937 ], [ -98.98203191114753, 19.655720204631937 ], [ -98.975714418011052, 19.639169809400851 ], [ -98.965360226733935, 19.639169809400851 ], [ -98.962204228772762, 19.630894855622831 ], [ -98.941496506607294, 19.630894855622831 ], [ -98.944651844179688, 19.639169809400851 ], [ -98.913589270348325, 19.639169809400851 ], [ -98.916745228459305, 19.647444925710619 ], [ -98.906390706819138, 19.647444925710619 ], [ -98.900081062276357, 19.630894855622831 ], [ -98.910434923359091, 19.630894855622831 ], [ -98.904131061050691, 19.614345435342894 ], [ -98.893777859850957, 19.614345435342894 ], [ -98.887481096155852, 19.597796664232728 ], [ -98.897833638146651, 19.597796664232728 ], [ -98.894687340413981, 19.589522521916994 ], [ -98.905039553052973, 19.589522521916994 ], [ -98.901894534719744, 19.581248541654549 ], [ -98.922598301630927, 19.581248541654549 ], [ -98.919454233596639, 19.5729747233657 ], [ -98.940157342477676, 19.5729747233657 ], [ -98.943302068542124, 19.581248541654549 ], [ -99.005413369275658, 19.581248541654549 ], [ -99.0022666691208, 19.5729747233657 ], [ -99.012618223561304, 19.5729747233657 ], [ -99.003186792914036, 19.548154239544221 ], [ -99.013537361318939, 19.548154239544221 ], [ -99.004119422588232, 19.523335210618256 ], [ -99.014469006471003, 19.523335210618256 ], [ -99.005064551315513, 19.498517634439089 ], [ -99.015413152188444, 19.498517634439089 ], [ -99.009150893146128, 19.481973389674089 ], [ -99.019498839518747, 19.481973389674089 ], [ -99.016369791660523, 19.473701508859421 ], [ -99.02671741103471, 19.473701508859421 ], [ -99.017338918094737, 19.448886831733315 ], [ -99.006992278709347, 19.448886831733315 ], [ -99.003869649871532, 19.440615594199137 ], [ -98.983177023755971, 19.440615594199137 ], [ -98.986298999938583, 19.448886831733315 ], [ -98.965605721167833, 19.448886831733315 ], [ -98.968728648152052, 19.457158229968478 ], [ -98.916993818748935, 19.457158229968478 ], [ -98.920116716293492, 19.465429788984036 ], [ -98.899422131206407, 19.465429788984036 ], [ -98.896299886987691, 19.457158229968478 ], [ -98.90664685286832, 19.457158229968478 ], [ -98.900406519293767, 19.440615594199137 ], [ -98.890060206235987, 19.440615594199137 ], [ -98.886942768867627, 19.432344517286548 ], [ -98.876596781969852, 19.432344517286548 ], [ -98.864144345778925, 19.399261814264811 ], [ -98.884833713644525, 19.399261814264811 ], [ -98.881723954029511, 19.390991539269844 ], [ -98.892068312639609, 19.390991539269844 ], [ -98.888959827403127, 19.382721424420453 ], [ -98.899303860857884, 19.382721424420453 ], [ -98.896196649918934, 19.374451469637357 ], [ -98.91688406685229, 19.374451469637357 ], [ -98.913777805309152, 19.3661816748413 ], [ -98.924121188954999, 19.3661816748413 ], [ -98.917912813183989, 19.34964256489333 ], [ -98.907570078678205, 19.34964256489333 ], [ -98.904468612760823, 19.341373249582986 ], [ -98.894126202574398, 19.341373249582986 ], [ -98.891026658522065, 19.333104093942801 ], [ -98.870342486453765, 19.333104093942801 ], [ -98.873441382201548, 19.341373249582986 ], [ -98.863098972015138, 19.341373249582986 ], [ -98.866199140655141, 19.34964256489333 ], [ -98.855856406149357, 19.34964256489333 ], [ -98.858957847761602, 19.357912039953035 ], [ -98.838271729777134, 19.357912039953035 ], [ -98.835170937137818, 19.34964256489333 ], [ -98.845513671643587, 19.34964256489333 ], [ -98.839316228351336, 19.333104093942801 ], [ -98.849658314385479, 19.333104093942801 ], [ -98.837281285113846, 19.300029066500379 ], [ -98.826940494018942, 19.300029066500379 ], [ -98.808424723609022, 19.250421301989128 ], [ -98.829102430990758, 19.250421301989128 ], [ -98.826021399628246, 19.242153897498699 ], [ -98.83635993100178, 19.242153897498699 ], [ -98.833280169584526, 19.233886651729414 ], [ -98.853956588030059, 19.233886651729414 ], [ -98.850877774496269, 19.22561956460229 ], [ -98.871553548973253, 19.22561956460229 ], [ -98.874633006475577, 19.233886651729414 ], [ -98.895309424921095, 19.233886651729414 ], [ -98.892229323450238, 19.22561956460229 ], [ -98.902567210688744, 19.22561956460229 ], [ -98.896411141188977, 19.209085865958688 ], [ -98.906748384958306, 19.209085865958688 ], [ -98.903672416608259, 19.200819254284337 ], [ -98.976030872598685, 19.200819254284337 ], [ -98.979109091343631, 19.209085865958688 ], [ -99.010120822651615, 19.209085865958688 ], [ -99.01320159946826, 19.217352636038363 ], [ -99.002864034047576, 19.217352636038363 ], [ -99.009029726371466, 19.233886651729414 ], [ -99.019367935594204, 19.233886651729414 ], [ -99.022453495725415, 19.242153897498699 ], [ -99.074146152593116, 19.242153897498699 ], [ -99.07105898170802, 19.233886651729414 ], [ -99.081397190930772, 19.233886651729414 ], [ -99.07831129374317, 19.22561956460229 ], [ -99.088649180981662, 19.22561956460229 ], [ -99.085564557413178, 19.217352636038363 ], [ -99.095902122833877, 19.217352636038363 ], [ -99.092818772806268, 19.209085865958688 ], [ -99.10315601657561, 19.209085865958688 ], [ -99.106239688254576, 19.217352636038363 ], [ -99.126914819095987, 19.217352636038363 ], [ -99.130000729935659, 19.22561956460229 ], [ -99.181690166128135, 19.22561956460229 ], [ -99.190962310171074, 19.250421301989128 ], [ -99.201301163861956, 19.250421301989128 ], [ -99.204395397152737, 19.258688865279687 ], [ -99.214734573327519, 19.258688865279687 ], [ -99.217830728185902, 19.266956587449382 ], [ -99.248849224661996, 19.266956587449382 ], [ -99.258150194726511, 19.291760708023677 ], [ -99.268490662503851, 19.291760708023677 ], [ -99.277807014163145, 19.316566261356215 ], [ -99.288148452393784, 19.316566261356215 ], [ -99.294368013853855, 19.333104093942801 ], [ -99.304710099887984, 19.333104093942801 ], [ -99.307822610031295, 19.341373249582986 ], [ -99.318165020217734, 19.341373249582986 ], [ -99.321279458909004, 19.34964256489333 ], [ -99.341964927920557, 19.34964256489333 ], [ -99.338849840590569, 19.341373249582986 ], [ -99.349192250777008, 19.341373249582986 ], [ -99.352307662426327, 19.34964256489333 ], [ -99.362650396932082, 19.34964256489333 ], [ -99.36576773838101, 19.357912039953035 ], [ -99.376110797373244, 19.357912039953035 ], [ -99.379230069372596, 19.3661816748413 ], [ -99.358543302080903, 19.3661816748413 ], [ -99.3616635309195, 19.374451469637357 ], [ -99.351319822452822, 19.374451469637357 ], [ -99.354441332866855, 19.382721424420453 ], [ -99.344097299412113, 19.382721424420453 ], [ -99.347220091484402, 19.390991539269844 ], [ -99.33687573287429, 19.390991539269844 ], [ -99.343125487815556, 19.407532249484643 ], [ -99.332780478392678, 19.407532249484643 ], [ -99.339036012781463, 19.424073600916181 ], [ -99.307999030065531, 19.424073600916181 ], [ -99.311128231676122, 19.432344517286548 ], [ -99.300782244778361, 19.432344517286548 ], [ -99.307044820885395, 19.448886831733315 ], [ -99.296698181500005, 19.448886831733315 ], [ -99.302966540404668, 19.465429788984036 ], [ -99.292619247861111, 19.465429788984036 ], [ -99.295755514763741, 19.473701508859421 ], [ -99.285407895389568, 19.473701508859421 ], [ -99.297967757332799, 19.50678999854841 ], [ -99.287618828957875, 19.50678999854841 ], [ -99.290762494291172, 19.515062523914949 ], [ -99.280413238246311, 19.515062523914949 ], [ -99.283558187423054, 19.523335210618256 ], [ -99.273208603540283, 19.523335210618256 ], [ -99.276354836646092, 19.531608058737852 ], [ -99.266004924757382, 19.531608058737852 ], [ -99.284914222576631, 19.581248541654549 ], [ -99.295266106032216, 19.581248541654549 ], [ -99.298423633335162, 19.589522521916994 ], [ -99.308775845974168, 19.589522521916994 ], [ -99.31193531777879, 19.597796664232728 ], [ -99.322287859769588, 19.597796664232728 ], [ -99.325449276836949, 19.606070968681458 ], [ -99.356507891370043, 19.606070968681458 ], [ -99.372344180626385, 19.647444925710619 ], [ -99.351635137346065, 19.647444925710619 ], [ -99.348465303987453, 19.639169809400851 ], [ -99.32775692143322, 19.639169809400851 ], [ -99.330926094065731, 19.647444925710619 ], [ -99.268798964224771, 19.647444925710619 ], [ -99.27196777196059, 19.655720204631937 ], [ -99.261612919788703, 19.655720204631937 ], [ -99.277479577417978, 19.697099041206013 ], [ -99.267123070055419, 19.697099041206013 ], [ -99.270300927345545, 19.705375297473417 ], [ -99.259944088438147, 19.705375297473417 ], [ -99.263123233945578, 19.713651716911471 ], [ -99.242408892703097, 19.713651716911471 ], [ -99.24558899463473, 19.721928299600112 ], [ -99.235231492130595, 19.721928299600112 ], [ -99.24159589298867, 19.738481955048986 ], [ -99.220879559434138, 19.738481955048986 ], [ -99.224063526319696, 19.746759027969187 ], [ -99.213705027152102, 19.746759027969187 ], [ -99.220077159238002, 19.76331366460116 ], [ -99.230436323693979, 19.76331366460116 ], [ -99.236815608734176, 19.779868956155479 ], [ -99.226455778312541, 19.779868956155479 ], [ -99.229647521544706, 19.788146847728687 ], [ -99.208927194227627, 19.788146847728687 ], [ -99.212119893683749, 19.796424903272705 ], [ -99.201759396618826, 19.796424903272705 ], [ -99.195376287047679, 19.779868956155479 ] ], [ [ -99.114352808206775, 19.622620064296768 ], [ -99.135059870320674, 19.622620064296768 ], [ -99.131901487444821, 19.614345435342894 ], [ -99.142254688644556, 19.614345435342894 ], [ -99.139097589638382, 19.606070968681458 ], [ -99.149450461149414, 19.606070968681458 ], [ -99.139987854198353, 19.581248541654549 ], [ -99.129635970742754, 19.581248541654549 ], [ -99.126485322407007, 19.5729747233657 ], [ -99.074727550204429, 19.5729747233657 ], [ -99.077876553464804, 19.581248541654549 ], [ -99.067524670009206, 19.581248541654549 ], [ -99.076980360572193, 19.606070968681458 ], [ -99.087333232083225, 19.606070968681458 ], [ -99.090488682645884, 19.614345435342894 ], [ -99.111195085045352, 19.614345435342894 ], [ -99.114352808206775, 19.622620064296768 ] ], [ [ -98.969682756377182, 19.266956587449382 ], [ -98.990361754027901, 19.266956587449382 ], [ -98.987272697482027, 19.258688865279687 ], [ -98.997611873656822, 19.258688865279687 ], [ -98.991437901604826, 19.242153897498699 ], [ -98.981099370231277, 19.242153897498699 ], [ -98.978015098703167, 19.233886651729414 ], [ -98.957338680257649, 19.233886651729414 ], [ -98.95425664688122, 19.22561956460229 ], [ -98.933580872404235, 19.22561956460229 ], [ -98.936662261812145, 19.233886651729414 ], [ -98.926324052589379, 19.233886651729414 ], [ -98.932490967899412, 19.250421301989128 ], [ -98.942829821590294, 19.250421301989128 ], [ -98.945915992782858, 19.258688865279687 ], [ -98.966594345132435, 19.258688865279687 ], [ -98.969682756377182, 19.266956587449382 ] ] ] ] } }
]
}
