{
"type": "FeatureCollection",
"name": "ghsl_11185",
"crs": { "type": "name", "properties": { "name": "urn:ogc:def:crs:OGC:1.3:CRS84" } },
"features": [
{ "type": "Feature", "properties": { "city_id": "ghsl_11185", "city_name": "Hong Kong" }, "geometry": { "type": "Polygon", "coordinates": [ [ [ 114.145621567271093, 22.387601188536699 ], [ 114.141385868370023, 22.379267970217292 ], [ 114.151858515940305, 22.379267970217292 ], [ 114.147624445425905, 22.370934941762041 ], [ 114.158096704549322, 22.370934941762041 ], [ 114.149633835824517, 22.354269454099718 ], [ 114.160105318609212, 22.354269454099718 ], [ 114.155876519748034, 22.345936994720596 ], [ 114.176818709533336, 22.345936994720596 ], [ 114.181048284178559, 22.354269454099718 ], [ 114.212462732532614, 22.354269454099718 ], [ 114.208231994211317, 22.345936994720596 ], [ 114.218703089103968, 22.345936994720596 ], [ 114.214473978976898, 22.337604724861489 ], [ 114.256356807718717, 22.337604724861489 ], [ 114.260587468674601, 22.345936994720596 ], [ 114.281529658459917, 22.345936994720596 ], [ 114.273068802312054, 22.329272644436397 ], [ 114.283539121975082, 22.329272644436397 ], [ 114.270861794720361, 22.304277538905819 ], [ 114.281330952924193, 22.304277538905819 ], [ 114.272888700896274, 22.287615080813509 ], [ 114.283357085716816, 22.287615080813509 ], [ 114.279138593620502, 22.279284135188163 ], [ 114.258202596809355, 22.279284135188163 ], [ 114.253986890113751, 22.270953378395546 ], [ 114.264454502288757, 22.270953378395546 ], [ 114.256028352304781, 22.254292430965315 ], [ 114.224627831504421, 22.254292430965315 ], [ 114.228838743132115, 22.26262281034986 ], [ 114.207904290874595, 22.26262281034986 ], [ 114.203694150970833, 22.254292430965315 ], [ 114.193227310704032, 22.254292430965315 ], [ 114.189019566515071, 22.245962240156128 ], [ 114.178553111926036, 22.245962240156128 ], [ 114.1701444215186, 22.229302423920874 ], [ 114.138747370160587, 22.229302423920874 ], [ 114.142949555199209, 22.237632237836557 ], [ 114.132483486103737, 22.237632237836557 ], [ 114.136687293569835, 22.245962240156128 ], [ 114.126220838980785, 22.245962240156128 ], [ 114.130426269103282, 22.254292430965315 ], [ 114.119959428836495, 22.254292430965315 ], [ 114.12416648184454, 22.26262281034986 ], [ 114.113699255715773, 22.26262281034986 ], [ 114.117907931838772, 22.270953378395546 ], [ 114.10744031966378, 22.270953378395546 ], [ 114.111650619131368, 22.279284135188163 ], [ 114.101182620725794, 22.279284135188163 ], [ 114.105394543767815, 22.287615080813509 ], [ 114.126331313408883, 22.287615080813509 ], [ 114.130546020053643, 22.29594621535745 ], [ 114.14101479147358, 22.29594621535745 ], [ 114.149451013232081, 22.312609051544499 ], [ 114.107572832542999, 22.312609051544499 ], [ 114.111792413645304, 22.320940753359377 ], [ 114.080382616669368, 22.320940753359377 ], [ 114.088825492751397, 22.337604724861489 ], [ 114.078354785565935, 22.337604724861489 ], [ 114.082578855499435, 22.345936994720596 ], [ 114.072107760606769, 22.345936994720596 ], [ 114.067884078380473, 22.337604724861489 ], [ 114.057413371195011, 22.337604724861489 ], [ 114.061636665714119, 22.345936994720596 ], [ 114.051165570821439, 22.345936994720596 ], [ 114.055390490762363, 22.354269454099718 ], [ 114.034447525193016, 22.354269454099718 ], [ 114.042901854191555, 22.370934941762041 ], [ 114.084790890685298, 22.370934941762041 ], [ 114.08902263051867, 22.379267970217292 ], [ 114.099495278088952, 22.379267970217292 ], [ 114.107965583532845, 22.395934596806345 ], [ 114.118439008551974, 22.395934596806345 ], [ 114.11420245866465, 22.387601188536699 ], [ 114.145621567271093, 22.387601188536699 ] ], [ [ 114.262420316075747, 22.287615080813509 ], [ 114.251951931255221, 22.287615080813509 ], [ 114.247734598403795, 22.279284135188163 ], [ 114.258202596809355, 22.279284135188163 ], [ 114.262420316075747, 22.287615080813509 ] ], [ [ 114.070089295295588, 22.362602103084864 ], [ 114.065861973547044, 22.354269454099718 ], [ 114.076333456331739, 22.354269454099718 ], [ 114.080561166157167, 22.362602103084864 ], [ 114.070089295295588, 22.362602103084864 ] ], [ [ 114.197577687293617, 22.304277538905819 ], [ 114.193358648573223, 22.29594621535745 ], [ 114.203827419993146, 22.29594621535745 ], [ 114.208046845497435, 22.304277538905819 ], [ 114.197577687293617, 22.304277538905819 ] ] ] } }
]
}
