{
"type": "FeatureCollection",
"name": "ghsl_11345",
"crs": { "type": "name", "properties": { "name": "urn:ogc:def:crs:OGC:1.3:CRS84" } },
"features": [
{ "type": "Feature", "properties": { "city_id": "ghsl_11345", "city_name": "Shanghai" }, "geometry": { "type": "MultiPolygon", "coordinates": [ [ [ [ 121.127956788189948, 31.500628230453842 ], [ 121.138970423104325, 31.500628230453842 ], [ 121.132043892507625, 31.492034999294393 ], [ 121.143056897680125, 31.492034999294393 ], [ 121.136132739095643, 31.483442066387386 ], [ 121.147145114799173, 31.483442066387386 ], [ 121.140223327500209, 31.474849431614111 ], [ 121.162246820514937, 31.474849431614111 ], [ 121.169169866206303, 31.483442066387386 ], [ 121.180182241909833, 31.483442066387386 ], [ 121.187108918370186, 31.492034999294393 ], [ 121.231160939060274, 31.492034999294393 ], [ 121.224231744724065, 31.483442066387386 ], [ 121.235244120427623, 31.483442066387386 ], [ 121.228317299559123, 31.474849431614111 ], [ 121.250340792573837, 31.474849431614111 ], [ 121.243415715522374, 31.46625709485588 ], [ 121.276449068273863, 31.46625709485588 ], [ 121.269525106207013, 31.457665055994067 ], [ 121.280535595139867, 31.457665055994067 ], [ 121.308251975267879, 31.492034999294393 ], [ 121.352303995957925, 31.492034999294393 ], [ 121.345367877463161, 31.483442066387386 ], [ 121.367392628870263, 31.483442066387386 ], [ 121.374330006302969, 31.492034999294393 ], [ 121.385343011475484, 31.492034999294393 ], [ 121.392284026134718, 31.500628230453842 ], [ 121.403297661049095, 31.500628230453842 ], [ 121.396356016648014, 31.492034999294393 ], [ 121.407369021820529, 31.492034999294393 ], [ 121.400429755980923, 31.483442066387386 ], [ 121.433466883091583, 31.483442066387386 ], [ 121.426528736691637, 31.474849431614111 ], [ 121.448552229706351, 31.474849431614111 ], [ 121.434682440199467, 31.457665055994067 ], [ 121.445692929132321, 31.457665055994067 ], [ 121.438761913492272, 31.449073314910081 ], [ 121.460781634600792, 31.449073314910081 ], [ 121.453852366318756, 31.440481871485371 ], [ 121.475870831214721, 31.440481871485371 ], [ 121.468943310108173, 31.431890725601399 ], [ 121.490960519336042, 31.431890725601399 ], [ 121.484034745222658, 31.423299877139748 ], [ 121.506050699326551, 31.423299877139748 ], [ 121.499126672024317, 31.414709325981946 ], [ 121.510134021786214, 31.414709325981946 ], [ 121.503212368131415, 31.406119072009631 ], [ 121.514219090875159, 31.406119072009631 ], [ 121.507299810142698, 31.397529115104472 ], [ 121.540318098134591, 31.397529115104472 ], [ 121.533399936650298, 31.388939455148147 ], [ 121.577421814740177, 31.388939455148147 ], [ 121.570504146662756, 31.3803500920224 ], [ 121.603518676620226, 31.3803500920224 ], [ 121.596602128786273, 31.371761025609043 ], [ 121.618610563560722, 31.371761025609043 ], [ 121.611695761992635, 31.36317225578987 ], [ 121.633702945445776, 31.36317225578987 ], [ 121.62678988996278, 31.354583782446753 ], [ 121.648795822636941, 31.354583782446753 ], [ 121.641884513058471, 31.345995605461624 ], [ 121.663889195495699, 31.345995605461624 ], [ 121.656979631641477, 31.3374077247164 ], [ 121.678983064383672, 31.3374077247164 ], [ 121.672075246073533, 31.328820140093097 ], [ 121.694077429662357, 31.328820140093097 ], [ 121.687171356716476, 31.320232851473747 ], [ 121.709172291693264, 31.320232851473747 ], [ 121.681572930816046, 31.285886654677938 ], [ 121.692570903785196, 31.285886654677938 ], [ 121.685677915649222, 31.277300844310286 ], [ 121.751662015739029, 31.277300844310286 ], [ 121.744768279265713, 31.268715329239651 ], [ 121.755765006596533, 31.268715329239651 ], [ 121.748873635838947, 31.260130109348367 ], [ 121.759869740755491, 31.260130109348367 ], [ 121.752980734996257, 31.25154518451879 ], [ 121.763976217768302, 31.25154518451879 ], [ 121.75708957629061, 31.242960554633342 ], [ 121.768084437187838, 31.242960554633342 ], [ 121.761200159275432, 31.23437621957445 ], [ 121.772194398567478, 31.23437621957445 ], [ 121.765312483504587, 31.225792179224619 ], [ 121.776306101460847, 31.225792179224619 ], [ 121.769426548532408, 31.217208433466375 ], [ 121.791412542312045, 31.217208433466375 ], [ 121.784534730006257, 31.208624982182293 ], [ 121.795527106098831, 31.208624982182293 ], [ 121.788651654767932, 31.200041825254978 ], [ 121.799643410332465, 31.200041825254978 ], [ 121.7927703192629, 31.191458962567097 ], [ 121.803761454568303, 31.191458962567097 ], [ 121.790022970083044, 31.174294119440439 ], [ 121.779033074489277, 31.174294119440439 ], [ 121.765307737873925, 31.157130451864369 ], [ 121.776296394830695, 31.157130451864369 ], [ 121.769437570046591, 31.148549058614883 ], [ 121.780425608087555, 31.148549058614883 ], [ 121.773569138221589, 31.139967958901615 ], [ 121.784556557615105, 31.139967958901615 ], [ 121.770851297912344, 31.122806639615533 ], [ 121.78183748081544, 31.122806639615533 ], [ 121.774988689293821, 31.11422641980872 ], [ 121.785974254353732, 31.11422641980872 ], [ 121.779127814648646, 31.105646493070147 ], [ 121.812082657102565, 31.105646493070147 ], [ 121.805237333892066, 31.097066859282908 ], [ 121.816221664069161, 31.097066859282908 ], [ 121.809378691797221, 31.088487518330151 ], [ 121.820362404934471, 31.088487518330151 ], [ 121.806684126887461, 31.07132971446088 ], [ 121.817666606747409, 31.07132971446088 ], [ 121.810831299294549, 31.062751251310868 ], [ 121.799849435672201, 31.062751251310868 ], [ 121.779363138397599, 31.037017615599115 ], [ 121.79034315490992, 31.037017615599115 ], [ 121.769881651517281, 31.011286608046472 ], [ 121.780859823321435, 31.011286608046472 ], [ 121.760423085282355, 30.985558225507777 ], [ 121.771399414777122, 30.985558225507777 ], [ 121.764592462789764, 30.976982680788176 ], [ 121.775568178713925, 30.976982680788176 ], [ 121.768763565435293, 30.968407427271391 ], [ 121.779738668054989, 30.968407427271391 ], [ 121.772936392787756, 30.959832464841163 ], [ 121.783910882368914, 30.959832464841163 ], [ 121.770313955588549, 30.942683412775636 ], [ 121.748367426985212, 30.942683412775636 ], [ 121.741574610538009, 30.934109322908064 ], [ 121.73060195847755, 30.934109322908064 ], [ 121.723812700146766, 30.925535523662464 ], [ 121.701868619977276, 30.925535523662464 ], [ 121.695083529717195, 30.916962014922834 ], [ 121.684112101342734, 30.916962014922834 ], [ 121.67055197091058, 30.899815868497445 ], [ 121.61570094216161, 30.899815868497445 ], [ 121.608928342407523, 30.891243230579811 ], [ 121.597958747572392, 30.891243230579811 ], [ 121.604730736411838, 30.899815868497445 ], [ 121.593760530662038, 30.899815868497445 ], [ 121.600534846916332, 30.908388796573139 ], [ 121.589564029986803, 30.908388796573139 ], [ 121.596340674346905, 30.916962014922834 ], [ 121.541483532474501, 30.916962014922834 ], [ 121.548260058790859, 30.925535523662464 ], [ 121.537288018706121, 30.925535523662464 ], [ 121.544066873450149, 30.934109322908064 ], [ 121.587957481691888, 30.934109322908064 ], [ 121.581176179045087, 30.925535523662464 ], [ 121.603120259214592, 30.925535523662464 ], [ 121.609902785812764, 30.934109322908064 ], [ 121.620875437873181, 30.934109322908064 ], [ 121.641242517813552, 30.959832464841163 ], [ 121.652217007394739, 30.959832464841163 ], [ 121.645424422713674, 30.951257793381309 ], [ 121.656398299522195, 30.951257793381309 ], [ 121.649608048270196, 30.942683412775636 ], [ 121.660581312571878, 30.942683412775636 ], [ 121.653793394054489, 30.934109322908064 ], [ 121.675738698175365, 30.934109322908064 ], [ 121.682527841175215, 30.942683412775636 ], [ 121.693501105476869, 30.942683412775636 ], [ 121.700293806756392, 30.951257793381309 ], [ 121.711267683564927, 30.951257793381309 ], [ 121.72486315495658, 30.968407427271391 ], [ 121.713888052336884, 30.968407427271391 ], [ 121.720689599093063, 30.976982680788176 ], [ 121.709713883168888, 30.976982680788176 ], [ 121.723324603350363, 30.994134061546472 ], [ 121.712347660018821, 30.994134061546472 ], [ 121.71915683510575, 31.002710189020572 ], [ 121.708179277671107, 31.002710189020572 ], [ 121.714990792496593, 31.011286608046472 ], [ 121.682056277084172, 31.011286608046472 ], [ 121.688868903075232, 31.019863318740555 ], [ 121.66691133019485, 31.019863318740555 ], [ 121.660099933475905, 31.011286608046472 ], [ 121.649121761671751, 31.011286608046472 ], [ 121.642313933063377, 31.002710189020572 ], [ 121.631336375628763, 31.002710189020572 ], [ 121.63814358986761, 31.011286608046472 ], [ 121.627165418063484, 31.011286608046472 ], [ 121.633974970874277, 31.019863318740555 ], [ 121.60103861155369, 31.019863318740555 ], [ 121.594230902651063, 31.011286608046472 ], [ 121.583252730846922, 31.011286608046472 ], [ 121.576448588455634, 31.002710189020572 ], [ 121.565471031021019, 31.002710189020572 ], [ 121.572274559042796, 31.011286608046472 ], [ 121.550318215434501, 31.011286608046472 ], [ 121.543515916151776, 31.002710189020572 ], [ 121.532538358717133, 31.002710189020572 ], [ 121.512150996533734, 30.976982680788176 ], [ 121.523126712457923, 30.976982680788176 ], [ 121.516336205182512, 30.968407427271391 ], [ 121.527311307802179, 30.968407427271391 ], [ 121.51373790101114, 30.951257793381309 ], [ 121.502764024202577, 30.951257793381309 ], [ 121.489203613147978, 30.934109322908064 ], [ 121.500176265208395, 30.934109322908064 ], [ 121.493399858367141, 30.925535523662464 ], [ 121.526315978621369, 30.925535523662464 ], [ 121.499232394056079, 30.891243230579811 ], [ 121.477293204385816, 30.891243230579811 ], [ 121.484058473164168, 30.899815868497445 ], [ 121.429207444415184, 30.899815868497445 ], [ 121.435972592973357, 30.908388796573139 ], [ 121.403060142184785, 30.908388796573139 ], [ 121.396296827165827, 30.899815868497445 ], [ 121.36338620991647, 30.899815868497445 ], [ 121.370147691396184, 30.908388796573139 ], [ 121.381118508325713, 30.908388796573139 ], [ 121.401422396664458, 30.934109322908064 ], [ 121.412395048724918, 30.934109322908064 ], [ 121.425946886542775, 30.951257793381309 ], [ 121.414973009734226, 30.951257793381309 ], [ 121.428535384224986, 30.968407427271391 ], [ 121.41756028160529, 30.968407427271391 ], [ 121.424345269140346, 30.976982680788176 ], [ 121.413369553216185, 30.976982680788176 ], [ 121.420156870945064, 30.985558225507777 ], [ 121.387227882460806, 30.985558225507777 ], [ 121.380442405443645, 30.976982680788176 ], [ 121.325563825822783, 30.976982680788176 ], [ 121.339131586746745, 30.994134061546472 ], [ 121.328154643415203, 30.994134061546472 ], [ 121.33494232489393, 31.002710189020572 ], [ 121.312987210024659, 31.002710189020572 ], [ 121.306200756752148, 30.994134061546472 ], [ 121.295223813420634, 30.994134061546472 ], [ 121.288440917008032, 30.985558225507777 ], [ 121.255511928523774, 30.985558225507777 ], [ 121.248733814353571, 30.976982680788176 ], [ 121.226782382505206, 30.976982680788176 ], [ 121.220008434450918, 30.968407427271391 ], [ 121.187083126591858, 30.968407427271391 ], [ 121.18031395540396, 30.959832464841163 ], [ 121.169339465822773, 30.959832464841163 ], [ 121.176108023972176, 30.968407427271391 ], [ 121.154157818732784, 30.968407427271391 ], [ 121.167701292565752, 30.985558225507777 ], [ 121.156724963071014, 30.985558225507777 ], [ 121.163500493442257, 30.994134061546472 ], [ 121.141546606779173, 30.994134061546472 ], [ 121.134772304081523, 30.985558225507777 ], [ 121.123795974586756, 30.985558225507777 ], [ 121.117025223263454, 30.976982680788176 ], [ 121.106049507339279, 30.976982680788176 ], [ 121.112819645092003, 30.985558225507777 ], [ 121.101843315597236, 30.985558225507777 ], [ 121.135735016085746, 31.028440321219275 ], [ 121.14671441742864, 31.028440321219275 ], [ 121.153502197194015, 31.037017615599115 ], [ 121.164482213706364, 31.037017615599115 ], [ 121.184865072819633, 31.062751251310868 ], [ 121.173883209197271, 31.062751251310868 ], [ 121.187485290096788, 31.079908470095067 ], [ 121.17650219373192, 31.079908470095067 ], [ 121.183307042975542, 31.088487518330151 ], [ 121.161339616701099, 31.088487518330151 ], [ 121.168146183620109, 31.097066859282908 ], [ 121.157161853443014, 31.097066859282908 ], [ 121.163970755509183, 31.105646493070147 ], [ 121.152985808024539, 31.105646493070147 ], [ 121.173428386174237, 31.131387152607491 ], [ 121.162441585159982, 31.131387152607491 ], [ 121.169261071578788, 31.139967958901615 ], [ 121.125311394004754, 31.139967958901615 ], [ 121.118494381102963, 31.131387152607491 ], [ 121.063560376031717, 31.131387152607491 ], [ 121.084011006554718, 31.157130451864369 ], [ 121.073022349597963, 31.157130451864369 ], [ 121.079844521403814, 31.16571213876718 ], [ 121.068855245262824, 31.16571213876718 ], [ 121.082507227559034, 31.182876394001344 ], [ 121.071516712243834, 31.182876394001344 ], [ 121.085179298639318, 31.200041825254978 ], [ 121.074187543074814, 31.200041825254978 ], [ 121.081022660079313, 31.208624982182293 ], [ 121.070030283986711, 31.208624982182293 ], [ 121.076867744473759, 31.217208433466375 ], [ 121.131832728922873, 31.217208433466375 ], [ 121.12499216444975, 31.208624982182293 ], [ 121.135984540542367, 31.208624982182293 ], [ 121.129146320897362, 31.200041825254978 ], [ 121.162121587590903, 31.200041825254978 ], [ 121.168961668820174, 31.208624982182293 ], [ 121.179954044912776, 31.208624982182293 ], [ 121.193644349779234, 31.225792179224619 ], [ 121.182650731822974, 31.225792179224619 ], [ 121.189499716089671, 31.23437621957445 ], [ 121.178505476797653, 31.23437621957445 ], [ 121.185356809632921, 31.242960554633342 ], [ 121.174361948735637, 31.242960554633342 ], [ 121.181215630849223, 31.25154518451879 ], [ 121.159224665305132, 31.25154518451879 ], [ 121.152372226941139, 31.242960554633342 ], [ 121.141377366043855, 31.242960554633342 ], [ 121.134528519629498, 31.23437621957445 ], [ 121.123534280337481, 31.23437621957445 ], [ 121.130382505146585, 31.242960554633342 ], [ 121.119387644249329, 31.242960554633342 ], [ 121.126238216988952, 31.25154518451879 ], [ 121.115242734216892, 31.25154518451879 ], [ 121.128951548741043, 31.268715329239651 ], [ 121.117954821410223, 31.268715329239651 ], [ 121.124813064885728, 31.277300844310286 ], [ 121.080823664825814, 31.277300844310286 ], [ 121.073967912087014, 31.268715329239651 ], [ 121.06297118475625, 31.268715329239651 ], [ 121.069826314810868, 31.277300844310286 ], [ 121.058828964795893, 31.277300844310286 ], [ 121.065686444542933, 31.285886654677938 ], [ 121.054688471573755, 31.285886654677938 ], [ 121.061548301724713, 31.29447276046033 ], [ 121.050549705531211, 31.29447276046033 ], [ 121.057411886798022, 31.303059161775213 ], [ 121.035413447421917, 31.303059161775213 ], [ 121.042277356752237, 31.311645858740416 ], [ 121.064277043658251, 31.311645858740416 ], [ 121.071145177365864, 31.320232851473747 ], [ 121.082145644854293, 31.320232851473747 ], [ 121.089017380970304, 31.328820140093097 ], [ 121.122020656353513, 31.328820140093097 ], [ 121.115147047319496, 31.320232851473747 ], [ 121.137147982296312, 31.320232851473747 ], [ 121.144022839942295, 31.328820140093097 ], [ 121.155023931736707, 31.328820140093097 ], [ 121.168783840657824, 31.345995605461624 ], [ 121.157781499439196, 31.345995605461624 ], [ 121.16466530380589, 31.354583782446753 ], [ 121.153662337468802, 31.354583782446753 ], [ 121.160548501203479, 31.36317225578987 ], [ 121.138541317750366, 31.36317225578987 ], [ 121.152320100535007, 31.3803500920224 ], [ 121.141315257215865, 31.3803500920224 ], [ 121.148208503363804, 31.388939455148147 ], [ 121.137203033841331, 31.388939455148147 ], [ 121.144098642231938, 31.397529115104472 ], [ 121.155104738229255, 31.397529115104472 ], [ 121.16200396307552, 31.406119072009631 ], [ 121.173010685819278, 31.406119072009631 ], [ 121.186819364820266, 31.423299877139748 ], [ 121.175811387768334, 31.423299877139748 ], [ 121.182719590145979, 31.431890725601399 ], [ 121.16070238091811, 31.431890725601399 ], [ 121.153795433664442, 31.423299877139748 ], [ 121.142787456612496, 31.423299877139748 ], [ 121.135884129881092, 31.414709325981946 ], [ 121.080847381071507, 31.414709325981946 ], [ 121.087747571352779, 31.423299877139748 ], [ 121.076739594300847, 31.423299877139748 ], [ 121.083642148620598, 31.431890725601399 ], [ 121.061624939392757, 31.431890725601399 ], [ 121.068529230638802, 31.440481871485371 ], [ 121.057519998190784, 31.440481871485371 ], [ 121.07133630541604, 31.457665055994067 ], [ 121.060325816483214, 31.457665055994067 ], [ 121.067237834181142, 31.46625709485588 ], [ 121.034204481429654, 31.46625709485588 ], [ 121.048033733467193, 31.483442066387386 ], [ 121.070058484874309, 31.483442066387386 ], [ 121.076978866645035, 31.492034999294393 ], [ 121.087991871817536, 31.492034999294393 ], [ 121.094915883446873, 31.500628230453842 ], [ 121.105929518361236, 31.500628230453842 ], [ 121.112857161667819, 31.509221759984495 ], [ 121.13488569152625, 31.509221759984495 ], [ 121.127956788189948, 31.500628230453842 ] ], [ [ 121.680263287286948, 31.105646493070147 ], [ 121.647308444833072, 31.105646493070147 ], [ 121.640472381235526, 31.097066859282908 ], [ 121.629488051058416, 31.097066859282908 ], [ 121.60217589046961, 31.062751251310868 ], [ 121.613157754091972, 31.062751251310868 ], [ 121.599518199537314, 31.045595201996615 ], [ 121.610498831485955, 31.045595201996615 ], [ 121.603682874200075, 31.037017615599115 ], [ 121.636622923737107, 31.037017615599115 ], [ 121.643440727331978, 31.045595201996615 ], [ 121.654421359280633, 31.045595201996615 ], [ 121.64760294024947, 31.037017615599115 ], [ 121.669562973274139, 31.037017615599115 ], [ 121.676382623177972, 31.045595201996615 ], [ 121.687363255126641, 31.045595201996615 ], [ 121.701012663070884, 31.062751251310868 ], [ 121.690030799448536, 31.062751251310868 ], [ 121.703690819246205, 31.079908470095067 ], [ 121.692707722881309, 31.079908470095067 ], [ 121.69954156042499, 31.088487518330151 ], [ 121.688557847287797, 31.088487518330151 ], [ 121.695394032121044, 31.097066859282908 ], [ 121.673425371766839, 31.097066859282908 ], [ 121.680263287286948, 31.105646493070147 ] ] ] ] } }
]
}
