{
"type": "FeatureCollection",
"name": "ghsl_3026",
"crs": { "type": "name", "properties": { "name": "urn:ogc:def:crs:OGC:1.3:CRS84" } },
"features": [
{ "type": "Feature", "properties": { "city_id": "ghsl_3026", "city_name": "Riyadh" }, "geometry": { "type": "MultiPolygon", "coordinates": [ [ [ [ 46.846947087587033, 24.862962422240571 ], [ 46.836350628168901, 24.862962422240571 ], [ 46.828470583824775, 24.829390528535676 ], [ 46.839065260427446, 24.829390528535676 ], [ 46.83709704765991, 24.820998095463935 ], [ 46.847691279066304, 24.820998095463935 ], [ 46.845723518318842, 24.812605878348251 ], [ 46.866911091144857, 24.812605878348251 ], [ 46.868879741879084, 24.820998095463935 ], [ 46.879473973285485, 24.820998095463935 ], [ 46.883414858513724, 24.837783177656309 ], [ 46.894009980515655, 24.837783177656309 ], [ 46.892038643440834, 24.829390528535676 ], [ 46.902633320043499, 24.829390528535676 ], [ 46.900662436098266, 24.820998095463935 ], [ 46.911256667504659, 24.820998095463935 ], [ 46.905348069491289, 24.795822091613726 ], [ 46.915940966525952, 24.795822091613726 ], [ 46.912005500815965, 24.779039167589772 ], [ 46.901413492348858, 24.779039167589772 ], [ 46.899447549345773, 24.770648028862396 ], [ 46.888855984858566, 24.770648028862396 ], [ 46.879041930518994, 24.728695564364077 ], [ 46.889631278142787, 24.728695564364077 ], [ 46.887670710590761, 24.720305716643736 ], [ 46.8770818057329, 24.720305716643736 ], [ 46.869250250339093, 24.6867484732749 ], [ 46.87983738615349, 24.6867484732749 ], [ 46.877881290010961, 24.678359698848379 ], [ 46.88846798406923, 24.678359698848379 ], [ 46.886512339769375, 24.669971138803238 ], [ 46.897098592273267, 24.669971138803238 ], [ 46.893189100788163, 24.653194661487522 ], [ 46.903774470788342, 24.653194661487522 ], [ 46.897915607461549, 24.628031551065128 ], [ 46.887331559705402, 24.628031551065128 ], [ 46.885380830474233, 24.619644275368756 ], [ 46.874797223063297, 24.619644275368756 ], [ 46.870899319621174, 24.602870365089085 ], [ 46.881482046945543, 24.602870365089085 ], [ 46.879533992061724, 24.594483730321382 ], [ 46.89011627964458, 24.594483730321382 ], [ 46.888168676083488, 24.586097309012167 ], [ 46.909332372168386, 24.586097309012167 ], [ 46.903492270113617, 24.56093932491418 ], [ 46.914072800740762, 24.56093932491418 ], [ 46.912127442301255, 24.552553756517728 ], [ 46.922707534191723, 24.552553756517728 ], [ 46.920762627421169, 24.544168401119272 ], [ 46.931342280775709, 24.544168401119272 ], [ 46.929397825783568, 24.535783258626797 ], [ 46.939977040802908, 24.535783258626797 ], [ 46.938033037698624, 24.527398328948287 ], [ 46.948611814583387, 24.527398328948287 ], [ 46.938902954537845, 24.485476869547028 ], [ 46.928326365318703, 24.485476869547028 ], [ 46.93220636680762, 24.50224481587696 ], [ 46.92162890312342, 24.50224481587696 ], [ 46.92356979977518, 24.510629107665316 ], [ 46.91299189855792, 24.510629107665316 ], [ 46.91493324662413, 24.519013611991777 ], [ 46.904354907673373, 24.519013611991777 ], [ 46.906296707044334, 24.527398328948287 ], [ 46.885139153274807, 24.527398328948287 ], [ 46.887080965706225, 24.535783258626797 ], [ 46.876501750686877, 24.535783258626797 ], [ 46.878444014002973, 24.544168401119272 ], [ 46.857284707293879, 24.544168401119272 ], [ 46.859226982848959, 24.552553756517728 ], [ 46.848646890958499, 24.552553756517728 ], [ 46.850589616977913, 24.56093932491418 ], [ 46.818848025096493, 24.56093932491418 ], [ 46.81690661528711, 24.552553756517728 ], [ 46.806326523396649, 24.552553756517728 ], [ 46.800508938196685, 24.527398328948287 ], [ 46.789930161311922, 24.527398328948287 ], [ 46.791868030532179, 24.535783258626797 ], [ 46.770709600493497, 24.535783258626797 ], [ 46.772647480457486, 24.544168401119272 ], [ 46.751488173748399, 24.544168401119272 ], [ 46.749551170454822, 24.535783258626797 ], [ 46.738971955435481, 24.535783258626797 ], [ 46.733167577864464, 24.510629107665316 ], [ 46.722589676647203, 24.510629107665316 ], [ 46.724523145510439, 24.519013611991777 ], [ 46.682209789707393, 24.519013611991777 ], [ 46.680278071778147, 24.510629107665316 ], [ 46.659122269343634, 24.510629107665316 ], [ 46.661053111805877, 24.519013611991777 ], [ 46.639896433904347, 24.519013611991777 ], [ 46.64182728492522, 24.527398328948287 ], [ 46.631248508040464, 24.527398328948287 ], [ 46.635111986848365, 24.544168401119272 ], [ 46.624532333493818, 24.544168401119272 ], [ 46.626464961258826, 24.552553756517728 ], [ 46.573564501806523, 24.552553756517728 ], [ 46.571634066721074, 24.544168401119272 ], [ 46.539895106657433, 24.544168401119272 ], [ 46.541824226135148, 24.552553756517728 ], [ 46.52066404235422, 24.552553756517728 ], [ 46.518735799948331, 24.544168401119272 ], [ 46.497576493239237, 24.544168401119272 ], [ 46.499503858573306, 24.552553756517728 ], [ 46.488923766682838, 24.552553756517728 ], [ 46.492780267091085, 24.569325106400679 ], [ 46.503361236655742, 24.569325106400679 ], [ 46.505291249983458, 24.577711101069308 ], [ 46.515872658686526, 24.577711101069308 ], [ 46.517803994597841, 24.586097309012167 ], [ 46.528385842640283, 24.586097309012167 ], [ 46.530318501827402, 24.594483730321382 ], [ 46.551483076993122, 24.594483730321382 ], [ 46.553417499890166, 24.602870365089085 ], [ 46.585165681863266, 24.602870365089085 ], [ 46.587102309508246, 24.611257213407484 ], [ 46.59768547677529, 24.611257213407484 ], [ 46.599623430378784, 24.619644275368756 ], [ 46.610207037789735, 24.619644275368756 ], [ 46.608268644042326, 24.611257213407484 ], [ 46.629434978576406, 24.611257213407484 ], [ 46.631374252611614, 24.619644275368756 ], [ 46.641957860022558, 24.619644275368756 ], [ 46.647782326402698, 24.644806744032234 ], [ 46.637197397351997, 24.644806744032234 ], [ 46.639140220783894, 24.653194661487522 ], [ 46.617969480783536, 24.653194661487522 ], [ 46.619912309993119, 24.661582793047074 ], [ 46.609326498841895, 24.661582793047074 ], [ 46.611269774667988, 24.669971138803238 ], [ 46.568924764652394, 24.669971138803238 ], [ 46.570867162321186, 24.678359698848379 ], [ 46.560280468262917, 24.678359698848379 ], [ 46.564167042817104, 24.695137462175236 ], [ 46.574754620589459, 24.695137462175236 ], [ 46.576699681774642, 24.703526665641839 ], [ 46.587287701706842, 24.703526665641839 ], [ 46.593129544676657, 24.728695564364077 ], [ 46.582540197052879, 24.728695564364077 ], [ 46.584488813698343, 24.737085627020726 ], [ 46.56330923251457, 24.737085627020726 ], [ 46.565257852418803, 24.745475904706268 ], [ 46.522896917369991, 24.745475904706268 ], [ 46.524844653272744, 24.753866397513306 ], [ 46.535435330407559, 24.753866397513306 ], [ 46.537384398859032, 24.762257105534459 ], [ 46.547975519568837, 24.762257105534459 ], [ 46.549925921267992, 24.770648028862396 ], [ 46.560517485755199, 24.770648028862396 ], [ 46.562469221401443, 24.779039167589772 ], [ 46.573061229868543, 24.779039167589772 ], [ 46.575014300161655, 24.787430521809313 ], [ 46.585606752811223, 24.787430521809313 ], [ 46.591472644406664, 24.812605878348251 ], [ 46.580878857993653, 24.812605878348251 ], [ 46.584793021963236, 24.829390528535676 ], [ 46.627171728373945, 24.829390528535676 ], [ 46.629131930467551, 24.837783177656309 ], [ 46.660917296473322, 24.837783177656309 ], [ 46.662879728921965, 24.846176042918739 ], [ 46.673475296526171, 24.846176042918739 ], [ 46.675439069234329, 24.854569124415843 ], [ 46.686035082643905, 24.854569124415843 ], [ 46.684070864130376, 24.846176042918739 ], [ 46.694666431734582, 24.846176042918739 ], [ 46.692702662479093, 24.837783177656309 ], [ 46.703297784481023, 24.837783177656309 ], [ 46.701334464592669, 24.829390528535676 ], [ 46.733118494400699, 24.829390528535676 ], [ 46.735083150486794, 24.837783177656309 ], [ 46.745678272488711, 24.837783177656309 ], [ 46.747644269755604, 24.846176042918739 ], [ 46.80062210777664, 24.846176042918739 ], [ 46.802591230149382, 24.854569124415843 ], [ 46.813187243558964, 24.854569124415843 ], [ 46.819101334859504, 24.879749667244745 ], [ 46.850893390994536, 24.879749667244745 ], [ 46.846947087587033, 24.862962422240571 ] ] ] ] } }
]
}
