{
"type": "FeatureCollection",
"name": "ghsl_5071",
"crs": { "type": "name", "properties": { "name": "urn:ogc:def:crs:OGC:1.3:CRS84" } },
"features": [
{ "type": "Feature", "properties": { "city_id": "ghsl_5071", "city_name": "Barcelona" }, "geometry": { "type": "MultiPolygon", "coordinates": [ [ [ [ 2.187266287758713, 41.586966361371182 ], [ 2.199218562555208, 41.586966361371182 ], [ 2.199025991746783, 41.5779397733045 ], [ 2.234879676394828, 41.5779397733045 ], [ 2.235075386944696, 41.586966361371182 ], [ 2.258979936537687, 41.586966361371182 ], [ 2.258782132826858, 41.5779397733045 ], [ 2.270733361042874, 41.5779397733045 ], [ 2.270534603008978, 41.568913656513637 ], [ 2.282484785130078, 41.568913656513637 ], [ 2.281686494951933, 41.532813898245642 ], [ 2.25779448976919, 41.532813898245642 ], [ 2.257597235878931, 41.523790134937613 ], [ 2.245652276958937, 41.523790134937613 ], [ 2.245260129360007, 41.505744018482872 ], [ 2.233317256331496, 41.505744018482872 ], [ 2.233512241971707, 41.514766841747573 ], [ 2.209624410506768, 41.514766841747573 ], [ 2.209431510274475, 41.505744018482872 ], [ 2.197488637245964, 41.505744018482872 ], [ 2.197105188908943, 41.487699780959453 ], [ 2.2090459779791, 41.487699780959453 ], [ 2.208853345810903, 41.478678366315926 ], [ 2.232732841441291, 41.478678366315926 ], [ 2.232927556119415, 41.487699780959453 ], [ 2.292631501470201, 41.487699780959453 ], [ 2.29283151510429, 41.496721664950975 ], [ 2.328657007527795, 41.496721664950975 ], [ 2.328860240559582, 41.505744018482872 ], [ 2.340803113588092, 41.505744018482872 ], [ 2.341007483563928, 41.514766841747573 ], [ 2.352951399296397, 41.514766841747573 ], [ 2.353156907238886, 41.523790134937613 ], [ 2.36510186615888, 41.523790134937613 ], [ 2.365308513091533, 41.532813898245642 ], [ 2.377254515682904, 41.532813898245642 ], [ 2.377046825078875, 41.523790134937613 ], [ 2.388991783998869, 41.523790134937613 ], [ 2.388783146493804, 41.514766841747573 ], [ 2.400727062226273, 41.514766841747573 ], [ 2.400307992374804, 41.496721664950975 ], [ 2.38836616156697, 41.496721664950975 ], [ 2.38815781403146, 41.487699780959453 ], [ 2.364276235891145, 41.487699780959453 ], [ 2.364070067408426, 41.478678366315926 ], [ 2.328250823962843, 41.478678366315926 ], [ 2.328047873318978, 41.46965742082817 ], [ 2.292231752190993, 41.46965742082817 ], [ 2.292032016436972, 41.460636944304035 ], [ 2.280094349684696, 41.460636944304035 ], [ 2.279895746257062, 41.45161693655146 ], [ 2.267959119313308, 41.45161693655146 ], [ 2.26776164719457, 41.442597397378456 ], [ 2.255826059577756, 41.442597397378456 ], [ 2.255629717751316, 41.433578326593199 ], [ 2.243695168980145, 41.433578326593199 ], [ 2.243109802411275, 41.406523922646585 ], [ 2.231178367292067, 41.406523922646585 ], [ 2.230984462640181, 41.397506723495496 ], [ 2.219054064444244, 41.397506723495496 ], [ 2.218861285974849, 41.388489991774264 ], [ 2.206931924222296, 41.388489991774264 ], [ 2.206740270923584, 41.37947372729159 ], [ 2.194811945134807, 41.37947372729159 ], [ 2.194240622099357, 41.352427735363428 ], [ 2.182315401327078, 41.352427735363428 ], [ 2.181559002940558, 41.316372942544149 ], [ 2.157716828045033, 41.316372942544149 ], [ 2.157343280798069, 41.298348341166992 ], [ 2.145424257147251, 41.298348341166992 ], [ 2.145609955934437, 41.307360409094933 ], [ 2.121769845312944, 41.307360409094933 ], [ 2.121953565701745, 41.316372942544149 ], [ 2.074269215910695, 41.316372942544149 ], [ 2.074808489997388, 41.343413337923991 ], [ 2.062884303273265, 41.343413337923991 ], [ 2.063063193604286, 41.352427735363428 ], [ 2.051137972832007, 41.352427735363428 ], [ 2.051493932343958, 41.370457929856272 ], [ 2.039566642039633, 41.370457929856272 ], [ 2.039743709880718, 41.37947372729159 ], [ 2.027815384091942, 41.37947372729159 ], [ 2.028167693309255, 41.397506723495496 ], [ 2.052028489701129, 41.397506723495496 ], [ 2.051850221439107, 41.388489991774264 ], [ 2.087638306696766, 41.388489991774264 ], [ 2.087819684288939, 41.397506723495496 ], [ 2.099750082484876, 41.397506723495496 ], [ 2.100115163986537, 41.415541589418872 ], [ 2.112047636509188, 41.415541589418872 ], [ 2.112231341958314, 41.424559724003899 ], [ 2.124164852364858, 41.424559724003899 ], [ 2.124349681268435, 41.433578326593199 ], [ 2.136284230039606, 41.433578326593199 ], [ 2.136470183409621, 41.442597397378456 ], [ 2.148405771026435, 41.442597397378456 ], [ 2.148592849875765, 41.45161693655146 ], [ 2.16052947681952, 41.45161693655146 ], [ 2.160905974721718, 41.46965742082817 ], [ 2.148967267679057, 41.46965742082817 ], [ 2.149154606734932, 41.478678366315926 ], [ 2.101395615474156, 41.478678366315926 ], [ 2.10121243950841, 41.46965742082817 ], [ 2.089273732465749, 41.46965742082817 ], [ 2.088727832942367, 41.442597397378456 ], [ 2.06485665770874, 41.442597397378456 ], [ 2.065036461269485, 41.45161693655146 ], [ 2.029226580438223, 41.45161693655146 ], [ 2.029580197252442, 41.46965742082817 ], [ 2.017641490209781, 41.46965742082817 ], [ 2.017817380767797, 41.478678366315926 ], [ 2.005877632952604, 41.478678366315926 ], [ 2.006227575716254, 41.496721664950975 ], [ 2.018169406524089, 41.496721664950975 ], [ 2.018345541818304, 41.505744018482872 ], [ 2.030288414846815, 41.505744018482872 ], [ 2.030465674519733, 41.514766841747573 ], [ 2.054353505984671, 41.514766841747573 ], [ 2.054532934239027, 41.523790134937613 ], [ 2.066477893159022, 41.523790134937613 ], [ 2.06738150695028, 41.568913656513637 ], [ 2.07933168907138, 41.568913656513637 ], [ 2.079513709586632, 41.5779397733045 ], [ 2.103416166018662, 41.5779397733045 ], [ 2.10323205331358, 41.568913656513637 ], [ 2.11518223543468, 41.568913656513637 ], [ 2.114997162529083, 41.559888010805388 ], [ 2.126946299040547, 41.559888010805388 ], [ 2.126760266854089, 41.550862835986642 ], [ 2.150656449627731, 41.550862835986642 ], [ 2.150844572063474, 41.559888010805388 ], [ 2.162793708574938, 41.559888010805388 ], [ 2.163361738165722, 41.586966361371182 ], [ 2.175314012962217, 41.586966361371182 ], [ 2.175504579034713, 41.595993420907028 ], [ 2.187457900897542, 41.595993420907028 ], [ 2.187266287758713, 41.586966361371182 ] ] ] ] } }
]
}
