{
"type": "FeatureCollection",
"name": "ghsl_2457",
"crs": { "type": "name", "properties": { "name": "urn:ogc:def:crs:OGC:1.3:CRS84" } },
"features": [
{ "type": "Feature", "properties": { "city_id": "ghsl_2457", "city_name": "Karachi" }, "geometry": { "type": "MultiPolygon", "coordinates": [ [ [ [ 67.109058116831775, 25.056068192755038 ], [ 67.119664890676702, 25.056068192755038 ], [ 67.116812860248601, 25.047669893687395 ], [ 67.1274191833934, 25.047669893687395 ], [ 67.12456799801231, 25.039271813091833 ], [ 67.188203233908681, 25.039271813091833 ], [ 67.173953231596514, 24.997284683923024 ], [ 67.163349608355546, 24.997284683923024 ], [ 67.157659569426642, 24.98049135828888 ], [ 67.16826229433498, 24.98049135828888 ], [ 67.165418766188438, 24.972095022105442 ], [ 67.1866233182851, 24.972095022105442 ], [ 67.183780185907338, 24.963698903553336 ], [ 67.22618749547712, 24.963698903553336 ], [ 67.211982259949124, 24.921721571998592 ], [ 67.222581847121475, 24.921721571998592 ], [ 67.219744229462933, 24.91332675727632 ], [ 67.240942508942425, 24.91332675727632 ], [ 67.238105288318806, 24.904932159532891 ], [ 67.227506595808023, 24.904932159532891 ], [ 67.224671113680031, 24.896537778675214 ], [ 67.214072868194663, 24.896537778675214 ], [ 67.208406669461056, 24.879749667244745 ], [ 67.21900402150608, 24.879749667244745 ], [ 67.216172410601871, 24.871355936485884 ], [ 67.269156938751479, 24.871355936485884 ], [ 67.27199078173112, 24.879749667244745 ], [ 67.293185485821155, 24.879749667244745 ], [ 67.290350750011328, 24.871355936485884 ], [ 67.34333527816095, 24.871355936485884 ], [ 67.346172246046208, 24.879749667244745 ], [ 67.37796430218124, 24.879749667244745 ], [ 67.372288980519883, 24.862962422240571 ], [ 67.361692521101745, 24.862962422240571 ], [ 67.356023259935725, 24.846176042918739 ], [ 67.345427692331526, 24.846176042918739 ], [ 67.339764486604139, 24.829390528535676 ], [ 67.307980456796116, 24.829390528535676 ], [ 67.305152124809652, 24.820998095463935 ], [ 67.273369430590463, 24.820998095463935 ], [ 67.270543722597168, 24.812605878348251 ], [ 67.217574790532126, 24.812605878348251 ], [ 67.211931684941788, 24.795822091613726 ], [ 67.180152993837794, 24.795822091613726 ], [ 67.177334703576349, 24.787430521809313 ], [ 67.145557345627637, 24.787430521809313 ], [ 67.142741672989928, 24.779039167589772 ], [ 67.132149664522828, 24.779039167589772 ], [ 67.129335719908198, 24.770648028862396 ], [ 67.118744155420984, 24.770648028862396 ], [ 67.121557656055714, 24.779039167589772 ], [ 67.1109656475886, 24.779039167589772 ], [ 67.113779987678939, 24.787430521809313 ], [ 67.103187535029363, 24.787430521809313 ], [ 67.106002714595149, 24.795822091613726 ], [ 67.095409817560494, 24.795822091613726 ], [ 67.0897816306544, 24.779039167589772 ], [ 67.079189622187286, 24.779039167589772 ], [ 67.07637789747217, 24.770648028862396 ], [ 67.06578633298497, 24.770648028862396 ], [ 67.062976334450482, 24.762257105534459 ], [ 67.052385213740678, 24.762257105534459 ], [ 67.05519476849777, 24.770648028862396 ], [ 67.044603204010556, 24.770648028862396 ], [ 67.047413596785958, 24.779039167589772 ], [ 67.036821588318873, 24.779039167589772 ], [ 67.039632819131953, 24.787430521809313 ], [ 67.029040366482363, 24.787430521809313 ], [ 67.031852435352505, 24.795822091613726 ], [ 67.021259538317835, 24.795822091613726 ], [ 67.024072445264565, 24.804213877095783 ], [ 66.992292420397192, 24.804213877095783 ], [ 66.986670555884089, 24.787430521809313 ], [ 66.965485650584938, 24.787430521809313 ], [ 66.968295053144516, 24.795822091613726 ], [ 66.947109259075205, 24.795822091613726 ], [ 66.949919053907379, 24.804213877095783 ], [ 66.939325712284926, 24.804213877095783 ], [ 66.944948256992305, 24.820998095463935 ], [ 66.955542488398706, 24.820998095463935 ], [ 66.969623522630641, 24.862962422240571 ], [ 66.959027063212503, 24.862962422240571 ], [ 66.956208735185413, 24.854569124415843 ], [ 66.93501670836622, 24.854569124415843 ], [ 66.92938568615395, 24.837783177656309 ], [ 66.908195442150102, 24.837783177656309 ], [ 66.911009420559083, 24.846176042918739 ], [ 66.900413852954884, 24.846176042918739 ], [ 66.906044766121809, 24.862962422240571 ], [ 66.89544830670367, 24.862962422240571 ], [ 66.901083460155732, 24.879749667244745 ], [ 66.890486108110736, 24.879749667244745 ], [ 66.893305163821566, 24.888143614610176 ], [ 66.882707365158097, 24.888143614610176 ], [ 66.885527258148301, 24.896537778675214 ], [ 66.906723749119038, 24.896537778675214 ], [ 66.909545820484951, 24.904932159532891 ], [ 66.920144512995719, 24.904932159532891 ], [ 66.934276393959678, 24.946907318969991 ], [ 66.923675463266932, 24.946907318969991 ], [ 66.929336328488716, 24.963698903553336 ], [ 66.939938155881165, 24.963698903553336 ], [ 66.945605071259834, 24.98049135828888 ], [ 66.956207796168172, 24.98049135828888 ], [ 66.959043636543043, 24.988887912196958 ], [ 66.969646810515584, 24.988887912196958 ], [ 66.975323260014434, 25.005681673560442 ], [ 67.007135478155689, 25.005681673560442 ], [ 67.009976988109017, 25.0140788812026 ], [ 67.020581510499923, 25.0140788812026 ], [ 67.023424762305055, 25.02247630694292 ], [ 67.034029734577572, 25.02247630694292 ], [ 67.036874729075564, 25.030873950874845 ], [ 67.047480151434229, 25.030873950874845 ], [ 67.050326889466561, 25.039271813091833 ], [ 67.060932762115954, 25.039271813091833 ], [ 67.063781244524648, 25.047669893687395 ], [ 67.074387567669433, 25.047669893687395 ], [ 67.077237795297009, 25.056068192755038 ], [ 67.087844569141922, 25.056068192755038 ], [ 67.093549812316382, 25.072865446680776 ], [ 67.114765164035674, 25.072865446680776 ], [ 67.109058116831775, 25.056068192755038 ] ] ] ] } }
]
}
