{
"type": "FeatureCollection",
"name": "ghsl_10933",
"crs": { "type": "name", "properties": { "name": "urn:ogc:def:crs:OGC:1.3:CRS84" } },
"features": [
{ "type": "Feature", "properties": { "city_id": "ghsl_10933", "city_name": "Guangzhou" }, "geometry": { "type": "MultiPolygon", "coordinates": [ [ [ [ 113.36578131311235, 23.372278339222465 ], [ 113.386821732806695, 23.372278339222465 ], [ 113.382393411518905, 23.363922106624813 ], [ 113.392913210499387, 23.363922106624813 ], [ 113.388486546244749, 23.355566074199007 ], [ 113.399005934550345, 23.355566074199007 ], [ 113.394580927067025, 23.347210241856384 ], [ 113.405099904889568, 23.347210241856384 ], [ 113.400676553915915, 23.338854609508331 ], [ 113.390157986384722, 23.338854609508331 ], [ 113.354848788491267, 23.272016739900284 ], [ 113.365364080586673, 23.272016739900284 ], [ 113.360959303585759, 23.263662903518782 ], [ 113.371474187112668, 23.263662903518782 ], [ 113.353874045989244, 23.230249548204416 ], [ 113.364387297152859, 23.230249548204416 ], [ 113.359992001347706, 23.221896706487001 ], [ 113.381017688448011, 23.221896706487001 ], [ 113.376623635545869, 23.21354406343746 ], [ 113.397648507800938, 23.21354406343746 ], [ 113.393255697926421, 23.205191618967511 ], [ 113.435303813509236, 23.205191618967511 ], [ 113.430911432704804, 23.196839372988912 ], [ 113.451934676413956, 23.196839372988912 ], [ 113.447543539267997, 23.188487325413444 ], [ 113.458054754272098, 23.188487325413444 ], [ 113.453665267569207, 23.180135476152905 ], [ 113.464176075913429, 23.180135476152905 ], [ 113.459788239397369, 23.171783825119132 ], [ 113.470298641272265, 23.171783825119132 ], [ 113.465912454686986, 23.163432372223955 ], [ 113.507952437071097, 23.163432372223955 ], [ 113.503566681895506, 23.155081117379243 ], [ 113.545605039925846, 23.155081117379243 ], [ 113.541219717046616, 23.146730060496896 ], [ 113.551728900656116, 23.146730060496896 ], [ 113.547345228082946, 23.138379201488824 ], [ 113.578871561788105, 23.138379201488824 ], [ 113.58325645148463, 23.146730060496896 ], [ 113.593765635094115, 23.146730060496896 ], [ 113.598152987463749, 23.155081117379243 ], [ 113.608662576971341, 23.155081117379243 ], [ 113.613052393031339, 23.163432372223955 ], [ 113.623562388627363, 23.163432372223955 ], [ 113.62795466939555, 23.171783825119132 ], [ 113.638465071270431, 23.171783825119132 ], [ 113.642859817765256, 23.180135476152905 ], [ 113.663881434453714, 23.180135476152905 ], [ 113.659485875020209, 23.171783825119132 ], [ 113.680506678769973, 23.171783825119132 ], [ 113.676112366607484, 23.163432372223955 ], [ 113.66560237101146, 23.163432372223955 ], [ 113.656820736751115, 23.146730060496896 ], [ 113.667329920360615, 23.146730060496896 ], [ 113.662941785001848, 23.138379201488824 ], [ 113.673450562903582, 23.138379201488824 ], [ 113.669064079688141, 23.130028540266959 ], [ 113.690080824456516, 23.130028540266959 ], [ 113.694468118707022, 23.138379201488824 ], [ 113.704976896608741, 23.138379201488824 ], [ 113.709366654798643, 23.146730060496896 ], [ 113.740894205627129, 23.146730060496896 ], [ 113.736503230313886, 23.138379201488824 ], [ 113.75752078611734, 23.138379201488824 ], [ 113.753131058761596, 23.130028540266959 ], [ 113.805672920682497, 23.130028540266959 ], [ 113.810064675625938, 23.138379201488824 ], [ 113.820573453527658, 23.138379201488824 ], [ 113.824967674503142, 23.146730060496896 ], [ 113.835476858112642, 23.146730060496896 ], [ 113.831082231429377, 23.138379201488824 ], [ 113.852099787232817, 23.138379201488824 ], [ 113.856495225331642, 23.146730060496896 ], [ 113.867004408941142, 23.146730060496896 ], [ 113.875802282931971, 23.163432372223955 ], [ 113.886312278527996, 23.163432372223955 ], [ 113.895119218026664, 23.180135476152905 ], [ 113.884608409682443, 23.180135476152905 ], [ 113.889014569440263, 23.188487325413444 ], [ 113.910036999448479, 23.188487325413444 ], [ 113.905630026370901, 23.180135476152905 ], [ 113.916140834715137, 23.180135476152905 ], [ 113.911735520017487, 23.171783825119132 ], [ 113.932756323767236, 23.171783825119132 ], [ 113.928352260912092, 23.163432372223955 ], [ 113.938862256508131, 23.163432372223955 ], [ 113.925661232544854, 23.138379201488824 ], [ 113.936170010446574, 23.138379201488824 ], [ 113.931773389292687, 23.130028540266959 ], [ 113.952790134061047, 23.130028540266959 ], [ 113.957187566250028, 23.138379201488824 ], [ 113.967696344151719, 23.138379201488824 ], [ 113.972096245036141, 23.146730060496896 ], [ 113.982605428645655, 23.146730060496896 ], [ 113.978205122053453, 23.138379201488824 ], [ 113.999222677856892, 23.138379201488824 ], [ 113.990426632449228, 23.121678076743258 ], [ 114.000934599506053, 23.121678076743258 ], [ 113.992145993906405, 23.104977742438315 ], [ 114.002653150878842, 23.104977742438315 ], [ 113.998261535723898, 23.096627871481093 ], [ 114.008768287939162, 23.096627871481093 ], [ 114.00437832915965, 23.088278197870086 ], [ 114.035897372103861, 23.088278197870086 ], [ 114.031508260688895, 23.079928721517376 ], [ 114.042014203959653, 23.079928721517376 ], [ 114.033241353600218, 23.063230360235217 ], [ 114.043746488685755, 23.063230360235217 ], [ 114.03936274904008, 23.054881475130024 ], [ 114.049867480317616, 23.054881475130024 ], [ 114.045485395958323, 23.046532786931614 ], [ 114.066494051276734, 23.046532786931614 ], [ 114.070876942872701, 23.054881475130024 ], [ 114.081381674150265, 23.054881475130024 ], [ 114.07699837893594, 23.046532786931614 ], [ 114.087502706595146, 23.046532786931614 ], [ 114.083121066980922, 23.038184295552185 ], [ 114.104128915441834, 23.038184295552185 ], [ 114.108511361913543, 23.046532786931614 ], [ 114.119015689572734, 23.046532786931614 ], [ 114.123400599260435, 23.054881475130024 ], [ 114.144410061815535, 23.054881475130024 ], [ 114.122502072516042, 23.013140001449859 ], [ 114.111999357434826, 23.013140001449859 ], [ 114.107624337673684, 23.004792296468558 ], [ 114.097122025263403, 23.004792296468558 ], [ 114.08837896031082, 22.988097475558909 ], [ 114.098880467947069, 22.988097475558909 ], [ 114.094511616717526, 22.979750359455196 ], [ 114.147017144382843, 22.979750359455196 ], [ 114.142648338496812, 22.971403439468702 ], [ 114.174150449353817, 22.971403439468702 ], [ 114.169782493521041, 22.963056715511804 ], [ 114.190783097309037, 22.963056715511804 ], [ 114.195151856591792, 22.971403439468702 ], [ 114.205652560210794, 22.971403439468702 ], [ 114.214397051945909, 22.988097475558909 ], [ 114.266904590127197, 22.988097475558909 ], [ 114.258156078305788, 22.971403439468702 ], [ 114.268656781924776, 22.971403439468702 ], [ 114.264285210567067, 22.963056715511804 ], [ 114.243284606779056, 22.963056715511804 ], [ 114.247655374686772, 22.971403439468702 ], [ 114.226653967448797, 22.971403439468702 ], [ 114.222284002991046, 22.963056715511804 ], [ 114.201283399203035, 22.963056715511804 ], [ 114.196916293926733, 22.9547101874969 ], [ 114.133916891778568, 22.9547101874969 ], [ 114.129554249685057, 22.946363855336415 ], [ 114.119054750674039, 22.946363855336415 ], [ 114.110336427995676, 22.929671778228517 ], [ 114.120835124879292, 22.929671778228517 ], [ 114.116478640908255, 22.921326033106066 ], [ 114.105980344805133, 22.921326033106066 ], [ 114.092924400285057, 22.896289970414866 ], [ 114.050936020710026, 22.896289970414866 ], [ 114.055284351144891, 22.904635129286689 ], [ 114.023791865820129, 22.904635129286689 ], [ 114.019444736028731, 22.896289970414866 ], [ 114.008947641134981, 22.896289970414866 ], [ 113.995919737110796, 22.871255664901845 ], [ 113.985423841729414, 22.871255664901845 ], [ 113.989764029930384, 22.879600238309834 ], [ 113.979267734900006, 22.879600238309834 ], [ 113.987953451347451, 22.896289970414866 ], [ 113.9774563564537, 22.896289970414866 ], [ 113.981801885387142, 22.904635129286689 ], [ 113.929314409845887, 22.904635129286689 ], [ 113.933659984693691, 22.912980483487939 ], [ 113.902166298159642, 22.912980483487939 ], [ 113.906512718845875, 22.921326033106066 ], [ 113.885516126639644, 22.921326033106066 ], [ 113.881170507136929, 22.912980483487939 ], [ 113.870672611625579, 22.912980483487939 ], [ 113.857649231277279, 22.887945006785046 ], [ 113.847152536409439, 22.887945006785046 ], [ 113.842815899505055, 22.879600238309834 ], [ 113.832319604474677, 22.879600238309834 ], [ 113.827985411008783, 22.871255664901845 ], [ 113.796497724864665, 22.871255664901845 ], [ 113.809502838153534, 22.896289970414866 ], [ 113.799005743259755, 22.896289970414866 ], [ 113.803344468546868, 22.904635129286689 ], [ 113.792846973438628, 22.904635129286689 ], [ 113.797187343046119, 22.912980483487939 ], [ 113.786689447534769, 22.912980483487939 ], [ 113.795375521487273, 22.929671778228517 ], [ 113.784876824603671, 22.929671778228517 ], [ 113.789222529635992, 22.938017718942795 ], [ 113.757725236077306, 22.938017718942795 ], [ 113.753380733952824, 22.929671778228517 ], [ 113.742882037069208, 22.929671778228517 ], [ 113.734199969978008, 22.912980483487939 ], [ 113.713204178955323, 22.912980483487939 ], [ 113.717543388989725, 22.921326033106066 ], [ 113.69654679678348, 22.921326033106066 ], [ 113.69220838793261, 22.912980483487939 ], [ 113.68171049242126, 22.912980483487939 ], [ 113.668708723656451, 22.887945006785046 ], [ 113.679205418524276, 22.887945006785046 ], [ 113.670546980288165, 22.871255664901845 ], [ 113.681042875669547, 22.871255664901845 ], [ 113.676716317628632, 22.862911286473725 ], [ 113.729193797232384, 22.862911286473725 ], [ 113.724867282545304, 22.854567102938141 ], [ 113.7458574758422, 22.854567102938141 ], [ 113.74153220302054, 22.846223114207781 ], [ 113.752026900584937, 22.846223114207781 ], [ 113.747703268654362, 22.837879320195356 ], [ 113.758197567322952, 22.837879320195356 ], [ 113.753875576036975, 22.829535720813592 ], [ 113.785357275919651, 22.829535720813592 ], [ 113.789680463328665, 22.837879320195356 ], [ 113.800174761997255, 22.837879320195356 ], [ 113.795851175880543, 22.829535720813592 ], [ 113.869308475606758, 22.829535720813592 ], [ 113.864984139523301, 22.821192315975242 ], [ 113.896464643847224, 22.821192315975242 ], [ 113.892141153133508, 22.812849105593088 ], [ 113.913127359352998, 22.812849105593088 ], [ 113.9088051126582, 22.804506089579917 ], [ 113.929790522590523, 22.804506089579917 ], [ 113.934113565572474, 22.812849105593088 ], [ 113.944606668682212, 22.812849105593088 ], [ 113.961920851873046, 22.846223114207781 ], [ 113.993404944566251, 22.846223114207781 ], [ 113.989072138031531, 22.837879320195356 ], [ 113.97857783936297, 22.837879320195356 ], [ 113.969919153936303, 22.821192315975242 ], [ 113.980412655377592, 22.821192315975242 ], [ 113.976085978011426, 22.812849105593088 ], [ 113.965592874901702, 22.812849105593088 ], [ 113.943992091616067, 22.771135967473835 ], [ 113.954483205886518, 22.771135967473835 ], [ 113.950168770051377, 22.76279392199833 ], [ 113.960659487117297, 22.76279392199833 ], [ 113.939115883560788, 22.721086600573493 ], [ 113.918138415847721, 22.721086600573493 ], [ 113.913836595289652, 22.712745716870018 ], [ 113.903348257512718, 22.712745716870018 ], [ 113.899048867027503, 22.704405026490779 ], [ 113.888560925142883, 22.704405026490779 ], [ 113.892859919735784, 22.712745716870018 ], [ 113.871883244181902, 22.712745716870018 ], [ 113.867585041373616, 22.704405026490779 ], [ 113.85709709948901, 22.704405026490779 ], [ 113.844215872036344, 22.679384114429464 ], [ 113.854702627367217, 22.679384114429464 ], [ 113.850412552116609, 22.671044196478231 ], [ 113.871385272490969, 22.671044196478231 ], [ 113.862809632970169, 22.654364939158526 ], [ 113.873295203430885, 22.654364939158526 ], [ 113.869010033635178, 22.64602559961644 ], [ 113.879495209513053, 22.64602559961644 ], [ 113.87093016789963, 22.629347498333992 ], [ 113.881414555172228, 22.629347498333992 ], [ 113.877134682687014, 22.621008736420155 ], [ 113.887618675937134, 22.621008736420155 ], [ 113.879064225662916, 22.604331789613688 ], [ 113.889547431427957, 22.604331789613688 ], [ 113.885272852973173, 22.595993604547729 ], [ 113.895755665275558, 22.595993604547729 ], [ 113.891482719677967, 22.587655611591089 ], [ 113.912447557730388, 22.587655611591089 ], [ 113.9167212898803, 22.595993604547729 ], [ 113.948169726787398, 22.595993604547729 ], [ 113.952446666018218, 22.604331789613688 ], [ 113.994379489078398, 22.604331789613688 ], [ 113.990100975996896, 22.595993604547729 ], [ 114.000583788299267, 22.595993604547729 ], [ 113.992032059153104, 22.579317810657155 ], [ 114.002514085089587, 22.579317810657155 ], [ 113.998240868359687, 22.570980201659307 ], [ 114.0296857674591, 22.570980201659307 ], [ 114.033960162899007, 22.579317810657155 ], [ 114.075888266644895, 22.579317810657155 ], [ 114.080166262149604, 22.587655611591089 ], [ 114.090648681175807, 22.587655611591089 ], [ 114.099211546728824, 22.604331789613688 ], [ 114.088728340963783, 22.604331789613688 ], [ 114.093012425499566, 22.612670166875603 ], [ 114.072045226671023, 22.612670166875603 ], [ 114.067761929433686, 22.604331789613688 ], [ 114.057278723668645, 22.604331789613688 ], [ 114.052997849811135, 22.595993604547729 ], [ 114.021549412904022, 22.595993604547729 ], [ 114.025829106373521, 22.604331789613688 ], [ 114.01534590060848, 22.604331789613688 ], [ 114.019627229599664, 22.612670166875603 ], [ 114.009143630185406, 22.612670166875603 ], [ 114.013426594938451, 22.621008736420155 ], [ 114.002942601688332, 22.621008736420155 ], [ 114.007227202443644, 22.629347498333992 ], [ 113.996742815171032, 22.629347498333992 ], [ 114.001029052169315, 22.637686452703843 ], [ 113.990544270687465, 22.637686452703843 ], [ 113.994832144169592, 22.64602559961644 ], [ 113.984346968291717, 22.64602559961644 ], [ 113.988636478498819, 22.654364939158526 ], [ 113.978150908038103, 22.654364939158526 ], [ 113.982442055211607, 22.662704471416852 ], [ 113.971956089981148, 22.662704471416852 ], [ 113.976248874362668, 22.671044196478231 ], [ 113.965762514175495, 22.671044196478231 ], [ 113.970056936006884, 22.679384114429464 ], [ 113.949083425345137, 22.679384114429464 ], [ 113.944789793801164, 22.671044196478231 ], [ 113.934303433613991, 22.671044196478231 ], [ 113.925723055734494, 22.654364939158526 ], [ 113.936208626195224, 22.654364939158526 ], [ 113.931921088902385, 22.64602559961644 ], [ 113.952891440658107, 22.64602559961644 ], [ 113.940038642187673, 22.621008736420155 ], [ 113.929554648937568, 22.621008736420155 ], [ 113.933836491535345, 22.629347498333992 ], [ 113.923352104262719, 22.629347498333992 ], [ 113.927635581796366, 22.637686452703843 ], [ 113.906666018832652, 22.637686452703843 ], [ 113.915237485273778, 22.654364939158526 ], [ 113.904751914813048, 22.654364939158526 ], [ 113.909040298598313, 22.662704471416852 ], [ 113.898554333367855, 22.662704471416852 ], [ 113.920024750796742, 22.704405026490779 ], [ 113.951488576450629, 22.704405026490779 ], [ 113.955789946397388, 22.712745716870018 ], [ 113.966278284174322, 22.712745716870018 ], [ 113.983505704884138, 22.74611041249894 ], [ 113.993995628103804, 22.74611041249894 ], [ 113.998307972542733, 22.754452070369044 ], [ 114.00879829259172, 22.754452070369044 ], [ 114.017429891509352, 22.771135967473835 ], [ 114.006938777238901, 22.771135967473835 ], [ 114.028551493560158, 22.812849105593088 ], [ 114.049537699779634, 22.812849105593088 ], [ 114.05386716546667, 22.821192315975242 ], [ 114.064360666907973, 22.821192315975242 ], [ 114.08170056859241, 22.854567102938141 ], [ 114.092195665240865, 22.854567102938141 ], [ 114.096536154458576, 22.862911286473725 ], [ 114.180500121824565, 22.862911286473725 ], [ 114.176156438428421, 22.854567102938141 ], [ 114.186651535076862, 22.854567102938141 ], [ 114.182309500725538, 22.846223114207781 ], [ 114.203298895854346, 22.846223114207781 ], [ 114.198958111402987, 22.837879320195356 ], [ 114.219946708740139, 22.837879320195356 ], [ 114.215607174316105, 22.829535720813592 ], [ 114.226101074276997, 22.829535720813592 ], [ 114.221763188527447, 22.821192315975242 ], [ 114.200776185644855, 22.821192315975242 ], [ 114.196441143316008, 22.812849105593088 ], [ 114.185948040206256, 22.812849105593088 ], [ 114.181615441778419, 22.804506089579917 ], [ 114.171122736812251, 22.804506089579917 ], [ 114.166792581285947, 22.796163267848563 ], [ 114.156300274275438, 22.796163267848563 ], [ 114.147646890352362, 22.779478206882647 ], [ 114.158138402015084, 22.779478206882647 ], [ 114.153814377025526, 22.771135967473835 ], [ 114.164305491296005, 22.771135967473835 ], [ 114.159983111369826, 22.76279392199833 ], [ 114.180964545501681, 22.76279392199833 ], [ 114.1766434133758, 22.754452070369044 ], [ 114.208114373522818, 22.754452070369044 ], [ 114.212436696699442, 22.76279392199833 ], [ 114.254399564963151, 22.76279392199833 ], [ 114.258725519730262, 22.771135967473835 ], [ 114.269216634000742, 22.771135967473835 ], [ 114.273545030304945, 22.779478206882647 ], [ 114.284036541967666, 22.779478206882647 ], [ 114.288367380806932, 22.787820640311846 ], [ 114.309351199292351, 22.787820640311846 ], [ 114.313684879432984, 22.796163267848563 ], [ 114.324177186443492, 22.796163267848563 ], [ 114.328513311304704, 22.804506089579917 ], [ 114.349498721237012, 22.804506089579917 ], [ 114.319183247913415, 22.74611041249894 ], [ 114.329673171133081, 22.74611041249894 ], [ 114.316710302396118, 22.721086600573493 ], [ 114.327199036252651, 22.721086600573493 ], [ 114.322881768590108, 22.712745716870018 ], [ 114.343858444143976, 22.712745716870018 ], [ 114.339542426181751, 22.704405026490779 ], [ 114.381494193720258, 22.704405026490779 ], [ 114.377178634177525, 22.696064529348874 ], [ 114.398153726536634, 22.696064529348874 ], [ 114.393839417327257, 22.687724225357393 ], [ 114.383352266665597, 22.687724225357393 ], [ 114.379040393911225, 22.679384114429464 ], [ 114.368553638580352, 22.679384114429464 ], [ 114.364244201288003, 22.671044196478231 ], [ 114.332785120726498, 22.671044196478231 ], [ 114.328478907817129, 22.662704471416852 ], [ 114.265563116434322, 22.662704471416852 ], [ 114.261261310477565, 22.654364939158526 ], [ 114.250775740016849, 22.654364939158526 ], [ 114.246476365238394, 22.64602559961644 ], [ 114.235991189360519, 22.64602559961644 ], [ 114.223106459940638, 22.621008736420155 ], [ 114.233590453190743, 22.621008736420155 ], [ 114.229299217885071, 22.612670166875603 ], [ 114.19784841964227, 22.612670166875603 ], [ 114.19356039861421, 22.604331789613688 ], [ 114.183077192849169, 22.604331789613688 ], [ 114.178791597439584, 22.595993604547729 ], [ 114.168308785137242, 22.595993604547729 ], [ 114.164025614359204, 22.587655611591089 ], [ 114.153543195333015, 22.587655611591089 ], [ 114.149262448200219, 22.579317810657155 ], [ 114.170226500073156, 22.579317810657155 ], [ 114.165946996889829, 22.570980201659307 ], [ 114.186910262956104, 22.570980201659307 ], [ 114.178355774030635, 22.554305559125645 ], [ 114.167874926245247, 22.554305559125645 ], [ 114.163601117430062, 22.545968525416736 ], [ 114.153120661989178, 22.545968525416736 ], [ 114.148849273199403, 22.537631683297747 ], [ 114.127889146634388, 22.537631683297747 ], [ 114.123620568858982, 22.529295032682192 ], [ 114.09218155492816, 22.529295032682192 ], [ 114.08791617859859, 22.520958573483608 ], [ 114.077436899074513, 22.520958573483608 ], [ 114.073173939264279, 22.51262230561553 ], [ 114.062695051340427, 22.51262230561553 ], [ 114.058434507068213, 22.504286228991546 ], [ 114.026999017539381, 22.504286228991546 ], [ 114.031258387568798, 22.51262230561553 ], [ 114.020779499644917, 22.51262230561553 ], [ 114.025040501454143, 22.520958573483608 ], [ 113.951685544785619, 22.520958573483608 ], [ 113.94742728417782, 22.51262230561553 ], [ 113.957906172101701, 22.51262230561553 ], [ 113.94939493331259, 22.495950343525241 ], [ 113.959873038593813, 22.495950343525241 ], [ 113.955620059753684, 22.487614649130244 ], [ 113.96609777399236, 22.487614649130244 ], [ 113.957597095497562, 22.470943833208704 ], [ 113.947120162786746, 22.470943833208704 ], [ 113.951369101353762, 22.479279145720177 ], [ 113.919937131208115, 22.479279145720177 ], [ 113.911443616769645, 22.462608711509503 ], [ 113.900967074544226, 22.462608711509503 ], [ 113.892482412771528, 22.445939040202752 ], [ 113.871530889148872, 22.445939040202752 ], [ 113.875771431170975, 22.454273780536283 ], [ 113.865295279245387, 22.454273780536283 ], [ 113.869537447868026, 22.462608711509503 ], [ 113.859060905642636, 22.462608711509503 ], [ 113.867550514298685, 22.479279145720177 ], [ 113.857073190916822, 22.479279145720177 ], [ 113.861320631605693, 22.487614649130244 ], [ 113.850842917367004, 22.487614649130244 ], [ 113.85509198578157, 22.495950343525241 ], [ 113.844613880500347, 22.495950343525241 ], [ 113.840365203128343, 22.487614649130244 ], [ 113.829887488889668, 22.487614649130244 ], [ 113.834135775219124, 22.495950343525241 ], [ 113.823657669937887, 22.495950343525241 ], [ 113.836413470020787, 22.520958573483608 ], [ 113.846892749544878, 22.520958573483608 ], [ 113.851149114791909, 22.529295032682192 ], [ 113.840669443481644, 22.529295032682192 ], [ 113.853449492683566, 22.554305559125645 ], [ 113.842968644898164, 22.554305559125645 ], [ 113.838706998762987, 22.545968525416736 ], [ 113.828226543322131, 22.545968525416736 ], [ 113.841016372862697, 22.570980201659307 ], [ 113.830534739829574, 22.570980201659307 ], [ 113.834801670106003, 22.579317810657155 ], [ 113.813837618233052, 22.579317810657155 ], [ 113.822375979158949, 22.595993604547729 ], [ 113.811893166856564, 22.595993604547729 ], [ 113.828992618809153, 22.629347498333992 ], [ 113.818508231536541, 22.629347498333992 ], [ 113.822787766977839, 22.637686452703843 ], [ 113.812302985496004, 22.637686452703843 ], [ 113.816584154245845, 22.64602559961644 ], [ 113.806098978367984, 22.64602559961644 ], [ 113.81038178066656, 22.654364939158526 ], [ 113.799896210205844, 22.654364939158526 ], [ 113.804180646293617, 22.662704471416852 ], [ 113.751750820141268, 22.662704471416852 ], [ 113.764610377627989, 22.687724225357393 ], [ 113.754123226966328, 22.687724225357393 ], [ 113.758413409584037, 22.696064529348874 ], [ 113.74792586340449, 22.696064529348874 ], [ 113.756511528635627, 22.712745716870018 ], [ 113.766999866412561, 22.712745716870018 ], [ 113.779894789887507, 22.737768948300978 ], [ 113.769405263309665, 22.737768948300978 ], [ 113.773707240490822, 22.74611041249894 ], [ 113.742237470831839, 22.74611041249894 ], [ 113.746540291366586, 22.754452070369044 ], [ 113.736049971317584, 22.754452070369044 ], [ 113.74466092047706, 22.771135967473835 ], [ 113.73416980620658, 22.771135967473835 ], [ 113.738477935506424, 22.779478206882647 ], [ 113.727986423843703, 22.779478206882647 ], [ 113.732296190943458, 22.787820640311846 ], [ 113.690328553972648, 22.787820640311846 ], [ 113.686020377192847, 22.779478206882647 ], [ 113.675528865530126, 22.779478206882647 ], [ 113.671223120583733, 22.771135967473835 ], [ 113.639749777772309, 22.771135967473835 ], [ 113.644054330541991, 22.779478206882647 ], [ 113.63356281887927, 22.779478206882647 ], [ 113.637869007759122, 22.787820640311846 ], [ 113.627377098516405, 22.787820640311846 ], [ 113.635994783537981, 22.804506089579917 ], [ 113.625502078571813, 22.804506089579917 ], [ 113.62981357538996, 22.812849105593088 ], [ 113.598334266060746, 22.812849105593088 ], [ 113.602646603490868, 22.821192315975242 ], [ 113.592153102049565, 22.821192315975242 ], [ 113.59646707662364, 22.829535720813592 ], [ 113.585973176662748, 22.829535720813592 ], [ 113.590288788625799, 22.837879320195356 ], [ 113.579794489957223, 22.837879320195356 ], [ 113.588431026115515, 22.854567102938141 ], [ 113.598926122763956, 22.854567102938141 ], [ 113.611897408836697, 22.879600238309834 ], [ 113.601401113806304, 22.879600238309834 ], [ 113.605728554449513, 22.887945006785046 ], [ 113.574238469846051, 22.887945006785046 ], [ 113.587229432819115, 22.912980483487939 ], [ 113.59772732833045, 22.912980483487939 ], [ 113.61073786613683, 22.938017718942795 ], [ 113.621236963989716, 22.938017718942795 ], [ 113.634267096926735, 22.963056715511804 ], [ 113.623766795032736, 22.963056715511804 ], [ 113.628113861165957, 22.971403439468702 ], [ 113.586111046689965, 22.971403439468702 ], [ 113.59915969814692, 22.996444787867471 ], [ 113.588657788218271, 22.996444787867471 ], [ 113.59301102957005, 23.004792296468558 ], [ 113.603513341980332, 23.004792296468558 ], [ 113.612226773444817, 23.021487902899068 ], [ 113.622729891386342, 23.021487902899068 ], [ 113.631452325071322, 23.038184295552185 ], [ 113.620948400840859, 23.038184295552185 ], [ 113.62967822921577, 23.054881475130024 ], [ 113.619173497938235, 23.054881475130024 ], [ 113.623541085263909, 23.063230360235217 ], [ 113.602530815092834, 23.063230360235217 ], [ 113.598164035383149, 23.054881475130024 ], [ 113.5876593041056, 23.054881475130024 ], [ 113.578932703919051, 23.038184295552185 ], [ 113.568428779688574, 23.038184295552185 ], [ 113.555355458130265, 23.013140001449859 ], [ 113.544852743049049, 23.013140001449859 ], [ 113.540499467518657, 23.004792296468558 ], [ 113.519494842698094, 23.004792296468558 ], [ 113.510796040316606, 22.988097475558909 ], [ 113.521297547952855, 22.988097475558909 ], [ 113.516950812399131, 22.979750359455196 ], [ 113.527451917932197, 22.979750359455196 ], [ 113.523106824975997, 22.971403439468702 ], [ 113.512606121356995, 22.971403439468702 ], [ 113.508263474198685, 22.963056715511804 ], [ 113.497763172304658, 22.963056715511804 ], [ 113.489084810013424, 22.946363855336415 ], [ 113.499584309024414, 22.946363855336415 ], [ 113.490913311862485, 22.929671778228517 ], [ 113.480414614978855, 22.929671778228517 ], [ 113.467424625082842, 22.904635129286689 ], [ 113.47792212019111, 22.904635129286689 ], [ 113.469271521167812, 22.887945006785046 ], [ 113.479768216035623, 22.887945006785046 ], [ 113.475445573441732, 22.879600238309834 ], [ 113.485941868472125, 22.879600238309834 ], [ 113.48162086342343, 22.871255664901845 ], [ 113.492116758804798, 22.871255664901845 ], [ 113.487797391055153, 22.862911286473725 ], [ 113.466806399213652, 22.862911286473725 ], [ 113.471124968042048, 22.871255664901845 ], [ 113.450133177279298, 22.871255664901845 ], [ 113.445815407372152, 22.862911286473725 ], [ 113.414328919609915, 22.862911286473725 ], [ 113.410014383091976, 22.854567102938141 ], [ 113.399519286443521, 22.854567102938141 ], [ 113.390897113922918, 22.837879320195356 ], [ 113.401391412591494, 22.837879320195356 ], [ 113.39708297736675, 22.829535720813592 ], [ 113.407576877327642, 22.829535720813592 ], [ 113.40327007610621, 22.821192315975242 ], [ 113.434750580430091, 22.821192315975242 ], [ 113.42183878354021, 22.796163267848563 ], [ 113.411346476529701, 22.796163267848563 ], [ 113.407047004419539, 22.787820640311846 ], [ 113.396555095176851, 22.787820640311846 ], [ 113.387963035280947, 22.771135967473835 ], [ 113.377471921010468, 22.771135967473835 ], [ 113.364600234923884, 22.74611041249894 ], [ 113.354110311704204, 22.74611041249894 ], [ 113.345540114412344, 22.729427677688157 ], [ 113.356029244535847, 22.729427677688157 ], [ 113.351746787594735, 22.721086600573493 ], [ 113.362235521451268, 22.721086600573493 ], [ 113.357954693112092, 22.712745716870018 ], [ 113.37893136866596, 22.712745716870018 ], [ 113.374651772796255, 22.704405026490779 ], [ 113.385139714680875, 22.704405026490779 ], [ 113.380861747120221, 22.696064529348874 ], [ 113.391349293299783, 22.696064529348874 ], [ 113.387072953808428, 22.687724225357393 ], [ 113.376585803146767, 22.687724225357393 ], [ 113.372311882146718, 22.679384114429464 ], [ 113.361825126815845, 22.679384114429464 ], [ 113.353284141383398, 22.662704471416852 ], [ 113.321826245691994, 22.662704471416852 ], [ 113.326094542758071, 22.671044196478231 ], [ 113.305121822383725, 22.671044196478231 ], [ 113.300854315231035, 22.662704471416852 ], [ 113.290368350000577, 22.662704471416852 ], [ 113.281840184474632, 22.64602559961644 ], [ 113.292325360352493, 22.64602559961644 ], [ 113.288063911403427, 22.637686452703843 ], [ 113.330003037330812, 22.637686452703843 ], [ 113.3257420297235, 22.629347498333992 ], [ 113.336226416996126, 22.629347498333992 ], [ 113.331967033681337, 22.621008736420155 ], [ 113.321483040431218, 22.621008736420155 ], [ 113.312971114350589, 22.604331789613688 ], [ 113.32345432011563, 22.604331789613688 ], [ 113.319200988645065, 22.595993604547729 ], [ 113.329683800947436, 22.595993604547729 ], [ 113.3254320922631, 22.587655611591089 ], [ 113.35687934934171, 22.587655611591089 ], [ 113.361132237854562, 22.595993604547729 ], [ 113.371615050156919, 22.595993604547729 ], [ 113.37587034894085, 22.604331789613688 ], [ 113.396836760470933, 22.604331789613688 ], [ 113.388326606420307, 22.587655611591089 ], [ 113.398809025446511, 22.587655611591089 ], [ 113.394556580774108, 22.579317810657155 ], [ 113.405038606710576, 22.579317810657155 ], [ 113.400787785471096, 22.570980201659307 ], [ 113.421751051537342, 22.570980201659307 ], [ 113.426002658583513, 22.579317810657155 ], [ 113.520340892011788, 22.579317810657155 ], [ 113.516085748835565, 22.570980201659307 ], [ 113.537049014901825, 22.570980201659307 ], [ 113.528543211336512, 22.554305559125645 ], [ 113.507581515765722, 22.554305559125645 ], [ 113.503332424655056, 22.545968525416736 ], [ 113.492851969214186, 22.545968525416736 ], [ 113.484360618932413, 22.529295032682192 ], [ 113.494840290242678, 22.529295032682192 ], [ 113.490597245726349, 22.520958573483608 ], [ 113.480117966202272, 22.520958573483608 ], [ 113.471638702530228, 22.504286228991546 ], [ 113.461160206020622, 22.504286228991546 ], [ 113.452689776297618, 22.487614649130244 ], [ 113.410778919342945, 22.487614649130244 ], [ 113.406548285495873, 22.479279145720177 ], [ 113.396070962113996, 22.479279145720177 ], [ 113.400301205104284, 22.487614649130244 ], [ 113.368868062388287, 22.487614649130244 ], [ 113.364638991968349, 22.479279145720177 ], [ 113.354161668586457, 22.479279145720177 ], [ 113.34571033659806, 22.462608711509503 ], [ 113.356186878823465, 22.462608711509503 ], [ 113.347742798582416, 22.445939040202752 ], [ 113.337267036771067, 22.445939040202752 ], [ 113.341487682965848, 22.454273780536283 ], [ 113.331011531040261, 22.454273780536283 ], [ 113.335233794372655, 22.462608711509503 ], [ 113.324757252147251, 22.462608711509503 ], [ 113.328981132848867, 22.470943833208704 ], [ 113.308027267427249, 22.470943833208704 ], [ 113.303804167696455, 22.462608711509503 ], [ 113.293327625471065, 22.462608711509503 ], [ 113.289106923337897, 22.454273780536283 ], [ 113.247202315635533, 22.454273780536283 ], [ 113.25142145656946, 22.462608711509503 ], [ 113.261897998794865, 22.462608711509503 ], [ 113.270343081531408, 22.479279145720177 ], [ 113.259865758149516, 22.479279145720177 ], [ 113.264090920001593, 22.487614649130244 ], [ 113.253613205762917, 22.487614649130244 ], [ 113.262068772338083, 22.504286228991546 ], [ 113.272547268847703, 22.504286228991546 ], [ 113.276778457050057, 22.51262230561553 ], [ 113.287257344973938, 22.51262230561553 ], [ 113.295726535347512, 22.529295032682192 ], [ 113.285246864037234, 22.529295032682192 ], [ 113.289484084032836, 22.537631683297747 ], [ 113.29996414731535, 22.537631683297747 ], [ 113.304203771278466, 22.545968525416736 ], [ 113.314684226719351, 22.545968525416736 ], [ 113.323170297932876, 22.562642784510988 ], [ 113.312689057616751, 22.562642784510988 ], [ 113.31693472120601, 22.570980201659307 ], [ 113.306453088172887, 22.570980201659307 ], [ 113.310700373282302, 22.579317810657155 ], [ 113.279254295472882, 22.579317810657155 ], [ 113.275008189073489, 22.570980201659307 ], [ 113.264526556040352, 22.570980201659307 ], [ 113.256041168916383, 22.554305559125645 ], [ 113.266522016701771, 22.554305559125645 ], [ 113.262281949514986, 22.545968525416736 ], [ 113.27276240495587, 22.545968525416736 ], [ 113.264287521416705, 22.529295032682192 ], [ 113.274767192726969, 22.529295032682192 ], [ 113.270532375720776, 22.520958573483608 ], [ 113.228615257624483, 22.520958573483608 ], [ 113.237083767620234, 22.537631683297747 ], [ 113.22660370433772, 22.537631683297747 ], [ 113.230840583192347, 22.545968525416736 ], [ 113.220360127751476, 22.545968525416736 ], [ 113.224598625560205, 22.554305559125645 ], [ 113.214117777774831, 22.554305559125645 ], [ 113.218357894771643, 22.562642784510988 ], [ 113.207876654455518, 22.562642784510988 ], [ 113.212118390874679, 22.570980201659307 ], [ 113.201636757841555, 22.570980201659307 ], [ 113.205880113917573, 22.579317810657155 ], [ 113.19539808798109, 22.579317810657155 ], [ 113.199643063948685, 22.587655611591089 ], [ 113.189160644922481, 22.587655611591089 ], [ 113.193407241016601, 22.595993604547729 ], [ 113.161958804109489, 22.595993604547729 ], [ 113.15771338784387, 22.587655611591089 ], [ 113.147230968817681, 22.587655611591089 ], [ 113.134507972242645, 22.562642784510988 ], [ 113.12402673192652, 22.562642784510988 ], [ 113.119790147706311, 22.554305559125645 ], [ 113.109309299920923, 22.554305559125645 ], [ 113.092384623811498, 22.520958573483608 ], [ 113.081905344287435, 22.520958573483608 ], [ 113.077679586496501, 22.51262230561553 ], [ 113.067200698572634, 22.51262230561553 ], [ 113.054536635228246, 22.487614649130244 ], [ 113.044058920989571, 22.487614649130244 ], [ 113.039841967129988, 22.479279145720177 ], [ 113.008409996984327, 22.479279145720177 ], [ 113.012625778273559, 22.487614649130244 ], [ 113.002148064034898, 22.487614649130244 ], [ 113.006365458002421, 22.495950343525241 ], [ 112.985409247439961, 22.495950343525241 ], [ 112.998071108094834, 22.520958573483608 ], [ 113.008550387618911, 22.520958573483608 ], [ 113.021231474374915, 22.545968525416736 ], [ 113.031711929815771, 22.545968525416736 ], [ 113.040176809397536, 22.562642784510988 ], [ 113.029695569081412, 22.562642784510988 ], [ 113.042406778555673, 22.587655611591089 ], [ 113.031924359529455, 22.587655611591089 ], [ 113.036165056481025, 22.595993604547729 ], [ 112.983750994969157, 22.595993604547729 ], [ 112.987991735634267, 22.604331789613688 ], [ 112.967025324104171, 22.604331789613688 ], [ 112.962785370364415, 22.595993604547729 ], [ 112.95230255806203, 22.595993604547729 ], [ 112.969272862454503, 22.629347498333992 ], [ 113.021694798817592, 22.629347498333992 ], [ 113.025944374357138, 22.637686452703843 ], [ 113.036429155838988, 22.637686452703843 ], [ 113.040681139283677, 22.64602559961644 ], [ 113.051166315161552, 22.64602559961644 ], [ 113.055420707494648, 22.654364939158526 ], [ 113.065906277955378, 22.654364939158526 ], [ 113.070163080160697, 22.662704471416852 ], [ 113.080649045391183, 22.662704471416852 ], [ 113.08490825845314, 22.671044196478231 ], [ 113.095394618640313, 22.671044196478231 ], [ 113.091135010621656, 22.662704471416852 ], [ 113.112106941082573, 22.662704471416852 ], [ 113.116367339014644, 22.671044196478231 ], [ 113.126853699201817, 22.671044196478231 ], [ 113.131116509536483, 22.679384114429464 ], [ 113.141603264867356, 22.679384114429464 ], [ 113.150135731170124, 22.696064529348874 ], [ 113.139648184990563, 22.696064529348874 ], [ 113.143917051334498, 22.704405026490779 ], [ 113.133429109449878, 22.704405026490779 ], [ 113.137699599796463, 22.712745716870018 ], [ 113.127211262019529, 22.712745716870018 ], [ 113.131483376607449, 22.721086600573493 ], [ 113.110505908894382, 22.721086600573493 ], [ 113.106234586465661, 22.712745716870018 ], [ 113.095746248688727, 22.712745716870018 ], [ 113.10429012157212, 22.729427677688157 ], [ 113.114779251695609, 22.729427677688157 ], [ 113.11905461548325, 22.737768948300978 ], [ 113.129544142061107, 22.737768948300978 ], [ 113.125268381819097, 22.729427677688157 ], [ 113.156735772189563, 22.729427677688157 ], [ 113.152460844320515, 22.721086600573493 ], [ 113.162949578177063, 22.721086600573493 ], [ 113.158676275350345, 22.712745716870018 ], [ 113.169164613127279, 22.712745716870018 ], [ 113.164892935103765, 22.704405026490779 ], [ 113.175380876988385, 22.704405026490779 ], [ 113.171110823529233, 22.696064529348874 ], [ 113.202573462067875, 22.696064529348874 ], [ 113.206844702642258, 22.704405026490779 ], [ 113.217332644526877, 22.704405026490779 ], [ 113.238721156287895, 22.74611041249894 ], [ 113.228231233068215, 22.74611041249894 ], [ 113.232514608965317, 22.754452070369044 ], [ 113.222024288916302, 22.754452070369044 ], [ 113.230596321223828, 22.771135967473835 ], [ 113.220105206953349, 22.771135967473835 ], [ 113.228684547293525, 22.787820640311846 ], [ 113.218192638050837, 22.787820640311846 ], [ 113.222484950340657, 22.796163267848563 ], [ 113.191008029309145, 22.796163267848563 ], [ 113.195301174959155, 22.804506089579917 ], [ 113.174315765026833, 22.804506089579917 ], [ 113.182906545838946, 22.821192315975242 ], [ 113.172413044397658, 22.821192315975242 ], [ 113.176711078188092, 22.829535720813592 ], [ 113.155723278266308, 22.829535720813592 ], [ 113.160022543214339, 22.837879320195356 ], [ 113.097056751202899, 22.837879320195356 ], [ 113.092759878500971, 22.829535720813592 ], [ 113.082265978540079, 22.829535720813592 ], [ 113.077971531425973, 22.821192315975242 ], [ 113.06747802998467, 22.821192315975242 ], [ 113.063186007463926, 22.812849105593088 ], [ 113.000227388805484, 22.812849105593088 ], [ 113.004517021336881, 22.821192315975242 ], [ 112.994023519895578, 22.821192315975242 ], [ 112.998314778852958, 22.829535720813592 ], [ 112.966833078970296, 22.829535720813592 ], [ 112.971125167180034, 22.837879320195356 ], [ 112.960630868511458, 22.837879320195356 ], [ 112.964924583254572, 22.846223114207781 ], [ 112.975419280818983, 22.846223114207781 ], [ 112.98401358685922, 22.862911286473725 ], [ 112.97351809093847, 22.862911286473725 ], [ 112.982119707013879, 22.879600238309834 ], [ 112.992616002044258, 22.879600238309834 ], [ 112.988313780498814, 22.871255664901845 ], [ 113.009305571261564, 22.871255664901845 ], [ 113.013608592105015, 22.879600238309834 ], [ 113.02410488713538, 22.879600238309834 ], [ 113.032717816015236, 22.896289970414866 ], [ 113.022220721121485, 22.896289970414866 ], [ 113.026529830536333, 22.904635129286689 ], [ 112.995037345211571, 22.904635129286689 ], [ 113.003659253977602, 22.921326033106066 ], [ 112.99316095787448, 22.921326033106066 ], [ 112.997474558332641, 22.929671778228517 ], [ 112.986975861449025, 22.929671778228517 ], [ 112.991291092816226, 22.938017718942795 ], [ 112.949294701404682, 22.938017718942795 ], [ 112.953610360451876, 22.946363855336415 ], [ 112.932611362429853, 22.946363855336415 ], [ 112.928296505698881, 22.938017718942795 ], [ 112.91779740784601, 22.938017718942795 ], [ 112.913484983263743, 22.929671778228517 ], [ 112.892487589496511, 22.929671778228517 ], [ 112.896799212140223, 22.938017718942795 ], [ 112.886300114287337, 22.938017718942795 ], [ 112.890613366385807, 22.946363855336415 ], [ 112.880113867374789, 22.946363855336415 ], [ 112.884428749173068, 22.9547101874969 ], [ 112.873928848815041, 22.9547101874969 ], [ 112.878245360558353, 22.963056715511804 ], [ 112.888745662452351, 22.963056715511804 ], [ 112.89306460783618, 22.971403439468702 ], [ 112.91406601507417, 22.971403439468702 ], [ 112.918387797014603, 22.979750359455196 ], [ 112.939390008080736, 22.979750359455196 ], [ 112.94371462795867, 22.988097475558909 ], [ 112.954216135594905, 22.988097475558909 ], [ 112.958543192499604, 22.996444787867471 ], [ 112.969045102428254, 22.996444787867471 ], [ 112.97337459736363, 23.004792296468558 ], [ 112.983876909773912, 23.004792296468558 ], [ 112.988208843744474, 23.013140001449859 ], [ 112.99871155882569, 23.013140001449859 ], [ 113.007382344843705, 23.029836000903924 ], [ 112.996878823852455, 23.029836000903924 ], [ 113.001216871243969, 23.038184295552185 ], [ 112.980209022783043, 23.038184295552185 ], [ 112.984548302378897, 23.046532786931614 ], [ 112.995052630038103, 23.046532786931614 ], [ 113.012431763426434, 23.079928721517376 ], [ 113.033443649967921, 23.079928721517376 ], [ 113.03779434553762, 23.088278197870086 ], [ 113.048300693185695, 23.088278197870086 ], [ 113.057009023360024, 23.104977742438315 ], [ 113.046501866387587, 23.104977742438315 ], [ 113.050858692929665, 23.113327810829716 ], [ 113.04035113101007, 23.113327810829716 ], [ 113.049070109021457, 23.130028540266959 ], [ 113.059578481405637, 23.130028540266959 ], [ 113.068306454619076, 23.146730060496896 ], [ 113.057797271009576, 23.146730060496896 ], [ 113.062163922577028, 23.155081117379243 ], [ 113.05165433306945, 23.155081117379243 ], [ 113.056022626442015, 23.163432372223955 ], [ 113.045512630845977, 23.163432372223955 ], [ 113.054254550488622, 23.180135476152905 ], [ 113.064765358832858, 23.180135476152905 ], [ 113.073516289649291, 23.196839372988912 ], [ 113.105051155213019, 23.196839372988912 ], [ 113.1094309177425, 23.205191618967511 ], [ 113.130454975533894, 23.205191618967511 ], [ 113.126074398922157, 23.196839372988912 ], [ 113.147097642631309, 23.196839372988912 ], [ 113.151479033325302, 23.205191618967511 ], [ 113.161991062220991, 23.205191618967511 ], [ 113.166374912995011, 23.21354406343746 ], [ 113.176887349122552, 23.21354406343746 ], [ 113.185662027371563, 23.230249548204416 ], [ 113.175148776207962, 23.230249548204416 ], [ 113.179538789922105, 23.238602588677974 ], [ 113.190052448890043, 23.238602588677974 ], [ 113.20323605068215, 23.263662903518782 ], [ 113.192721167155256, 23.263662903518782 ], [ 113.197119407060157, 23.272016739900284 ], [ 113.186604114964751, 23.272016739900284 ], [ 113.204216026268313, 23.305434078289963 ], [ 113.214732954550215, 23.305434078289963 ], [ 113.219141491595366, 23.313788911545601 ], [ 113.250693505016145, 23.313788911545601 ], [ 113.255105332563446, 23.322143944441507 ], [ 113.265623080086911, 23.322143944441507 ], [ 113.283292663188561, 23.355566074199007 ], [ 113.293812051494186, 23.355566074199007 ], [ 113.298235019675133, 23.363922106624813 ], [ 113.329794416616551, 23.363922106624813 ], [ 113.334220683570834, 23.372278339222465 ], [ 113.344740893418006, 23.372278339222465 ], [ 113.349169638825245, 23.380634772080626 ], [ 113.370210880636805, 23.380634772080626 ], [ 113.36578131311235, 23.372278339222465 ] ], [ [ 113.838127933545906, 22.971403439468702 ], [ 113.796125119069927, 22.971403439468702 ], [ 113.783070782321715, 22.946363855336415 ], [ 113.793570281332734, 22.946363855336415 ], [ 113.789222529635992, 22.938017718942795 ], [ 113.820719823194651, 22.938017718942795 ], [ 113.825068778365761, 22.946363855336415 ], [ 113.835568277376765, 22.946363855336415 ], [ 113.844273134806855, 22.963056715511804 ], [ 113.833772832912842, 22.963056715511804 ], [ 113.838127933545906, 22.971403439468702 ] ], [ [ 113.337133567934288, 22.896289970414866 ], [ 113.305642283253007, 22.896289970414866 ], [ 113.301324403282649, 22.887945006785046 ], [ 113.290827708414824, 22.887945006785046 ], [ 113.286512262894888, 22.879600238309834 ], [ 113.27601596786451, 22.879600238309834 ], [ 113.267391976719423, 22.862911286473725 ], [ 113.277887472640174, 22.862911286473725 ], [ 113.269270812622324, 22.846223114207781 ], [ 113.279765510186721, 22.846223114207781 ], [ 113.275459828568628, 22.837879320195356 ], [ 113.28595412723719, 22.837879320195356 ], [ 113.281650077796982, 22.829535720813592 ], [ 113.302637877718752, 22.829535720813592 ], [ 113.306942724574341, 22.837879320195356 ], [ 113.317437023242917, 22.837879320195356 ], [ 113.343311182753936, 22.887945006785046 ], [ 113.332814487886111, 22.887945006785046 ], [ 113.337133567934288, 22.896289970414866 ] ], [ [ 113.886847691136438, 22.537631683297747 ], [ 113.876367627853909, 22.537631683297747 ], [ 113.872108457412466, 22.529295032682192 ], [ 113.882588128722745, 22.529295032682192 ], [ 113.886847691136438, 22.537631683297747 ] ] ] ] } }
]
}
