{
"type": "FeatureCollection",
"name": "ghsl_1081",
"crs": { "type": "name", "properties": { "name": "urn:ogc:def:crs:OGC:1.3:CRS84" } },
"features": [
{ "type": "Feature", "properties": { "city_id": "ghsl_1081", "city_name": "Vienna" }, "geometry": { "type": "MultiPolygon", "coordinates": [ [ [ [ 16.428695432126506, 48.297157148960338 ], [ 16.454425573758655, 48.297157148960338 ], [ 16.452511645674381, 48.287728828874997 ], [ 16.465375220065056, 48.287728828874997 ], [ 16.461547383746684, 48.268874120403773 ], [ 16.474407967640239, 48.268874120403773 ], [ 16.472494060279072, 48.259447731434669 ], [ 16.511071329741085, 48.259447731434669 ], [ 16.507237566024077, 48.240596882572682 ], [ 16.520093670047462, 48.240596882572682 ], [ 16.518176802705224, 48.231172422097664 ], [ 16.543886027300875, 48.231172422097664 ], [ 16.538132505083968, 48.202902893007462 ], [ 16.49958207966419, 48.202902893007462 ], [ 16.497670712328723, 48.193480999787596 ], [ 16.484822059125975, 48.193480999787596 ], [ 16.479098416700101, 48.165219165497675 ], [ 16.491942608763004, 48.165219165497675 ], [ 16.490035237941715, 48.155799834891972 ], [ 16.502877944513319, 48.155799834891972 ], [ 16.500970086273234, 48.146381144216029 ], [ 16.526652529987278, 48.146381144216029 ], [ 16.524742701210677, 48.136963093180725 ], [ 16.460544011617781, 48.136963093180725 ], [ 16.462446420702168, 48.146381144216029 ], [ 16.411081533274082, 48.146381144216029 ], [ 16.409185059943468, 48.136963093180725 ], [ 16.370665846187734, 48.136963093180725 ], [ 16.368774813525768, 48.127545681497075 ], [ 16.330260049258648, 48.127545681497075 ], [ 16.328374451888717, 48.118128908876329 ], [ 16.31553767952088, 48.118128908876329 ], [ 16.309891237530504, 48.089882422506378 ], [ 16.322723567379072, 48.089882422506378 ], [ 16.320841906006276, 48.080468203253048 ], [ 16.33367275656131, 48.080468203253048 ], [ 16.331790598866114, 48.071054621621478 ], [ 16.344619970899785, 48.071054621621478 ], [ 16.342737317706781, 48.061641677323962 ], [ 16.329909423422865, 48.061641677323962 ], [ 16.326150016419351, 48.042817699581242 ], [ 16.300500134225448, 48.042817699581242 ], [ 16.304253634855037, 48.061641677323962 ], [ 16.291425740571125, 48.061641677323962 ], [ 16.293302482765093, 48.071054621621478 ], [ 16.280473110731418, 48.071054621621478 ], [ 16.284226577833369, 48.089882422506378 ], [ 16.271394247984801, 48.089882422506378 ], [ 16.275148676582173, 48.108712775029865 ], [ 16.26231338582777, 48.108712775029865 ], [ 16.264190590049534, 48.118128908876329 ], [ 16.251353817681693, 48.118128908876329 ], [ 16.262628767645872, 48.174639136322469 ], [ 16.249783089314398, 48.174639136322469 ], [ 16.253546301476508, 48.193480999787596 ], [ 16.240697648273759, 48.193480999787596 ], [ 16.242579243532347, 48.202902893007462 ], [ 16.204028818112572, 48.202902893007462 ], [ 16.205906930594757, 48.212325427605577 ], [ 16.21875856178476, 48.212325427605577 ], [ 16.220639148188663, 48.221748603872165 ], [ 16.272051633602892, 48.221748603872165 ], [ 16.273939169046546, 48.231172422097664 ], [ 16.286793781344375, 48.231172422097664 ], [ 16.292466802789683, 48.259447731434669 ], [ 16.343903162072365, 48.259447731434669 ], [ 16.345802128704715, 48.268874120403773 ], [ 16.358662712598267, 48.268874120403773 ], [ 16.36246662493965, 48.287728828874997 ], [ 16.375330199330328, 48.287728828874997 ], [ 16.377235148862216, 48.297157148960338 ], [ 16.402965290494365, 48.297157148960338 ], [ 16.404874234171764, 48.306586113334717 ], [ 16.430607370225367, 48.306586113334717 ], [ 16.428695432126506, 48.297157148960338 ] ] ] ] } }
]
}
