{
"type": "FeatureCollection",
"name": "ghsl_1262",
"crs": { "type": "name", "properties": { "name": "urn:ogc:def:crs:OGC:1.3:CRS84" } },
"features": [
{ "type": "Feature", "properties": { "city_id": "ghsl_1262", "city_name": "Calgary" }, "geometry": { "type": "MultiPolygon", "coordinates": [ [ [ [ -114.030240042246277, 51.165759803707118 ], [ -114.043594093076848, 51.165759803707118 ], [ -114.028546088063521, 51.156123461512053 ], [ -114.041898376832606, 51.156123461512053 ], [ -114.026857074723509, 51.146487860472028 ], [ -114.053558130120948, 51.146487860472028 ], [ -114.038521765912932, 51.136853000230111 ], [ -114.051870533531556, 51.136853000230111 ], [ -114.036840863376625, 51.127218880429552 ], [ -114.05018787190464, 51.127218880429552 ], [ -114.020150351223023, 51.107952860726947 ], [ -114.006806857910988, 51.107952860726947 ], [ -113.991802508842611, 51.098320960112709 ], [ -113.965119034472565, 51.098320960112709 ], [ -113.980119871286945, 51.107952860726947 ], [ -113.966776377974909, 51.107952860726947 ], [ -113.981783889185778, 51.117585500713915 ], [ -113.968438638759707, 51.117585500713915 ], [ -113.983452829264564, 51.127218880429552 ], [ -113.95675881220852, 51.127218880429552 ], [ -113.971777927819815, 51.136853000230111 ], [ -113.945080392582554, 51.136853000230111 ], [ -113.96010443622994, 51.146487860472028 ], [ -113.946753908531221, 51.146487860472028 ], [ -113.91671778662446, 51.127218880429552 ], [ -113.930064795152489, 51.127218880429552 ], [ -113.915057637055355, 51.117585500713915 ], [ -113.928402887481454, 51.117585500713915 ], [ -113.913402404726838, 51.107952860726947 ], [ -113.926745898038874, 51.107952860726947 ], [ -113.911752085732488, 51.098320960112709 ], [ -113.925093822917503, 51.098320960112709 ], [ -113.910106676170699, 51.088689798515482 ], [ -113.923446658214985, 51.088689798515482 ], [ -113.908466172144657, 51.079059375579796 ], [ -113.92180440003365, 51.079059375579796 ], [ -113.906830569762278, 51.069429690950457 ], [ -113.920167044480664, 51.069429690950457 ], [ -113.905199865136296, 51.059800744272515 ], [ -113.918534587667921, 51.059800744272515 ], [ -113.90357405438408, 51.05017253519123 ], [ -113.930239997039934, 51.05017253519123 ], [ -113.915284354734297, 51.040545063352134 ], [ -113.92861557584078, 51.040545063352134 ], [ -113.913666570860954, 51.030918328401057 ], [ -113.966984458326834, 51.030918328401057 ], [ -113.952036841044162, 51.021292329984028 ], [ -113.965364564651296, 51.021292329984028 ], [ -113.950423577938267, 51.01166706774729 ], [ -113.963749554265945, 51.01166706774729 ], [ -113.933889198508567, 50.992418750401221 ], [ -113.947211683213709, 50.992418750401221 ], [ -113.932292303524392, 50.98279569458569 ], [ -113.945613043884919, 50.98279569458569 ], [ -113.930700274453656, 50.973173373538103 ], [ -113.957338268438804, 50.973173373538103 ], [ -113.942430362054267, 50.963551786906002 ], [ -113.95574761665479, 50.963551786906002 ], [ -113.940846311870459, 50.95393093433718 ], [ -113.9674773382376, 50.95393093433718 ], [ -113.952580889801709, 50.944310815479646 ], [ -113.965894662542667, 50.944310815479646 ], [ -113.936123278251301, 50.925072777491742 ], [ -113.922812983475794, 50.925072777491742 ], [ -113.907941512104742, 50.915454857658688 ], [ -113.921250069355835, 50.915454857658688 ], [ -113.906385173651685, 50.905837670131476 ], [ -113.919691994349563, 50.905837670131476 ], [ -113.904833669532096, 50.896221214559382 ], [ -113.944748924877103, 50.896221214559382 ], [ -113.929893696944873, 50.886605490591862 ], [ -113.956500397948346, 50.886605490591862 ], [ -113.941649999651602, 50.876990497878715 ], [ -113.968253233366198, 50.876990497878715 ], [ -113.953407661875374, 50.867376236069916 ], [ -113.96670754605627, 50.867376236069916 ], [ -113.981554850223503, 50.876990497878715 ], [ -114.087967785081915, 50.876990497878715 ], [ -114.132601125515251, 50.905837670131476 ], [ -114.119294304817402, 50.905837670131476 ], [ -114.134186985373319, 50.915454857658688 ], [ -114.120878428122239, 50.915454857658688 ], [ -114.135777699883761, 50.925072777491742 ], [ -114.122467405108253, 50.925072777491742 ], [ -114.152287480915987, 50.944310815479646 ], [ -114.13897370817503, 50.944310815479646 ], [ -114.15389452280769, 50.95393093433718 ], [ -114.140579009624105, 50.95393093433718 ], [ -114.155506435662602, 50.963551786906002 ], [ -114.128871926461542, 50.963551786906002 ], [ -114.143804226334794, 50.973173373538103 ], [ -114.117166232349661, 50.973173373538103 ], [ -114.13210340893221, 50.98279569458569 ], [ -114.118782668571683, 50.98279569458569 ], [ -114.148678643689763, 51.002042541337438 ], [ -114.162002873717043, 51.002042541337438 ], [ -114.176965175508727, 51.01166706774729 ], [ -114.216943104491733, 51.01166706774729 ], [ -114.231919036794082, 51.021292329984028 ], [ -114.218591313186934, 51.021292329984028 ], [ -114.233573895656249, 51.030918328401057 ], [ -114.220244423789779, 51.030918328401057 ], [ -114.235233661289442, 51.040545063352134 ], [ -114.221902440182973, 51.040545063352134 ], [ -114.236898337581991, 51.05017253519123 ], [ -114.210232394926152, 51.05017253519123 ], [ -114.225233205895279, 51.059800744272515 ], [ -114.211898483363655, 51.059800744272515 ], [ -114.241921869369904, 51.079059375579796 ], [ -114.201907185702879, 51.079059375579796 ], [ -114.216926263189308, 51.088689798515482 ], [ -114.203586281145022, 51.088689798515482 ], [ -114.23364624421535, 51.107952860726947 ], [ -114.246989737527386, 51.107952860726947 ], [ -114.262034148133552, 51.117585500713915 ], [ -114.248688897707467, 51.117585500713915 ], [ -114.263740008352912, 51.127218880429552 ], [ -114.250392999824882, 51.127218880429552 ], [ -114.265450815429546, 51.136853000230111 ], [ -114.252102047810922, 51.136853000230111 ], [ -114.267166573300386, 51.146487860472028 ], [ -114.253816045601681, 51.146487860472028 ], [ -114.268887285907226, 51.156123461512053 ], [ -114.148716686985367, 51.156123461512053 ], [ -114.163780550551991, 51.165759803707118 ], [ -114.110364347229705, 51.165759803707118 ], [ -114.125429638396355, 51.175396887414486 ], [ -114.045294755092641, 51.175396887414486 ], [ -114.030240042246277, 51.165759803707118 ] ] ] ] } }
]
}
