{
"type": "FeatureCollection",
"name": "ghsl_4605",
"crs": { "type": "name", "properties": { "name": "urn:ogc:def:crs:OGC:1.3:CRS84" } },
"features": [
{ "type": "Feature", "properties": { "city_id": "ghsl_4605", "city_name": "Cairo" }, "geometry": { "type": "MultiPolygon", "coordinates": [ [ [ [ 31.397368358048404, 30.360301555662211 ], [ 31.419232820693292, 30.360301555662211 ], [ 31.408993555002606, 30.308978256213241 ], [ 31.398064886403095, 30.308978256213241 ], [ 31.392957033225894, 30.283320418462932 ], [ 31.403883923944033, 30.283320418462932 ], [ 31.40218219332807, 30.274768369861867 ], [ 31.413108491933961, 30.274768369861867 ], [ 31.411406908830102, 30.266216603063555 ], [ 31.422332615580999, 30.266216603063555 ], [ 31.42063118020307, 30.257665117954964 ], [ 31.40970606505001, 30.257665117954964 ], [ 31.408005960293295, 30.249113914423102 ], [ 31.39708143648102, 30.249113914423102 ], [ 31.39538266153135, 30.240562992355063 ], [ 31.384458728802912, 30.240562992355063 ], [ 31.377673369440839, 30.206362116463474 ], [ 31.388594940401315, 30.206362116463474 ], [ 31.386899853289329, 30.197812600021688 ], [ 31.430583777928554, 30.197812600021688 ], [ 31.432281224243205, 30.206362116463474 ], [ 31.443202795203682, 30.206362116463474 ], [ 31.446601082487504, 30.223461992158818 ], [ 31.457523833818698, 30.223461992158818 ], [ 31.462628579354675, 30.249113914423102 ], [ 31.4517040555424, 30.249113914423102 ], [ 31.455109735833688, 30.266216603063555 ], [ 31.466035442584587, 30.266216603063555 ], [ 31.469445268252894, 30.283320418462932 ], [ 31.491299049689179, 30.283320418462932 ], [ 31.48788685608638, 30.266216603063555 ], [ 31.498812562837283, 30.266216603063555 ], [ 31.493698056087293, 30.240562992355063 ], [ 31.482774123358855, 30.240562992355063 ], [ 31.47426770256779, 30.197812600021688 ], [ 31.4851886837276, 30.197812600021688 ], [ 31.483489027386813, 30.189263364366894 ], [ 31.494409419002285, 30.189263364366894 ], [ 31.492709912051037, 30.180714409386379 ], [ 31.481790109723697, 30.180714409386379 ], [ 31.478394489233409, 30.163617340997767 ], [ 31.467475864714078, 30.163617340997767 ], [ 31.465779749809009, 30.155069227364503 ], [ 31.45486171380977, 30.155069227364503 ], [ 31.45316692439485, 30.146521393955226 ], [ 31.442249476659899, 30.146521393955226 ], [ 31.438863283308994, 30.12942656735876 ], [ 31.427947011335622, 30.12942656735876 ], [ 31.426255606037149, 30.12087957394672 ], [ 31.415339921561284, 30.12087957394672 ], [ 31.4136498387724, 30.112332860308967 ], [ 31.402734741538637, 30.112332860308967 ], [ 31.397670660469473, 30.086694396918325 ], [ 31.408583997508213, 30.086694396918325 ], [ 31.406896851798638, 30.078148801254805 ], [ 31.417809602615801, 30.078148801254805 ], [ 31.416122604468129, 30.069603484804301 ], [ 31.437946934169041, 30.069603484804301 ], [ 31.439635104250133, 30.078148801254805 ], [ 31.461460605884465, 30.078148801254805 ], [ 31.45977126386996, 30.069603484804301 ], [ 31.481595593570876, 30.069603484804301 ], [ 31.48328610751879, 30.078148801254805 ], [ 31.505111609153122, 30.078148801254805 ], [ 31.503419923271789, 30.069603484804301 ], [ 31.525244252972708, 30.069603484804301 ], [ 31.523552131192979, 30.061058447454673 ], [ 31.534463710331508, 30.061058447454673 ], [ 31.531080503029365, 30.043969209609664 ], [ 31.520170094550807, 30.043969209609664 ], [ 31.518480179094993, 30.035425008890183 ], [ 31.507570355564667, 30.035425008890183 ], [ 31.502506770421476, 30.009794078200098 ], [ 31.513414840632848, 30.009794078200098 ], [ 31.51172786279405, 30.001250991419795 ], [ 31.479005403954183, 30.001250991419795 ], [ 31.477320910812654, 29.992708182844588 ], [ 31.455507105607651, 29.992708182844588 ], [ 31.453824511921361, 29.98416565236268 ], [ 31.442918192742468, 29.98416565236268 ], [ 31.441236914031741, 29.9756233998623 ], [ 31.419425442013683, 29.9756233998623 ], [ 31.417746060393046, 29.967081425231722 ], [ 31.406840907300236, 29.967081425231722 ], [ 31.408519706004657, 29.9756233998623 ], [ 31.397613969995625, 29.9756233998623 ], [ 31.399292916026901, 29.98416565236268 ], [ 31.388386596848012, 29.98416565236268 ], [ 31.391745513714525, 30.001250991419795 ], [ 31.402652999994483, 30.001250991419795 ], [ 31.407698610123024, 30.026881086823391 ], [ 31.39678937128658, 30.026881086823391 ], [ 31.398472120261467, 30.035425008890183 ], [ 31.376652473200831, 30.035425008890183 ], [ 31.374970893613696, 30.026881086823391 ], [ 31.364061654777245, 30.026881086823391 ], [ 31.362381390876497, 30.018337443297334 ], [ 31.351472736479664, 30.018337443297334 ], [ 31.346438079582665, 29.992708182844588 ], [ 31.357344982185161, 29.992708182844588 ], [ 31.355667639311338, 29.98416565236268 ], [ 31.366573958490228, 29.98416565236268 ], [ 31.363220294928986, 29.967081425231722 ], [ 31.352315141836172, 29.967081425231722 ], [ 31.350639986648073, 29.958539728359273 ], [ 31.33973541621793, 29.958539728359273 ], [ 31.336388456040424, 29.94145716744212 ], [ 31.32548505017542, 29.94145716744212 ], [ 31.323813243840686, 29.932916303174238 ], [ 31.312910419878321, 29.932916303174238 ], [ 31.307901107443069, 29.907295373794955 ], [ 31.318802187215859, 29.907295373794955 ], [ 31.315465115197547, 29.890216139281179 ], [ 31.326365033441611, 29.890216139281179 ], [ 31.324697005892265, 29.881676937211839 ], [ 31.335596343750961, 29.881676937211839 ], [ 31.333928461829981, 29.873138011785759 ], [ 31.344827219555832, 29.873138011785759 ], [ 31.343159483477155, 29.864599362891681 ], [ 31.375854017013463, 29.864599362891681 ], [ 31.374185267734713, 29.856060990418328 ], [ 31.385082865952061, 29.856060990418328 ], [ 31.381746387054672, 29.83898507428907 ], [ 31.392642826772398, 29.83898507428907 ], [ 31.390975097328486, 29.830447530410865 ], [ 31.401870958174484, 29.830447530410865 ], [ 31.400203375892946, 29.821910262508794 ], [ 31.389308093666756, 29.821910262508794 ], [ 31.385976262528427, 29.804836554188896 ], [ 31.353293885302609, 29.804836554188896 ], [ 31.351630790839767, 29.796300113549059 ], [ 31.340737242962476, 29.796300113549059 ], [ 31.334094409835973, 29.762157105202139 ], [ 31.344985648768834, 29.762157105202139 ], [ 31.343326170751283, 29.753622041114244 ], [ 31.35421683307608, 29.753622041114244 ], [ 31.350898891557947, 29.736552737761595 ], [ 31.340009381696344, 29.736552737761595 ], [ 31.338352070082589, 29.728018498275425 ], [ 31.327463136076307, 29.728018498275425 ], [ 31.320843403246542, 29.693884285683712 ], [ 31.299070137064234, 29.693884285683712 ], [ 31.297418154176917, 29.685351418321225 ], [ 31.286532095688511, 29.685351418321225 ], [ 31.283231436197195, 29.668286505765359 ], [ 31.25057670609678, 29.668286505765359 ], [ 31.252224954117658, 29.676818825051914 ], [ 31.230453985845887, 29.676818825051914 ], [ 31.235399591944436, 29.702417427249859 ], [ 31.278948423721289, 29.702417427249859 ], [ 31.280600696004733, 29.710950843130156 ], [ 31.291488479052418, 29.710950843130156 ], [ 31.294796334057455, 29.728018498275425 ], [ 31.283907400051177, 29.728018498275425 ], [ 31.285561832388328, 29.736552737761595 ], [ 31.252893302803511, 29.736552737761595 ], [ 31.254546727414624, 29.745087252004293 ], [ 31.232766555479142, 29.745087252004293 ], [ 31.231114283080302, 29.736552737761595 ], [ 31.2202247732187, 29.736552737761595 ], [ 31.22518202050739, 29.762157105202139 ], [ 31.246964498373099, 29.762157105202139 ], [ 31.248619507369291, 29.770692444378742 ], [ 31.259511323161338, 29.770692444378742 ], [ 31.266140879367093, 29.804836554188896 ], [ 31.255246753625151, 29.804836554188896 ], [ 31.256905369198307, 29.813373270471814 ], [ 31.246010665340101, 29.813373270471814 ], [ 31.247669424726226, 29.821910262508794 ], [ 31.236774142500035, 29.821910262508794 ], [ 31.238433045484474, 29.830447530410865 ], [ 31.216641323792476, 29.830447530410865 ], [ 31.224940884571442, 29.873138011785759 ], [ 31.214042126845587, 29.873138011785759 ], [ 31.215703627305309, 29.881676937211839 ], [ 31.204804289446606, 29.881676937211839 ], [ 31.208128299340622, 29.898755618105096 ], [ 31.197227800458563, 29.898755618105096 ], [ 31.1988903097152, 29.907295373794955 ], [ 31.187989229942417, 29.907295373794955 ], [ 31.189651881656729, 29.915835406462133 ], [ 31.17875022074038, 29.915835406462133 ], [ 31.180413014697038, 29.924375716218073 ], [ 31.169510772384204, 29.924375716218073 ], [ 31.171173708367732, 29.932916303174238 ], [ 31.149368060443031, 29.932916303174238 ], [ 31.152693775725819, 29.949998309133274 ], [ 31.141789787704916, 29.949998309133274 ], [ 31.143453148475441, 29.958539728359273 ], [ 31.110739437185028, 29.958539728359273 ], [ 31.109077823642199, 29.949998309133274 ], [ 31.098173835621292, 29.949998309133274 ], [ 31.096513527010199, 29.94145716744212 ], [ 31.08561012114518, 29.94145716744212 ], [ 31.092253361742799, 29.9756233998623 ], [ 31.081347625733773, 29.9756233998623 ], [ 31.084672417122679, 29.992708182844588 ], [ 31.095579319725175, 29.992708182844588 ], [ 31.102239922702587, 30.026881086823391 ], [ 31.091330683866143, 30.026881086823391 ], [ 31.094664163887089, 30.043969209609664 ], [ 31.083753755408537, 30.043969209609664 ], [ 31.085420997901004, 30.052513689093821 ], [ 31.074510004219746, 30.052513689093821 ], [ 31.076177386513542, 30.061058447454673 ], [ 31.021619490820921, 30.061058447454673 ], [ 31.026617201152138, 30.086694396918325 ], [ 31.015703864113391, 30.086694396918325 ], [ 31.017370630491762, 30.095240271907045 ], [ 31.050112401037666, 30.095240271907045 ], [ 31.051781652549426, 30.103786426333173 ], [ 31.06269616279636, 30.103786426333173 ], [ 31.064366727291958, 30.112332860308967 ], [ 31.075281824525717, 30.112332860308967 ], [ 31.076953702809231, 30.12087957394672 ], [ 31.087869387285103, 30.12087957394672 ], [ 31.086196921759488, 30.112332860308967 ], [ 31.108027116227014, 30.112332860308967 ], [ 31.109700756236851, 30.12087957394672 ], [ 31.120616440712716, 30.12087957394672 ], [ 31.125643492346306, 30.146521393955226 ], [ 31.114726044611359, 30.146521393955226 ], [ 31.116402597833336, 30.155069227364503 ], [ 31.09456652583486, 30.155069227364503 ], [ 31.097919465102347, 30.172165734967535 ], [ 31.087000251807016, 30.172165734967535 ], [ 31.088677225939421, 30.180714409386379 ], [ 31.066837621284744, 30.180714409386379 ], [ 31.065161825216357, 30.172165734967535 ], [ 31.054242611921026, 30.172165734967535 ], [ 31.049221358201645, 30.146521393955226 ], [ 31.027386462731748, 30.146521393955226 ], [ 31.029058309839421, 30.155069227364503 ], [ 31.018140273840178, 30.155069227364503 ], [ 31.028183098705679, 30.206362116463474 ], [ 31.071869382547575, 30.206362116463474 ], [ 31.073548094973003, 30.214911913804936 ], [ 31.084470255990567, 30.214911913804936 ], [ 31.087831051507663, 30.23201235163792 ], [ 31.098754393409109, 30.23201235163792 ], [ 31.100436477863518, 30.240562992355063 ], [ 31.11136041059196, 30.240562992355063 ], [ 31.114727955917363, 30.257665117954964 ], [ 31.125653071070428, 30.257665117954964 ], [ 31.12902472818082, 30.274768369861867 ], [ 31.150877325392599, 30.274768369861867 ], [ 31.145817388798672, 30.249113914423102 ], [ 31.156741912610947, 30.249113914423102 ], [ 31.15505614150571, 30.240562992355063 ], [ 31.165980074234149, 30.240562992355063 ], [ 31.16429444481777, 30.23201235163792 ], [ 31.197064470522101, 30.23201235163792 ], [ 31.195377801870208, 30.223461992158818 ], [ 31.217223304532581, 30.223461992158818 ], [ 31.218911154324985, 30.23201235163792 ], [ 31.229834496226431, 30.23201235163792 ], [ 31.236595600815743, 30.266216603063555 ], [ 31.225669894064847, 30.266216603063555 ], [ 31.22736141563383, 30.274768369861867 ], [ 31.249214012845609, 30.274768369861867 ], [ 31.250907453890026, 30.283320418462932 ], [ 31.261834344608172, 30.283320418462932 ], [ 31.266920863208924, 30.308978256213241 ], [ 31.255992194609409, 30.308978256213241 ], [ 31.25768858171012, 30.317531433156173 ], [ 31.246759319968266, 30.317531433156173 ], [ 31.248455850932604, 30.326084892467499 ], [ 31.237525995790623, 30.326084892467499 ], [ 31.240920082364163, 30.343192658648338 ], [ 31.284644253228212, 30.343192658648338 ], [ 31.286344779534797, 30.351746965744479 ], [ 31.297276416424921, 30.351746965744479 ], [ 31.295575295944221, 30.343192658648338 ], [ 31.350230509524291, 30.343192658648338 ], [ 31.351934600875541, 30.351746965744479 ], [ 31.362866237765665, 30.351746965744479 ], [ 31.366277831488663, 30.36885642851496 ], [ 31.399076309527864, 30.36885642851496 ], [ 31.397368358048404, 30.360301555662211 ] ] ] ] } }
]
}
