{
"type": "FeatureCollection",
"name": "ghsl_2324",
"crs": { "type": "name", "properties": { "name": "urn:ogc:def:crs:OGC:1.3:CRS84" } },
"features": [
{ "type": "Feature", "properties": { "city_id": "ghsl_2324", "city_name": "Sydney" }, "geometry": { "type": "MultiPolygon", "coordinates": [ [ [ [ 151.175652029760812, -34.014436029527481 ], [ 151.164443039471735, -34.014436029527481 ], [ 151.154808186822663, -34.005750779448491 ], [ 151.16601646267813, -34.005750779448491 ], [ 151.175652029760812, -34.014436029527481 ] ] ], [ [ [ 150.976780292853761, -33.701976953204174 ], [ 151.010330688474397, -33.701976953204174 ], [ 151.019832135042691, -33.71065056676219 ], [ 151.053384641626792, -33.71065056676219 ], [ 151.06289232636064, -33.719324510562942 ], [ 151.08526207200353, -33.719324510562942 ], [ 151.075752979349545, -33.71065056676219 ], [ 151.086937148210922, -33.71065056676219 ], [ 151.077431479715671, -33.701976953204174 ], [ 151.08861494492254, -33.701976953204174 ], [ 151.079112699311651, -33.693303669758365 ], [ 151.090295461169461, -33.693303669758365 ], [ 151.080796637169414, -33.684630716294315 ], [ 151.1143428136117, -33.684630716294315 ], [ 151.133348805750046, -33.701976953204174 ], [ 151.144532270956915, -33.701976953204174 ], [ 151.154042161379095, -33.71065056676219 ], [ 151.176410499101848, -33.71065056676219 ], [ 151.185925927396482, -33.719324510562942 ], [ 151.197110800217928, -33.719324510562942 ], [ 151.206631065229914, -33.727998784737025 ], [ 151.217816642317132, -33.727998784737025 ], [ 151.227341746547609, -33.736673389415074 ], [ 151.260900591524262, -33.736673389415074 ], [ 151.251373373578872, -33.727998784737025 ], [ 151.284930104840527, -33.727998784737025 ], [ 151.275404909967989, -33.719324510562942 ], [ 151.286589782789406, -33.719324510562942 ], [ 151.277068018854152, -33.71065056676219 ], [ 151.2882521877155, -33.71065056676219 ], [ 151.269219650894797, -33.693303669758365 ], [ 151.291585174610447, -33.693303669758365 ], [ 151.301100783853229, -33.701976953204174 ], [ 151.312284249060099, -33.701976953204174 ], [ 151.321804694299601, -33.71065056676219 ], [ 151.310620525438225, -33.71065056676219 ], [ 151.320144401253742, -33.719324510562942 ], [ 151.308959528432297, -33.719324510562942 ], [ 151.318486836102238, -33.727998784737025 ], [ 151.307301259014992, -33.727998784737025 ], [ 151.326366879914218, -33.745348324727736 ], [ 151.303992906841103, -33.745348324727736 ], [ 151.313530517754458, -33.754023590805787 ], [ 151.302342826034106, -33.754023590805787 ], [ 151.321429065874042, -33.771375115781133 ], [ 151.299050859860159, -33.771375115781133 ], [ 151.30859878555799, -33.78005137494015 ], [ 151.29740897644794, -33.78005137494015 ], [ 151.306960342976538, -33.788727965387949 ], [ 151.295769827456752, -33.788727965387949 ], [ 151.314883595176155, -33.806082140673901 ], [ 151.281307807396161, -33.806082140673901 ], [ 151.290868796808269, -33.814759725774167 ], [ 151.257290887036078, -33.814759725774167 ], [ 151.276421080953298, -33.832115891544923 ], [ 151.287615133127417, -33.832115891544923 ], [ 151.297187171688222, -33.840794472477832 ], [ 151.285992411261162, -33.840794472477832 ], [ 151.305147548112302, -33.858152631095152 ], [ 151.293951370256167, -33.858152631095152 ], [ 151.303534471442077, -33.866832209042293 ], [ 151.292337584409466, -33.866832209042293 ], [ 151.301924139642324, -33.87551211959029 ], [ 151.290726543125174, -33.87551211959029 ], [ 151.300316553701407, -33.884192362870678 ], [ 151.289118247391485, -33.884192362870678 ], [ 151.298711714608572, -33.89287293901495 ], [ 151.287512698197446, -33.89287293901495 ], [ 151.297109623353805, -33.901553848154727 ], [ 151.274710169712023, -33.901553848154727 ], [ 151.284309843388741, -33.910235090421637 ], [ 151.273109405849453, -33.910235090421637 ], [ 151.282712539756602, -33.918916665947371 ], [ 151.271511391190046, -33.918916665947371 ], [ 151.281117986628942, -33.927598574863666 ], [ 151.269916126726173, -33.927598574863666 ], [ 151.279526184999156, -33.936280817302325 ], [ 151.268323613451116, -33.936280817302325 ], [ 151.277937135861521, -33.944963393395192 ], [ 151.266733852358897, -33.944963393395192 ], [ 151.276350840211137, -33.953646303274141 ], [ 151.253942848678008, -33.953646303274141 ], [ 151.27318651335699, -33.971013124918187 ], [ 151.261981092133766, -33.971013124918187 ], [ 151.271608484147748, -33.979697036947321 ], [ 151.260402349731606, -33.979697036947321 ], [ 151.270033212415001, -33.988381283290636 ], [ 151.25882636449586, -33.988381283290636 ], [ 151.268460699158055, -33.997065864080291 ], [ 151.257253137425863, -33.997065864080291 ], [ 151.247619516576748, -33.988381283290636 ], [ 151.236412668657607, -33.988381283290636 ], [ 151.217159407240956, -33.971013124918187 ], [ 151.205953986017732, -33.971013124918187 ], [ 151.196334340663697, -33.96232954707115 ], [ 151.162720215643532, -33.96232954707115 ], [ 151.172337722348118, -33.971013124918187 ], [ 151.161132301124866, -33.971013124918187 ], [ 151.170753274402074, -33.979697036947321 ], [ 151.159547139985847, -33.979697036947321 ], [ 151.169171581142791, -33.988381283290636 ], [ 151.157964733223679, -33.988381283290636 ], [ 151.167592643568469, -33.997065864080291 ], [ 151.145177520104141, -33.997065864080291 ], [ 151.154808186822663, -34.005750779448491 ], [ 151.13239163511173, -34.005750779448491 ], [ 151.14202505889341, -34.014436029527481 ], [ 151.130816068604275, -34.014436029527481 ], [ 151.169388794644902, -34.049180379598234 ], [ 151.158176943514235, -34.049180379598234 ], [ 151.177487034536227, -34.066554566340699 ], [ 151.166273751118752, -34.066554566340699 ], [ 151.17593437640943, -34.075242163102637 ], [ 151.10865037624194, -34.075242163102637 ], [ 151.09899405061384, -34.066554566340699 ], [ 151.087780767196364, -34.066554566340699 ], [ 151.068482134468979, -34.049180379598234 ], [ 151.05727028333834, -34.049180379598234 ], [ 151.047627971428511, -34.040493789352503 ], [ 151.02520570052053, -34.040493789352503 ], [ 150.996308185134467, -34.014436029527481 ], [ 151.007517175423629, -34.014436029527481 ], [ 150.997892324846134, -34.005750779448491 ], [ 151.020308876557067, -34.005750779448491 ], [ 151.010686779318036, -33.997065864080291 ], [ 151.021894341050228, -33.997065864080291 ], [ 151.01227571027502, -33.988381283290636 ], [ 151.023482558194104, -33.988381283290636 ], [ 151.004256403999904, -33.971013124918187 ], [ 150.993050982776737, -33.971013124918187 ], [ 150.98344488220269, -33.96232954707115 ], [ 150.93862604884248, -33.96232954707115 ], [ 150.929026971447541, -33.953646303274141 ], [ 150.906618979914413, -33.953646303274141 ], [ 150.91621663216236, -33.96232954707115 ], [ 150.882602507142195, -33.96232954707115 ], [ 150.873006992614677, -33.953646303274141 ], [ 150.850599001081548, -33.953646303274141 ], [ 150.860193090462104, -33.96232954707115 ], [ 150.848988382122059, -33.96232954707115 ], [ 150.820220751528723, -33.936280817302325 ], [ 150.842625894624831, -33.936280817302325 ], [ 150.833043590518969, -33.927598574863666 ], [ 150.84424545042171, -33.927598574863666 ], [ 150.834666597094781, -33.918916665947371 ], [ 150.857068894227865, -33.918916665947371 ], [ 150.847492779355861, -33.910235090421637 ], [ 150.858693216895148, -33.910235090421637 ], [ 150.839552041751517, -33.89287293901495 ], [ 150.850751058162643, -33.89287293901495 ], [ 150.841185994993566, -33.884192362870678 ], [ 150.863582607613466, -33.884192362870678 ], [ 150.854020278956597, -33.87551211959029 ], [ 150.865217875473746, -33.87551211959029 ], [ 150.855658990138323, -33.866832209042293 ], [ 150.878052764203545, -33.866832209042293 ], [ 150.868496611722207, -33.858152631095152 ], [ 150.879692789578343, -33.858152631095152 ], [ 150.870140078145567, -33.849473385617458 ], [ 150.881335547133261, -33.849473385617458 ], [ 150.871786275460011, -33.840794472477832 ], [ 150.88298103588707, -33.840794472477832 ], [ 150.873435202685272, -33.832115891544923 ], [ 150.9070173592076, -33.832115891544923 ], [ 150.89747354729937, -33.823437642687438 ], [ 150.9086668915281, -33.823437642687438 ], [ 150.899126516132952, -33.814759725774167 ], [ 150.865548606360761, -33.814759725774167 ], [ 150.856014495516206, -33.806082140673901 ], [ 150.833630636996219, -33.806082140673901 ], [ 150.824102079937319, -33.797404887255531 ], [ 150.801719635464536, -33.797404887255531 ], [ 150.811246778476232, -33.806082140673901 ], [ 150.800054849216224, -33.806082140673901 ], [ 150.809585423407128, -33.814759725774167 ], [ 150.798392786816407, -33.814759725774167 ], [ 150.807926793469676, -33.823437642687438 ], [ 150.785540105012245, -33.823437642687438 ], [ 150.766479061436229, -33.806082140673901 ], [ 150.777670990696237, -33.806082140673901 ], [ 150.768145968755334, -33.797404887255531 ], [ 150.779337190991725, -33.797404887255531 ], [ 150.76981559802698, -33.788727965387949 ], [ 150.781006113546766, -33.788727965387949 ], [ 150.761973915526994, -33.771375115781133 ], [ 150.77316301853395, -33.771375115781133 ], [ 150.763652410613929, -33.762699187779972 ], [ 150.774840807824347, -33.762699187779972 ], [ 150.755830566550145, -33.745348324727736 ], [ 150.767017553086703, -33.745348324727736 ], [ 150.75751791687415, -33.736673389415074 ], [ 150.79107676185086, -33.736673389415074 ], [ 150.781579135915024, -33.727998784737025 ], [ 150.792764713002242, -33.727998784737025 ], [ 150.783270505824646, -33.719324510562942 ], [ 150.816825124288982, -33.719324510562942 ], [ 150.826321444263954, -33.727998784737025 ], [ 150.882249329700102, -33.727998784737025 ], [ 150.872749488396153, -33.719324510562942 ], [ 150.883934361217598, -33.719324510562942 ], [ 150.87443793984491, -33.71065056676219 ], [ 150.896806277567634, -33.71065056676219 ], [ 150.88731257119872, -33.701976953204174 ], [ 150.909679501612487, -33.701976953204174 ], [ 150.900188509586343, -33.693303669758365 ], [ 150.911371271444182, -33.693303669758365 ], [ 150.901883696144012, -33.684630716294315 ], [ 150.913065754958097, -33.684630716294315 ], [ 150.90358159511365, -33.675958092681547 ], [ 150.925944307264672, -33.675958092681547 ], [ 150.91646285917318, -33.66728579878972 ], [ 150.927643512815109, -33.66728579878972 ], [ 150.95610231887548, -33.693303669758365 ], [ 150.967285080733319, -33.693303669758365 ], [ 150.976780292853761, -33.701976953204174 ] ], [ [ 151.237970480975378, -33.858152631095152 ], [ 151.24916665883157, -33.858152631095152 ], [ 151.239590554739436, -33.849473385617458 ], [ 151.228395085751742, -33.849473385617458 ], [ 151.237970480975378, -33.858152631095152 ] ] ] ] } }
]
}
