{
"type": "FeatureCollection",
"name": "ghsl_2869",
"crs": { "type": "name", "properties": { "name": "urn:ogc:def:crs:OGC:1.3:CRS84" } },
"features": [
{ "type": "Feature", "properties": { "city_id": "ghsl_2869", "city_name": "Toronto" }, "geometry": { "type": "MultiPolygon", "coordinates": [ [ [ [ -79.421695049110838, 44.005408895690223 ], [ -79.446192795887228, 44.005408895690223 ], [ -79.438495406243533, 43.996249760805149 ], [ -79.450743092861828, 43.996249760805149 ], [ -79.443048224655428, 43.987091152311422 ], [ -79.455294725075433, 43.987091152311422 ], [ -79.447602377084067, 43.977933069986825 ], [ -79.459847691877073, 43.977933069986825 ], [ -79.444471736141438, 43.95961848295719 ], [ -79.432228790890051, 43.95961848295719 ], [ -79.424547547967435, 43.950461977808416 ], [ -79.436789309303435, 43.950461977808416 ], [ -79.429110580008555, 43.941305997941441 ], [ -79.441351157998994, 43.941305997941441 ], [ -79.433674941116237, 43.932150543134725 ], [ -79.445914336330574, 43.932150543134725 ], [ -79.422904291794467, 43.904687326862408 ], [ -79.410668441495332, 43.904687326862408 ], [ -79.40300698413553, 43.895533970083648 ], [ -79.378537644541026, 43.895533970083648 ], [ -79.386196740897034, 43.904687326862408 ], [ -79.373960890597871, 43.904687326862408 ], [ -79.366302974743775, 43.895533970083648 ], [ -79.354068304946523, 43.895533970083648 ], [ -79.346415251338527, 43.886381137259242 ], [ -79.321948271612555, 43.886381137259242 ], [ -79.329598965352034, 43.895533970083648 ], [ -79.317364295554782, 43.895533970083648 ], [ -79.325017489401262, 43.904687326862408 ], [ -79.263838237905503, 43.904687326862408 ], [ -79.271489208785354, 43.913841207816439 ], [ -79.247015146047232, 43.913841207816439 ], [ -79.239366537307205, 43.904687326862408 ], [ -79.227130687008056, 43.904687326862408 ], [ -79.211846862845661, 43.886381137259242 ], [ -79.224080352708654, 43.886381137259242 ], [ -79.216442772174062, 43.877228828168377 ], [ -79.228675082670065, 43.877228828168377 ], [ -79.213408576422907, 43.858925780304531 ], [ -79.225638529885373, 43.858925780304531 ], [ -79.21800960120882, 43.84977504109051 ], [ -79.230238377003985, 43.84977504109051 ], [ -79.207370045280797, 43.822325959676483 ], [ -79.195144799093853, 43.822325959676483 ], [ -79.187530518611865, 43.813177310547481 ], [ -79.163082377050074, 43.813177310547481 ], [ -79.155474102494026, 43.804029183389751 ], [ -79.14325120655478, 43.804029183389751 ], [ -79.135647759072796, 43.794881577983588 ], [ -79.123426037411164, 43.794881577983588 ], [ -79.108232436751848, 43.776587931547603 ], [ -79.132671186346144, 43.776587931547603 ], [ -79.125077509093572, 43.767441890078892 ], [ -79.137295711303139, 43.767441890078892 ], [ -79.129704505574281, 43.758296369483965 ], [ -79.166355596128042, 43.758296369483965 ], [ -79.158764517815527, 43.749151369543682 ], [ -79.183196235259302, 43.749151369543682 ], [ -79.175606456330627, 43.74000689003902 ], [ -79.187821144151712, 43.74000689003902 ], [ -79.180233834888668, 43.730862930751101 ], [ -79.204660869852376, 43.730862930751101 ], [ -79.197074859297075, 43.721719491461087 ], [ -79.221499554704735, 43.721719491461087 ], [ -79.213914842800136, 43.712576571950329 ], [ -79.226126021286774, 43.712576571950329 ], [ -79.218543776632529, 43.703434172000293 ], [ -79.230753786462486, 43.703434172000293 ], [ -79.223174007881312, 43.694292291392529 ], [ -79.247591691348063, 43.694292291392529 ], [ -79.240013210126946, 43.685150929908723 ], [ -79.264428558520152, 43.685150929908723 ], [ -79.256851374602846, 43.676010087330674 ], [ -79.269057881822093, 43.676010087330674 ], [ -79.261483161570567, 43.666869763440332 ], [ -79.285893843172531, 43.666869763440332 ], [ -79.278320419553552, 43.657729958019686 ], [ -79.327137119319289, 43.657729958019686 ], [ -79.319562661674638, 43.64859067085095 ], [ -79.331765671314884, 43.64859067085095 ], [ -79.324193676050228, 43.639451901716363 ], [ -79.348597365844427, 43.639451901716363 ], [ -79.341026667602378, 43.630313650398314 ], [ -79.353227348313993, 43.630313650398314 ], [ -79.345659110666588, 43.621175916679327 ], [ -79.370058144833465, 43.621175916679327 ], [ -79.362491203539392, 43.612038700342033 ], [ -79.399086265576059, 43.612038700342033 ], [ -79.406656696083758, 43.621175916679327 ], [ -79.418856213167203, 43.621175916679327 ], [ -79.426431432583641, 43.630313650398314 ], [ -79.463033474718486, 43.630313650398314 ], [ -79.455454764417524, 43.621175916679327 ], [ -79.467654281500941, 43.621175916679327 ], [ -79.460078035637181, 43.612038700342033 ], [ -79.48447474366165, 43.612038700342033 ], [ -79.476899798548303, 43.602902001169163 ], [ -79.489096990045923, 43.602902001169163 ], [ -79.481524507582776, 43.593765818943595 ], [ -79.505916566661355, 43.593765818943595 ], [ -79.498345384275609, 43.584630153448309 ], [ -79.547124856823103, 43.584630153448309 ], [ -79.531984070357197, 43.566360371781002 ], [ -79.544176617355575, 43.566360371781002 ], [ -79.536610494589667, 43.557226255175586 ], [ -79.573184656374409, 43.557226255175586 ], [ -79.565618673716415, 43.548092654433482 ], [ -79.577808901795748, 43.548092654433482 ], [ -79.570245377552467, 43.538959569338324 ], [ -79.594623516454917, 43.538959569338324 ], [ -79.587061291386377, 43.529826999673766 ], [ -79.599249202763318, 43.529826999673766 ], [ -79.584133278343344, 43.511563405771732 ], [ -79.596318875231759, 43.511563405771732 ], [ -79.588765173000752, 43.50243238110221 ], [ -79.60094961347427, 43.50243238110221 ], [ -79.593398363839967, 43.493301870999176 ], [ -79.605581648450993, 43.493301870999176 ], [ -79.598032850253006, 43.484171875246851 ], [ -79.622397108854244, 43.484171875246851 ], [ -79.614849606174516, 43.475042393629685 ], [ -79.627030580716479, 43.475042393629685 ], [ -79.619485527706772, 43.465913425932101 ], [ -79.643845168376089, 43.465913425932101 ], [ -79.636301410222586, 43.456784971938738 ], [ -79.648480076901023, 43.456784971938738 ], [ -79.640938766654116, 43.447657031434325 ], [ -79.65311628022701, 43.447657031434325 ], [ -79.645577416730887, 43.438529604203687 ], [ -79.669930138766276, 43.438529604203687 ], [ -79.66239256886098, 43.429402690031779 ], [ -79.674567777873477, 43.429402690031779 ], [ -79.667032652960131, 43.42027628870369 ], [ -79.679206710517121, 43.42027628870369 ], [ -79.671674029442698, 43.411150400004558 ], [ -79.683846936093488, 43.411150400004558 ], [ -79.676316697706042, 43.402025023719752 ], [ -79.688488453999625, 43.402025023719752 ], [ -79.680960657148233, 43.39290015963465 ], [ -79.717472476603149, 43.39290015963465 ], [ -79.732538562696661, 43.411150400004558 ], [ -79.74471146934745, 43.411150400004558 ], [ -79.752251055859091, 43.42027628870369 ], [ -79.776599170973071, 43.42027628870369 ], [ -79.784144658986079, 43.429402690031779 ], [ -79.771969449973582, 43.429402690031779 ], [ -79.779517387925509, 43.438529604203687 ], [ -79.767341026907815, 43.438529604203687 ], [ -79.774891415955835, 43.447657031434325 ], [ -79.762713902382941, 43.447657031434325 ], [ -79.770266743685255, 43.456784971938738 ], [ -79.758088077006832, 43.456784971938738 ], [ -79.765643371722732, 43.465913425932101 ], [ -79.753463551388094, 43.465913425932101 ], [ -79.761021300677911, 43.475042393629685 ], [ -79.736659351594014, 43.475042393629685 ], [ -79.744218401860451, 43.484171875246851 ], [ -79.719854143259198, 43.484171875246851 ], [ -79.727414494561273, 43.493301870999176 ], [ -79.715231209950247, 43.493301870999176 ], [ -79.722794018209427, 43.50243238110221 ], [ -79.710609577735909, 43.50243238110221 ], [ -79.718174844116092, 43.511563405771732 ], [ -79.705989247227649, 43.511563405771732 ], [ -79.721128316532656, 43.529826999673766 ], [ -79.733316227909597, 43.529826999673766 ], [ -79.748472094906219, 43.548092654433482 ], [ -79.760662322985539, 43.548092654433482 ], [ -79.783426798563085, 43.575495004466354 ], [ -79.79562050585308, 43.575495004466354 ], [ -79.803217087697419, 43.584630153448309 ], [ -79.79102221956056, 43.584630153448309 ], [ -79.798621275604447, 43.593765818943595 ], [ -79.786425246065136, 43.593765818943595 ], [ -79.801631947979516, 43.612038700342033 ], [ -79.789433593967289, 43.612038700342033 ], [ -79.781829585989016, 43.602902001169163 ], [ -79.757435202993747, 43.602902001169163 ], [ -79.76503688594282, 43.612038700342033 ], [ -79.752838531930593, 43.612038700342033 ], [ -79.768050492508735, 43.630313650398314 ], [ -79.755849811797148, 43.630313650398314 ], [ -79.77107401836416, 43.64859067085095 ], [ -79.783277028004406, 43.64859067085095 ], [ -79.790895767093758, 43.657729958019686 ], [ -79.815304116976634, 43.657729958019686 ], [ -79.838189245760319, 43.685150929908723 ], [ -79.850396919956921, 43.685150929908723 ], [ -79.865674297619208, 43.703434172000293 ], [ -79.841254277959322, 43.703434172000293 ], [ -79.848896124105153, 43.712576571950329 ], [ -79.836684945618515, 43.712576571950329 ], [ -79.844329287599734, 43.721719491461087 ], [ -79.83211693989594, 43.721719491461087 ], [ -79.839763778909031, 43.730862930751101 ], [ -79.827550261427177, 43.730862930751101 ], [ -79.842852606241095, 43.749151369543682 ], [ -79.781773312631685, 43.749151369543682 ], [ -79.789424135542021, 43.758296369483965 ], [ -79.764990075172847, 43.758296369483965 ], [ -79.772642226200105, 43.767441890078892 ], [ -79.760424023990552, 43.767441890078892 ], [ -79.768078675797966, 43.776587931547603 ], [ -79.755859301000811, 43.776587931547603 ], [ -79.763516454790036, 43.785734494109377 ], [ -79.751295906842316, 43.785734494109377 ], [ -79.758955563816073, 43.794881577983588 ], [ -79.734512120492809, 43.794881577983588 ], [ -79.72685481094689, 43.785734494109377 ], [ -79.6901931671037, 43.785734494109377 ], [ -79.697846955507913, 43.794881577983588 ], [ -79.661181790523017, 43.794881577983588 ], [ -79.65353152326054, 43.785734494109377 ], [ -79.629090427365085, 43.785734494109377 ], [ -79.636738347199753, 43.794881577983588 ], [ -79.624516625538121, 43.794881577983588 ], [ -79.63216704412423, 43.804029183389751 ], [ -79.619944148184999, 43.804029183389751 ], [ -79.635253661824208, 43.822325959676483 ], [ -79.623028415637279, 43.822325959676483 ], [ -79.630687513661243, 43.831475130996658 ], [ -79.581781825030092, 43.831475130996658 ], [ -79.589439897574891, 43.840624824727968 ], [ -79.57721229888115, 43.840624824727968 ], [ -79.584872875064363, 43.84977504109051 ], [ -79.560415323474004, 43.84977504109051 ], [ -79.568077226834546, 43.858925780304531 ], [ -79.555847273372081, 43.858925780304531 ], [ -79.563511682218305, 43.868077042590322 ], [ -79.526818287130411, 43.868077042590322 ], [ -79.534482845070357, 43.877228828168377 ], [ -79.522250534574354, 43.877228828168377 ], [ -79.514587155434484, 43.868077042590322 ], [ -79.490124892042545, 43.868077042590322 ], [ -79.497785913582319, 43.877228828168377 ], [ -79.485553603086316, 43.877228828168377 ], [ -79.493217129694372, 43.886381137259242 ], [ -79.4687501499684, 43.886381137259242 ], [ -79.476415002918984, 43.895533970083648 ], [ -79.46418033312176, 43.895533970083648 ], [ -79.487193482674897, 43.922995613166812 ], [ -79.474955269667561, 43.922995613166812 ], [ -79.490313469960782, 43.941305997941441 ], [ -79.478072891970328, 43.941305997941441 ], [ -79.4934435171469, 43.95961848295719 ], [ -79.481200571895528, 43.95961848295719 ], [ -79.496583636256119, 43.977933069986825 ], [ -79.484338321463099, 43.977933069986825 ], [ -79.499733839334993, 43.996249760805149 ], [ -79.487486152716713, 43.996249760805149 ], [ -79.502894138454039, 44.014568557188873 ], [ -79.453893895533554, 44.014568557188873 ], [ -79.461598707551772, 44.023728745523513 ], [ -79.437096210262979, 44.023728745523513 ], [ -79.421695049110838, 44.005408895690223 ] ] ] ] } }
]
}
