{
"type": "FeatureCollection",
"name": "ghsl_2323",
"crs": { "type": "name", "properties": { "name": "urn:ogc:def:crs:OGC:1.3:CRS84" } },
"features": [
{ "type": "Feature", "properties": { "city_id": "ghsl_2323", "city_name": "Manila" }, "geometry": { "type": "MultiPolygon", "coordinates": [ [ [ [ 120.688959622407197, 14.930020699295367 ], [ 120.69915122514513, 14.930020699295367 ], [ 120.696307313044741, 14.921826125544344 ], [ 120.716690038251699, 14.921826125544344 ], [ 120.713847394736192, 14.913631671089529 ], [ 120.734229639969556, 14.913631671089529 ], [ 120.737072763458656, 14.921826125544344 ], [ 120.757455488665641, 14.921826125544344 ], [ 120.760300841572615, 14.930020699295367 ], [ 120.790875649786372, 14.930020699295367 ], [ 120.79372347333603, 14.938215392414254 ], [ 120.80391531635604, 14.938215392414254 ], [ 120.801067252524305, 14.930020699295367 ], [ 120.811258855262196, 14.930020699295367 ], [ 120.808412301683035, 14.921826125544344 ], [ 120.82879502689002, 14.921826125544344 ], [ 120.825949743519828, 14.913631671089529 ], [ 120.856523111369896, 14.913631671089529 ], [ 120.859369114700456, 14.921826125544344 ], [ 120.869560477303935, 14.921826125544344 ], [ 120.886674721987049, 14.970995360001565 ], [ 120.876481916361257, 14.970995360001565 ], [ 120.879340183545764, 14.979190651034761 ], [ 120.93030541677939, 14.979190651034761 ], [ 120.927445944490245, 14.970995360001565 ], [ 120.958024361367663, 14.970995360001565 ], [ 120.955165920237164, 14.96280018869461 ], [ 120.975551049742549, 14.96280018869461 ], [ 120.972693881028931, 14.954605137042202 ], [ 120.982886205056303, 14.954605137042202 ], [ 120.98003054957455, 14.946410204972638 ], [ 120.990222633024388, 14.946410204972638 ], [ 120.987368490716491, 14.938215392414254 ], [ 120.966984804676457, 14.938215392414254 ], [ 120.964132896330952, 14.930020699295367 ], [ 120.953941293593047, 14.930020699295367 ], [ 120.94824321492014, 14.913631671089529 ], [ 120.927860969686748, 14.913631671089529 ], [ 120.925015038050546, 14.905437335859286 ], [ 120.914824155273024, 14.905437335859286 ], [ 120.903458895591569, 14.872661185751895 ], [ 120.91364882048795, 14.872661185751895 ], [ 120.910811641585823, 14.864467445570481 ], [ 120.931191013175521, 14.864467445570481 ], [ 120.934028670280739, 14.872661185751895 ], [ 120.944218595177119, 14.872661185751895 ], [ 120.947058241670561, 14.880855044799899 ], [ 120.957248405815946, 14.880855044799899 ], [ 120.960090042343623, 14.889049022786077 ], [ 120.980470849427434, 14.889049022786077 ], [ 120.983314716179848, 14.897243119782008 ], [ 120.993505359265782, 14.897243119782008 ], [ 120.990661252969332, 14.889049022786077 ], [ 121.00085165651123, 14.889049022786077 ], [ 120.998009062397514, 14.880855044799899 ], [ 121.028579554833698, 14.880855044799899 ], [ 121.025737994348177, 14.872661185751895 ], [ 121.035927919244557, 14.872661185751895 ], [ 121.033087871123925, 14.864467445570481 ], [ 121.053467242713623, 14.864467445570481 ], [ 121.056307769037332, 14.872661185751895 ], [ 121.066497693933712, 14.872661185751895 ], [ 121.072184481304518, 14.889049022786077 ], [ 121.06199407776262, 14.889049022786077 ], [ 121.067687396935838, 14.905437335859286 ], [ 121.088069162490868, 14.905437335859286 ], [ 121.079530375560665, 14.880855044799899 ], [ 121.08972053970605, 14.880855044799899 ], [ 121.086877543726473, 14.872661185751895 ], [ 121.097067468622882, 14.872661185751895 ], [ 121.09422598589299, 14.864467445570481 ], [ 121.104415671687804, 14.864467445570481 ], [ 121.10157570215118, 14.856273824184104 ], [ 121.111765148991921, 14.856273824184104 ], [ 121.108926692592377, 14.848080321521204 ], [ 121.129305108660446, 14.848080321521204 ], [ 121.123632496389234, 14.831693672079718 ], [ 121.133821227252, 14.831693672079718 ], [ 121.12532472832423, 14.807114586555523 ], [ 121.115136712113596, 14.807114586555523 ], [ 121.109481607935763, 14.790729121130669 ], [ 121.099294067423671, 14.790729121130669 ], [ 121.09364643670061, 14.774344128311808 ], [ 121.10383350210283, 14.774344128311808 ], [ 121.098192391825378, 14.757959607527422 ], [ 121.108378982706256, 14.757959607527422 ], [ 121.105560812990163, 14.7497675239696 ], [ 121.095374459149383, 14.7497675239696 ], [ 121.092558274318066, 14.74157555820616 ], [ 121.082372157370372, 14.74157555820616 ], [ 121.073934796268034, 14.717000366968279 ], [ 121.094305610568739, 14.717000366968279 ], [ 121.099929717185589, 14.733383710165715 ], [ 121.110115597387221, 14.733383710165715 ], [ 121.124207632907371, 14.774344128311808 ], [ 121.13439469830962, 14.774344128311808 ], [ 121.13157255689795, 14.766151808951019 ], [ 121.151946213034023, 14.766151808951019 ], [ 121.154768829114161, 14.774344128311808 ], [ 121.164955894516424, 14.774344128311808 ], [ 121.167780497702296, 14.782536565681209 ], [ 121.188155103469526, 14.782536565681209 ], [ 121.176865289875593, 14.7497675239696 ], [ 121.166678936034813, 14.7497675239696 ], [ 121.146990741352013, 14.692426233310481 ], [ 121.157175440027217, 14.692426233310481 ], [ 121.154369593474954, 14.684235090109436 ], [ 121.164554056285453, 14.684235090109436 ], [ 121.150549833183419, 14.643281131032198 ], [ 121.160733118871704, 14.643281131032198 ], [ 121.157937274647011, 14.635090690103423 ], [ 121.178303376054743, 14.635090690103423 ], [ 121.175508806623526, 14.626900365970616 ], [ 121.206057254221832, 14.626900365970616 ], [ 121.200471940562053, 14.610520067808006 ], [ 121.210654287192341, 14.610520067808006 ], [ 121.205075481562503, 14.594140235974653 ], [ 121.215257359543145, 14.594140235974653 ], [ 121.209685060367349, 14.57776086990105 ], [ 121.219866470284245, 14.57776086990105 ], [ 121.217082701690344, 14.569571361346226 ], [ 121.237445053899606, 14.569571361346226 ], [ 121.226325537467019, 14.536814488680074 ], [ 121.185604568190072, 14.536814488680074 ], [ 121.182829976804229, 14.528625560546203 ], [ 121.17264996756559, 14.528625560546203 ], [ 121.167106472850577, 14.512248051819983 ], [ 121.14674738581823, 14.512248051819983 ], [ 121.143978714010586, 14.504059471085469 ], [ 121.133799403136379, 14.504059471085469 ], [ 121.139338021092925, 14.520436748283203 ], [ 121.129158244788641, 14.520436748283203 ], [ 121.131929930611008, 14.528625560546203 ], [ 121.111569912133717, 14.528625560546203 ], [ 121.108798692180073, 14.520436748283203 ], [ 121.088439139571477, 14.520436748283203 ], [ 121.085670124721275, 14.512248051819983 ], [ 121.095849668237435, 14.512248051819983 ], [ 121.093082159639522, 14.504059471085469 ], [ 121.072723537891093, 14.504059471085469 ], [ 121.06443283703581, 14.479494422543638 ], [ 121.074611450861013, 14.479494422543638 ], [ 121.071851127081544, 14.471306304013464 ], [ 121.061672745313828, 14.471306304013464 ], [ 121.053402891087828, 14.446742640380048 ], [ 121.06358057755925, 14.446742640380048 ], [ 121.052577483126981, 14.413992700785279 ], [ 121.062754244579949, 14.413992700785279 ], [ 121.054519448395851, 14.38943145254313 ], [ 121.064695517616457, 14.38943145254313 ], [ 121.061953823476287, 14.381244599218237 ], [ 121.072129662244336, 14.381244599218237 ], [ 121.066651014474317, 14.3648712362768 ], [ 121.097177149374573, 14.3648712362768 ], [ 121.091704054928627, 14.34849833114068 ], [ 121.10187897334346, 14.34849833114068 ], [ 121.099144796079699, 14.34031205007247 ], [ 121.119494173460993, 14.34031205007247 ], [ 121.116761269860618, 14.332125883243039 ], [ 121.126935728972668, 14.332125883243039 ], [ 121.124204328715805, 14.323939830581557 ], [ 121.134378558394829, 14.323939830581557 ], [ 121.12892049687818, 14.307568067479192 ], [ 121.139094268127735, 14.307568067479192 ], [ 121.13636760663519, 14.299382356896714 ], [ 121.14654114888819, 14.299382356896714 ], [ 121.143815990419128, 14.291196760198988 ], [ 121.153989303821078, 14.291196760198988 ], [ 121.15126564833227, 14.283011277315246 ], [ 121.161438733028575, 14.283011277315246 ], [ 121.158716580476991, 14.274825908174725 ], [ 121.168889436613043, 14.274825908174725 ], [ 121.166168786955822, 14.26664065270667 ], [ 121.176341414676983, 14.26664065270667 ], [ 121.170904851999239, 14.250270482505037 ], [ 121.181077023326623, 14.250270482505037 ], [ 121.178361110075926, 14.242085567630006 ], [ 121.188533053424351, 14.242085567630006 ], [ 121.185818642752977, 14.233900766144561 ], [ 121.195990358267721, 14.233900766144561 ], [ 121.185149104636125, 14.201162692684845 ], [ 121.195319910268097, 14.201162692684845 ], [ 121.189909204969467, 14.184794334454919 ], [ 121.20007955653081, 14.184794334454919 ], [ 121.202784271714208, 14.192978457087095 ], [ 121.212954850238319, 14.192978457087095 ], [ 121.210249908092166, 14.184794334454919 ], [ 121.220420259653508, 14.184794334454919 ], [ 121.223125428762415, 14.192978457087095 ], [ 121.233296007286526, 14.192978457087095 ], [ 121.236003132795858, 14.201162692684845 ], [ 121.25634474405976, 14.201162692684845 ], [ 121.25363716433472, 14.192978457087095 ], [ 121.273978321382927, 14.192978457087095 ], [ 121.276686355323648, 14.201162692684845 ], [ 121.297027966587521, 14.201162692684845 ], [ 121.294319478431134, 14.192978457087095 ], [ 121.304490056955245, 14.192978457087095 ], [ 121.301783072144261, 14.184794334454919 ], [ 121.322123775266931, 14.184794334454919 ], [ 121.324831214003424, 14.192978457087095 ], [ 121.335001792527521, 14.192978457087095 ], [ 121.340422316923323, 14.209347041318805 ], [ 121.330251284038397, 14.209347041318805 ], [ 121.332963916000409, 14.217531503059639 ], [ 121.353306436566427, 14.217531503059639 ], [ 121.350593349808207, 14.209347041318805 ], [ 121.36076438269312, 14.209347041318805 ], [ 121.352634829950972, 14.184794334454919 ], [ 121.3628051815123, 14.184794334454919 ], [ 121.354690526378675, 14.160242643645606 ], [ 121.334351183292043, 14.160242643645606 ], [ 121.331650211452484, 14.15205897216954 ], [ 121.32148076629187, 14.15205897216954 ], [ 121.316084462749757, 14.135691966984451 ], [ 121.305915469919697, 14.135691966984451 ], [ 121.303220137122253, 14.12750863313428 ], [ 121.293051370240136, 14.12750863313428 ], [ 121.290357991345076, 14.119325411684953 ], [ 121.280189450265979, 14.119325411684953 ], [ 121.288274093300259, 14.143875413306015 ], [ 121.298443312223156, 14.143875413306015 ], [ 121.303842168662101, 14.160242643645606 ], [ 121.293672497118791, 14.160242643645606 ], [ 121.29637429255699, 14.168426427804786 ], [ 121.286204394485992, 14.168426427804786 ], [ 121.288907692711547, 14.176610324717689 ], [ 121.268567443224256, 14.176610324717689 ], [ 121.265864598344038, 14.168426427804786 ], [ 121.245524802202098, 14.168426427804786 ], [ 121.242824139402217, 14.160242643645606 ], [ 121.232654467858879, 14.160242643645606 ], [ 121.2353549041311, 14.168426427804786 ], [ 121.174335515705252, 14.168426427804786 ], [ 121.177036320531442, 14.176610324717689 ], [ 121.16686619578779, 14.176610324717689 ], [ 121.169568501846783, 14.184794334454919 ], [ 121.149227798724084, 14.184794334454919 ], [ 121.1465259463005, 14.176610324717689 ], [ 121.136355821556847, 14.176610324717689 ], [ 121.133655923421301, 14.168426427804786 ], [ 121.113316127279361, 14.168426427804786 ], [ 121.116015572069571, 14.176610324717689 ], [ 121.095675322582281, 14.176610324717689 ], [ 121.098376040917373, 14.184794334454919 ], [ 121.088205689356016, 14.184794334454919 ], [ 121.090907907949102, 14.192978457087095 ], [ 121.080737329424991, 14.192978457087095 ], [ 121.083441048316658, 14.201162692684845 ], [ 121.052928631420841, 14.201162692684845 ], [ 121.055633396145964, 14.209347041318805 ], [ 121.065804429030877, 14.209347041318805 ], [ 121.068511148642216, 14.217531503059639 ], [ 121.078682408925218, 14.217531503059639 ], [ 121.081391084044554, 14.225716077977999 ], [ 121.091562571870824, 14.225716077977999 ], [ 121.0969855632883, 14.242085567630006 ], [ 121.086813619939875, 14.242085567630006 ], [ 121.089527481380046, 14.250270482505037 ], [ 121.069183138725208, 14.250270482505037 ], [ 121.066469733242968, 14.242085567630006 ], [ 121.056297789894515, 14.242085567630006 ], [ 121.053586341061191, 14.233900766144561 ], [ 121.023071194516959, 14.233900766144561 ], [ 121.025781959849184, 14.242085567630006 ], [ 121.035953903197608, 14.242085567630006 ], [ 121.038666624743016, 14.250270482505037 ], [ 121.048838796070413, 14.250270482505037 ], [ 121.054269882022865, 14.26664065270667 ], [ 121.044097254301676, 14.26664065270667 ], [ 121.046815162980323, 14.274825908174725 ], [ 121.026469450708191, 14.274825908174725 ], [ 121.023751998859325, 14.26664065270667 ], [ 121.01357937113815, 14.26664065270667 ], [ 121.005438073152277, 14.242085567630006 ], [ 120.995266129803824, 14.242085567630006 ], [ 120.989847693608027, 14.225716077977999 ], [ 121.000019181434311, 14.225716077977999 ], [ 120.997312326661174, 14.217531503059639 ], [ 120.976969806095155, 14.217531503059639 ], [ 120.974265133066694, 14.209347041318805 ], [ 120.964094100181811, 14.209347041318805 ], [ 120.966798545812154, 14.217531503059639 ], [ 120.956627285529137, 14.217531503059639 ], [ 120.967461425451219, 14.250270482505037 ], [ 120.957289254123822, 14.250270482505037 ], [ 120.960001879387093, 14.258455510840353 ], [ 120.94982947993546, 14.258455510840353 ], [ 120.952543604811083, 14.26664065270667 ], [ 120.932198349368718, 14.26664065270667 ], [ 120.934913745483669, 14.274825908174725 ], [ 120.904395177075486, 14.274825908174725 ], [ 120.901680466205178, 14.26664065270667 ], [ 120.891507838484003, 14.26664065270667 ], [ 120.886084054831997, 14.250270482505037 ], [ 120.896256226159409, 14.250270482505037 ], [ 120.893546696319333, 14.242085567630006 ], [ 120.863030866273974, 14.242085567630006 ], [ 120.865739712177188, 14.250270482505037 ], [ 120.855567540849805, 14.250270482505037 ], [ 120.858277884870759, 14.258455510840353 ], [ 120.84810548541914, 14.258455510840353 ], [ 120.850817327599287, 14.26664065270667 ], [ 120.840644699878126, 14.26664065270667 ], [ 120.856950650866565, 14.315753892017206 ], [ 120.846776650475022, 14.315753892017206 ], [ 120.849500127382299, 14.323939830581557 ], [ 120.839325897703276, 14.323939830581557 ], [ 120.84477757881352, 14.34031205007247 ], [ 120.834602890122881, 14.34031205007247 ], [ 120.837331094557783, 14.34849833114068 ], [ 120.796631420898478, 14.34849833114068 ], [ 120.793904135360293, 14.34031205007247 ], [ 120.783729446669653, 14.34031205007247 ], [ 120.778280519629163, 14.323939830581557 ], [ 120.788454749308187, 14.323939830581557 ], [ 120.777576707948924, 14.291196760198988 ], [ 120.767403394546974, 14.291196760198988 ], [ 120.770120085526685, 14.299382356896714 ], [ 120.759946543273657, 14.299382356896714 ], [ 120.762664731895185, 14.307568067479192 ], [ 120.72196964689708, 14.307568067479192 ], [ 120.727409371234089, 14.323939830581557 ], [ 120.747757830592121, 14.323939830581557 ], [ 120.750480741826763, 14.332125883243039 ], [ 120.760655200938828, 14.332125883243039 ], [ 120.76338006928836, 14.34031205007247 ], [ 120.773554757978985, 14.34031205007247 ], [ 120.781740422071778, 14.3648712362768 ], [ 120.791915800371882, 14.3648712362768 ], [ 120.794648043115956, 14.373057860486421 ], [ 120.804823651577166, 14.373057860486421 ], [ 120.807557854275061, 14.381244599218237 ], [ 120.81773369304311, 14.381244599218237 ], [ 120.823207750210301, 14.397618420531996 ], [ 120.833384050029252, 14.397618420531996 ], [ 120.841608811386024, 14.422180013191532 ], [ 120.851785803874762, 14.422180013191532 ], [ 120.854531085929565, 14.430367440545446 ], [ 120.864708309599948, 14.430367440545446 ], [ 120.886734822173182, 14.495871006008603 ], [ 120.907092978930038, 14.495871006008603 ], [ 120.904333129686037, 14.487682656518338 ], [ 120.924690821743582, 14.487682656518338 ], [ 120.919175400565706, 14.471306304013464 ], [ 120.929353782333422, 14.471306304013464 ], [ 120.926598442509444, 14.463118300856811 ], [ 120.936776592365717, 14.463118300856811 ], [ 120.939532164101138, 14.471306304013464 ], [ 120.959888927636584, 14.471306304013464 ], [ 120.962646698783729, 14.479494422543638 ], [ 120.972825312608947, 14.479494422543638 ], [ 120.981109740023186, 14.504059471085469 ], [ 120.97093042914895, 14.504059471085469 ], [ 120.979229792031362, 14.528625560546203 ], [ 120.969049782792709, 14.528625560546203 ], [ 120.97736408769785, 14.55319269284478 ], [ 120.967183378778586, 14.55319269284478 ], [ 120.975512632279305, 14.57776086990105 ], [ 120.955149812445555, 14.57776086990105 ], [ 120.957929241350527, 14.585950494753469 ], [ 120.947747597474986, 14.585950494753469 ], [ 120.950528532046448, 14.594140235974653 ], [ 120.940346654065806, 14.594140235974653 ], [ 120.945913274804326, 14.610520067808006 ], [ 120.956095621434628, 14.610520067808006 ], [ 120.958881776936906, 14.61871015856255 ], [ 120.948699195761975, 14.61871015856255 ], [ 120.95148685756925, 14.626900365970616 ], [ 120.93112122583706, 14.626900365970616 ], [ 120.933910159161854, 14.635090690103423 ], [ 120.944093209865727, 14.635090690103423 ], [ 120.9468841194183, 14.643281131032198 ], [ 120.936700833730058, 14.643281131032198 ], [ 120.942287407972287, 14.659662363562628 ], [ 120.932103651875295, 14.659662363562628 ], [ 120.934899316813357, 14.667853155306799 ], [ 120.924715325291942, 14.667853155306799 ], [ 120.927512497132369, 14.676044064131972 ], [ 120.917328270039803, 14.676044064131972 ], [ 120.920126948833911, 14.684235090109436 ], [ 120.930311411644396, 14.684235090109436 ], [ 120.933112069173092, 14.692426233310481 ], [ 120.922927370497916, 14.692426233310481 ], [ 120.925729535377016, 14.700617493806424 ], [ 120.915544600690296, 14.700617493806424 ], [ 120.918348272971713, 14.70880887166858 ], [ 120.897977931281531, 14.70880887166858 ], [ 120.903589561954291, 14.725191979776868 ], [ 120.913775205556803, 14.725191979776868 ], [ 120.91658387355622, 14.733383710165715 ], [ 120.906397993354588, 14.733383710165715 ], [ 120.909208169259387, 14.74157555820616 ], [ 120.888835935364, 14.74157555820616 ], [ 120.891647382333872, 14.7497675239696 ], [ 120.901833736174652, 14.7497675239696 ], [ 120.904647165088818, 14.757959607527422 ], [ 120.884273983327034, 14.757959607527422 ], [ 120.887088683265333, 14.766151808951019 ], [ 120.876901855197318, 14.766151808951019 ], [ 120.879718063253051, 14.774344128311808 ], [ 120.869530997850802, 14.774344128311808 ], [ 120.875168176157274, 14.790729121130669 ], [ 120.864980635645168, 14.790729121130669 ], [ 120.867801606150493, 14.798921794731617 ], [ 120.847426049574935, 14.798921794731617 ], [ 120.850248290636898, 14.807114586555523 ], [ 120.829872258215616, 14.807114586555523 ], [ 120.83269576959394, 14.815307496673855 ], [ 120.812319261032442, 14.815307496673855 ], [ 120.809496225794334, 14.807114586555523 ], [ 120.7993082095837, 14.807114586555523 ], [ 120.785220402585068, 14.766151808951019 ], [ 120.775033574517053, 14.766151808951019 ], [ 120.772221483637438, 14.757959607527422 ], [ 120.76203489275656, 14.757959607527422 ], [ 120.76484674644901, 14.766151808951019 ], [ 120.734286262244922, 14.766151808951019 ], [ 120.737099147621379, 14.774344128311808 ], [ 120.726912082219116, 14.774344128311808 ], [ 120.729726473706904, 14.782536565681209 ], [ 120.709351867939688, 14.782536565681209 ], [ 120.712167527963572, 14.790729121130669 ], [ 120.701979987451452, 14.790729121130669 ], [ 120.704797153546096, 14.798921794731617 ], [ 120.694609375258338, 14.798921794731617 ], [ 120.688977262172429, 14.782536565681209 ], [ 120.678789959288821, 14.782536565681209 ], [ 120.684421596970552, 14.798921794731617 ], [ 120.674233818682779, 14.798921794731617 ], [ 120.677052015056006, 14.807114586555523 ], [ 120.666863998845344, 14.807114586555523 ], [ 120.661229825403026, 14.790729121130669 ], [ 120.651042284890906, 14.790729121130669 ], [ 120.648228050637982, 14.782536565681209 ], [ 120.638040747754374, 14.782536565681209 ], [ 120.643670483819449, 14.798921794731617 ], [ 120.633482705531691, 14.798921794731617 ], [ 120.636299950213413, 14.807114586555523 ], [ 120.626111934002779, 14.807114586555523 ], [ 120.628930683979092, 14.815307496673855 ], [ 120.639118938259841, 14.815307496673855 ], [ 120.644762145839906, 14.831693672079718 ], [ 120.665139607565422, 14.831693672079718 ], [ 120.667964304820146, 14.839886937510256 ], [ 120.647586366070698, 14.839886937510256 ], [ 120.650412331060579, 14.848080321521204 ], [ 120.640223123026544, 14.848080321521204 ], [ 120.645879810919965, 14.864467445570481 ], [ 120.656069496714807, 14.864467445570481 ], [ 120.661733645599526, 14.880855044799899 ], [ 120.651543481454141, 14.880855044799899 ], [ 120.654377936086661, 14.889049022786077 ], [ 120.644187532544763, 14.889049022786077 ], [ 120.649861203057512, 14.905437335859286 ], [ 120.63967032027999, 14.905437335859286 ], [ 120.642509536419325, 14.913631671089529 ], [ 120.622127291185933, 14.913631671089529 ], [ 120.61928855472496, 14.905437335859286 ], [ 120.609097671947438, 14.905437335859286 ], [ 120.603425918377155, 14.889049022786077 ], [ 120.613616321919054, 14.889049022786077 ], [ 120.610782824872572, 14.880855044799899 ], [ 120.620972989017957, 14.880855044799899 ], [ 120.618140998492834, 14.872661185751895 ], [ 120.607951073596453, 14.872661185751895 ], [ 120.605121067740598, 14.864467445570481 ], [ 120.594931381945756, 14.864467445570481 ], [ 120.589277082856341, 14.848080321521204 ], [ 120.568898666788272, 14.848080321521204 ], [ 120.566074611072949, 14.839886937510256 ], [ 120.555885641698225, 14.839886937510256 ], [ 120.558709458754237, 14.848080321521204 ], [ 120.538331042686153, 14.848080321521204 ], [ 120.535507702948763, 14.839886937510256 ], [ 120.525318733574068, 14.839886937510256 ], [ 120.539451675854821, 14.880855044799899 ], [ 120.549641840000234, 14.880855044799899 ], [ 120.558143258059843, 14.905437335859286 ], [ 120.547952375282293, 14.905437335859286 ], [ 120.550789432869081, 14.913631671089529 ], [ 120.571171678102488, 14.913631671089529 ], [ 120.574010961802955, 14.921826125544344 ], [ 120.584202324406434, 14.921826125544344 ], [ 120.595577892015697, 14.954605137042202 ], [ 120.605770216043098, 14.954605137042202 ], [ 120.611468970090456, 14.970995360001565 ], [ 120.63185458134204, 14.970995360001565 ], [ 120.634707064024269, 14.979190651034761 ], [ 120.644900110671031, 14.979190651034761 ], [ 120.64204738696786, 14.970995360001565 ], [ 120.68281860947107, 14.970995360001565 ], [ 120.685672297257938, 14.979190651034761 ], [ 120.695865343904657, 14.979190651034761 ], [ 120.701578454068098, 14.995581592566745 ], [ 120.711771983200293, 14.995581592566745 ], [ 120.688959622407197, 14.930020699295367 ] ], [ [ 120.919175400565706, 14.471306304013464 ], [ 120.898818637030232, 14.471306304013464 ], [ 120.896063992940583, 14.463118300856811 ], [ 120.916420292653171, 14.463118300856811 ], [ 120.919175400565706, 14.471306304013464 ] ] ], [ [ [ 120.912742671822699, 14.692426233310481 ], [ 120.902557973147523, 14.692426233310481 ], [ 120.905359666003577, 14.700617493806424 ], [ 120.915544600690296, 14.700617493806424 ], [ 120.912742671822699, 14.692426233310481 ] ] ] ] } }
]
}
