{
"type": "FeatureCollection",
"name": "ghsl_2878",
"crs": { "type": "name", "properties": { "name": "urn:ogc:def:crs:OGC:1.3:CRS84" } },
"features": [
{ "type": "Feature", "properties": { "city_id": "ghsl_2878", "city_name": "Paris" }, "geometry": { "type": "MultiPolygon", "coordinates": [ [ [ [ 2.207589174087315, 49.044054686051339 ], [ 2.220574992758417, 49.044054686051339 ], [ 2.220308181127901, 49.034574552203523 ], [ 2.23329243949707, 49.034574552203523 ], [ 2.233024210745833, 49.02509508600086 ], [ 2.258989608545203, 49.02509508600086 ], [ 2.258718405591564, 49.015616287136389 ], [ 2.271699545853585, 49.015616287136389 ], [ 2.271426929720614, 49.006138155303347 ], [ 2.323345259542799, 49.006138155303347 ], [ 2.323066560854577, 48.996660690195164 ], [ 2.349022611813846, 48.996660690195164 ], [ 2.349304424453892, 49.006138155303347 ], [ 2.362284006909438, 49.006138155303347 ], [ 2.362567527687728, 49.015616287136389 ], [ 2.375548667949749, 49.015616287136389 ], [ 2.375833898642369, 49.02509508600086 ], [ 2.388816597542054, 49.02509508600086 ], [ 2.388529808211769, 49.015616287136389 ], [ 2.40151094847379, 49.015616287136389 ], [ 2.401222754276077, 49.006138155303347 ], [ 2.42718191918717, 49.006138155303347 ], [ 2.426890764691653, 48.996660690195164 ], [ 2.452846815650922, 48.996660690195164 ], [ 2.452552704061252, 48.98718389150546 ], [ 2.465529173394909, 48.98718389150546 ], [ 2.465233663227768, 48.977707758928091 ], [ 2.504158405278733, 48.977707758928091 ], [ 2.504458581395882, 48.98718389150546 ], [ 2.517435050729539, 48.98718389150546 ], [ 2.517133319295721, 48.977707758928091 ], [ 2.53010823331271, 48.977707758928091 ], [ 2.529805108155169, 48.968232292157069 ], [ 2.594671905800173, 48.968232292157069 ], [ 2.594361173813958, 48.95875749088664 ], [ 2.620304785552098, 48.95875749088664 ], [ 2.619364269976721, 48.930337077024198 ], [ 2.606397120125351, 48.930337077024198 ], [ 2.605774043651437, 48.91139345635542 ], [ 2.618738093619851, 48.91139345635542 ], [ 2.618425255272448, 48.901922641678546 ], [ 2.631387756536173, 48.901922641678546 ], [ 2.630759483937576, 48.882983002118017 ], [ 2.643718890262392, 48.882983002118017 ], [ 2.643088193850367, 48.86404601358818 ], [ 2.656044508526104, 48.86404601358818 ], [ 2.655727867084285, 48.854578512700449 ], [ 2.668682637167622, 48.854578512700449 ], [ 2.668364620177699, 48.845111673659581 ], [ 2.681317846489241, 48.845111673659581 ], [ 2.680679234049997, 48.826179979905874 ], [ 2.667729092822702, 48.826179979905874 ], [ 2.667411582203953, 48.816715124587269 ], [ 2.654462982290342, 48.816715124587269 ], [ 2.653831546710747, 48.797787395553456 ], [ 2.666777066450799, 48.797787395553456 ], [ 2.666143223834152, 48.77886230664253 ], [ 2.653200781, 48.77886230664253 ], [ 2.653516080184591, 48.788324521233669 ], [ 2.614684137547743, 48.788324521233669 ], [ 2.614373452497566, 48.77886230664253 ], [ 2.575546123995127, 48.77886230664253 ], [ 2.575240215401326, 48.769400751478216 ], [ 2.562299309796294, 48.769400751478216 ], [ 2.561691051101659, 48.750479618223821 ], [ 2.548753217510237, 48.750479618223821 ], [ 2.547243054477639, 48.703188303967707 ], [ 2.560173222266866, 48.703188303967707 ], [ 2.55987013860527, 48.693732013376021 ], [ 2.546941501541607, 48.693732013376021 ], [ 2.546338874383962, 48.674821402050512 ], [ 2.55926445242652, 48.674821402050512 ], [ 2.558961849669716, 48.665367080717139 ], [ 2.584809949161329, 48.665367080717139 ], [ 2.583893940701411, 48.637008050441196 ], [ 2.596813410404918, 48.637008050441196 ], [ 2.596506871979889, 48.627556350593622 ], [ 2.609424816616605, 48.627556350593622 ], [ 2.609116915933646, 48.61810530537025 ], [ 2.596200495557737, 48.61810530537025 ], [ 2.595894281017667, 48.60865491447251 ], [ 2.582979384097182, 48.60865491447251 ], [ 2.583284075181828, 48.61810530537025 ], [ 2.55745123443001, 48.61810530537025 ], [ 2.557753038069742, 48.627556350593622 ], [ 2.53191714879631, 48.627556350593622 ], [ 2.532515133069324, 48.646460405211656 ], [ 2.545436128646208, 48.646460405211656 ], [ 2.546037799923909, 48.665367080717139 ], [ 2.533113750178102, 48.665367080717139 ], [ 2.533413296341403, 48.674821402050512 ], [ 2.520487718298845, 48.674821402050512 ], [ 2.520785893920192, 48.684276379503586 ], [ 2.482004572475266, 48.684276379503586 ], [ 2.482298316223292, 48.693732013376021 ], [ 2.443512405032303, 48.693732013376021 ], [ 2.44322325103034, 48.684276379503586 ], [ 2.430296143882031, 48.684276379503586 ], [ 2.429721352211649, 48.665367080717139 ], [ 2.442645401957456, 48.665367080717139 ], [ 2.442356706658026, 48.655913415203948 ], [ 2.468201751172925, 48.655913415203948 ], [ 2.467910155184902, 48.646460405211656 ], [ 2.454989159608018, 48.646460405211656 ], [ 2.454409480976015, 48.627556350593622 ], [ 2.46732742561273, 48.627556350593622 ], [ 2.467036291798646, 48.61810530537025 ], [ 2.492869132550464, 48.61810530537025 ], [ 2.493163314886162, 48.627556350593622 ], [ 2.506081259522878, 48.627556350593622 ], [ 2.505785552926374, 48.61810530537025 ], [ 2.518701973302282, 48.61810530537025 ], [ 2.518404899494752, 48.60865491447251 ], [ 2.505490002574267, 48.60865491447251 ], [ 2.504899370137531, 48.58975609446091 ], [ 2.491987517714142, 48.58975609446091 ], [ 2.491400550141856, 48.570859888174503 ], [ 2.504309361282487, 48.570859888174503 ], [ 2.504014590407963, 48.56141276443396 ], [ 2.439478131892293, 48.56141276443396 ], [ 2.439191109743806, 48.551966293231978 ], [ 2.426285336676378, 48.551966293231978 ], [ 2.426856494438699, 48.570859888174503 ], [ 2.439765305579331, 48.570859888174503 ], [ 2.440340108020584, 48.58975609446091 ], [ 2.427428255597195, 48.58975609446091 ], [ 2.427714362731022, 48.599205177602116 ], [ 2.414800988461176, 48.599205177602116 ], [ 2.415085724130865, 48.60865491447251 ], [ 2.376341033369407, 48.60865491447251 ], [ 2.376060865651639, 48.599205177602116 ], [ 2.350234117111947, 48.599205177602116 ], [ 2.350511239528435, 48.60865491447251 ], [ 2.324681445687463, 48.60865491447251 ], [ 2.324407368572255, 48.599205177602116 ], [ 2.31149399430241, 48.599205177602116 ], [ 2.311221583786691, 48.58975609446091 ], [ 2.298309731363302, 48.58975609446091 ], [ 2.29803898573208, 48.580307664750976 ], [ 2.285128654351563, 48.580307664750976 ], [ 2.285397878939913, 48.58975609446091 ], [ 2.259574174093134, 48.58975609446091 ], [ 2.259307991590528, 48.580307664750976 ], [ 2.220576997448976, 48.580307664750976 ], [ 2.220838616822966, 48.58975609446091 ], [ 2.233750469246355, 48.58975609446091 ], [ 2.234277167244062, 48.60865491447251 ], [ 2.247192064164548, 48.60865491447251 ], [ 2.247722366788561, 48.627556350593622 ], [ 2.234804422151845, 48.627556350593622 ], [ 2.235068258706721, 48.637008050441196 ], [ 2.222148789003214, 48.637008050441196 ], [ 2.222411239224101, 48.646460405211656 ], [ 2.248253230377869, 48.646460405211656 ], [ 2.248518872796277, 48.655913415203948 ], [ 2.261441395053728, 48.655913415203948 ], [ 2.261708705516162, 48.665367080717139 ], [ 2.274632755261969, 48.665367080717139 ], [ 2.275440123204684, 48.693732013376021 ], [ 2.262511486141021, 48.693732013376021 ], [ 2.262779363114654, 48.703188303967707 ], [ 2.236919027536201, 48.703188303967707 ], [ 2.236654212013696, 48.693732013376021 ], [ 2.223725574950032, 48.693732013376021 ], [ 2.223462429509092, 48.684276379503586 ], [ 2.210535322360784, 48.684276379503586 ], [ 2.210273845277449, 48.674821402050512 ], [ 2.158571533107216, 48.674821402050512 ], [ 2.158826893767549, 48.684276379503586 ], [ 2.120045572322623, 48.684276379503586 ], [ 2.119794798979542, 48.674821402050512 ], [ 2.106869220936983, 48.674821402050512 ], [ 2.107367841377065, 48.693732013376021 ], [ 2.120296478440729, 48.693732013376021 ], [ 2.120547517433161, 48.703188303967707 ], [ 2.185198356379294, 48.703188303967707 ], [ 2.185457186027358, 48.712645251578685 ], [ 2.198388885352963, 48.712645251578685 ], [ 2.198649384479191, 48.722102856509245 ], [ 2.211582616152599, 48.722102856509245 ], [ 2.212107095775896, 48.741020039531051 ], [ 2.225043394581603, 48.741020039531051 ], [ 2.225307377724673, 48.750479618223821 ], [ 2.238245211316096, 48.750479618223821 ], [ 2.2387766696705, 48.769400751478216 ], [ 2.225835764065468, 48.769400751478216 ], [ 2.226100167473176, 48.77886230664253 ], [ 2.187272838970736, 48.77886230664253 ], [ 2.187013047250372, 48.769400751478216 ], [ 2.174072141645341, 48.769400751478216 ], [ 2.173814024087007, 48.759939855439129 ], [ 2.160874654896013, 48.759939855439129 ], [ 2.161387953302444, 48.77886230664253 ], [ 2.148445510468297, 48.77886230664253 ], [ 2.148700825905571, 48.788324521233669 ], [ 2.122812864147672, 48.788324521233669 ], [ 2.122560624800004, 48.77886230664253 ], [ 2.109618181965858, 48.77886230664253 ], [ 2.11162752358409, 48.854578512700449 ], [ 2.098672753500752, 48.854578512700449 ], [ 2.098922977469409, 48.86404601358818 ], [ 2.060054033442198, 48.86404601358818 ], [ 2.061037700932274, 48.901922641678546 ], [ 2.074000202195998, 48.901922641678546 ], [ 2.074247994946417, 48.91139345635542 ], [ 2.087212044914832, 48.91139345635542 ], [ 2.086962703459724, 48.901922641678546 ], [ 2.112887705987173, 48.901922641678546 ], [ 2.113140144851663, 48.91139345635542 ], [ 2.126104194820078, 48.91139345635542 ], [ 2.127376162527446, 48.95875749088664 ], [ 2.140347968396516, 48.95875749088664 ], [ 2.140604322285143, 48.968232292157069 ], [ 2.153577681814144, 48.968232292157069 ], [ 2.154093909387131, 48.98718389150546 ], [ 2.141117440053474, 48.98718389150546 ], [ 2.14163110516515, 49.006138155303347 ], [ 2.167590270076243, 49.006138155303347 ], [ 2.167850423757421, 49.015616287136389 ], [ 2.180831564019442, 49.015616287136389 ], [ 2.181093415147092, 49.02509508600086 ], [ 2.194076114046778, 49.02509508600086 ], [ 2.194867187233241, 49.053535487851498 ], [ 2.207854567039355, 49.053535487851498 ], [ 2.207589174087315, 49.044054686051339 ] ] ] ] } }
]
}
