{
"type": "FeatureCollection",
"name": "ghsl_5472",
"crs": { "type": "name", "properties": { "name": "urn:ogc:def:crs:OGC:1.3:CRS84" } },
"features": [
{ "type": "Feature", "properties": { "city_id": "ghsl_5472", "city_name": "Jakarta" }, "geometry": { "type": "MultiPolygon", "coordinates": [ [ [ [ 106.678653551469779, -6.037691358940747 ], [ 106.688665625946697, -6.037691358940747 ], [ 106.690638248752478, -6.053901312345035 ], [ 106.710662767943319, -6.053901312345035 ], [ 106.712641153313768, -6.070111452012934 ], [ 106.72265359853364, -6.070111452012934 ], [ 106.724637563253893, -6.086321778450727 ], [ 106.754675457304899, -6.086321778450727 ], [ 106.755669742356432, -6.094427011866569 ], [ 106.745657017751086, -6.094427011866569 ], [ 106.746652558567575, -6.102532292164769 ], [ 106.766678194541413, -6.102532292164769 ], [ 106.765682466961792, -6.094427011866569 ], [ 106.775695191567166, -6.094427011866569 ], [ 106.776691012528332, -6.102532292164769 ], [ 106.786703830515251, -6.102532292164769 ], [ 106.784713351355904, -6.086321778450727 ], [ 106.804738614056589, -6.086321778450727 ], [ 106.807726917486377, -6.110637619408635 ], [ 106.837765651971466, -6.110637619408635 ], [ 106.838764733876602, -6.118742993661474 ], [ 106.848777739006294, -6.118742993661474 ], [ 106.847778563466491, -6.110637619408635 ], [ 106.85779147496153, -6.110637619408635 ], [ 106.856793556423696, -6.102532292164769 ], [ 106.866806374410629, -6.102532292164769 ], [ 106.865809713015423, -6.094427011866569 ], [ 106.875822437620769, -6.094427011866569 ], [ 106.87482703350895, -6.086321778450727 ], [ 106.884839664859285, -6.086321778450727 ], [ 106.885835162226144, -6.094427011866569 ], [ 106.915873336042225, -6.094427011866569 ], [ 106.91487755891032, -6.086321778450727 ], [ 106.924890190260655, -6.086321778450727 ], [ 106.925886060647585, -6.094427011866569 ], [ 106.945911509858306, -6.094427011866569 ], [ 106.944915452961325, -6.086321778450727 ], [ 106.96494071566201, -6.086321778450727 ], [ 106.963945823946489, -6.078216591853948 ], [ 106.973958362168332, -6.078216591853948 ], [ 106.974953347012345, -6.086321778450727 ], [ 106.984965978362681, -6.086321778450727 ], [ 106.986960190253683, -6.102532292164769 ], [ 106.996973008240587, -6.102532292164769 ], [ 106.997972235891936, -6.110637619408635 ], [ 107.007985147386975, -6.110637619408635 ], [ 107.009987847423787, -6.126848414986598 ], [ 107.020000946314738, -6.126848414986598 ], [ 107.02100441930564, -6.134953883447325 ], [ 107.051043997641898, -6.134953883447325 ], [ 107.054063382339749, -6.159270572276357 ], [ 107.064076857541522, -6.159270572276357 ], [ 107.06508612079152, -6.167376229912751 ], [ 107.075099690387546, -6.167376229912751 ], [ 107.076110402119468, -6.175481935001393 ], [ 107.066096738002557, -6.175481935001393 ], [ 107.070152748738309, -6.20790523114538 ], [ 107.080166792205276, -6.20790523114538 ], [ 107.081184276088038, -6.216011174445496 ], [ 107.10121255333037, -6.216011174445496 ], [ 107.100194879139195, -6.20790523114538 ], [ 107.110208922606148, -6.20790523114538 ], [ 107.109192508299884, -6.19979933561427 ], [ 107.11920645673932, -6.19979933561427 ], [ 107.120222966073101, -6.20790523114538 ], [ 107.130237009540068, -6.20790523114538 ], [ 107.131254969193847, -6.216011174445496 ], [ 107.151283246436179, -6.216011174445496 ], [ 107.150265096473987, -6.20790523114538 ], [ 107.170293183407921, -6.20790523114538 ], [ 107.171311523678511, -6.216011174445496 ], [ 107.181325662299656, -6.216011174445496 ], [ 107.185412965557418, -6.248435426603341 ], [ 107.195427486062471, -6.248435426603341 ], [ 107.196452798630645, -6.256541609699019 ], [ 107.226496647509194, -6.256541609699019 ], [ 107.225471047577642, -6.248435426603341 ], [ 107.235485568082694, -6.248435426603341 ], [ 107.234461229498848, -6.240329291593526 ], [ 107.254490079186823, -6.240329291593526 ], [ 107.253466906554237, -6.2322232046062 ], [ 107.263481235863907, -6.2322232046062 ], [ 107.260419574610552, -6.20790523114538 ], [ 107.270433618077519, -6.20790523114538 ], [ 107.269415683331005, -6.19979933561427 ], [ 107.279429631770441, -6.19979933561427 ], [ 107.274359836779126, -6.159270572276357 ], [ 107.284373311980929, -6.159270572276357 ], [ 107.281347431553201, -6.134953883447325 ], [ 107.271334238774458, -6.134953883447325 ], [ 107.270328418588107, -6.126848414986598 ], [ 107.290354616369967, -6.126848414986598 ], [ 107.291360624331944, -6.134953883447325 ], [ 107.311387009889458, -6.134953883447325 ], [ 107.314413737586293, -6.159270572276357 ], [ 107.324427212788081, -6.159270572276357 ], [ 107.325438930288399, -6.167376229912751 ], [ 107.315425360692359, -6.167376229912751 ], [ 107.316438340925302, -6.175481935001393 ], [ 107.30642467680839, -6.175481935001393 ], [ 107.310489791945358, -6.20790523114538 ], [ 107.300475748478391, -6.20790523114538 ], [ 107.302516260589954, -6.22411716557798 ], [ 107.292502026687913, -6.22411716557798 ], [ 107.295572691112994, -6.248435426603341 ], [ 107.285558170607942, -6.248435426603341 ], [ 107.289671017014754, -6.280860448135112 ], [ 107.299685921431546, -6.280860448135112 ], [ 107.30071762462066, -6.288966824208145 ], [ 107.320747626043953, -6.288966824208145 ], [ 107.319715730265102, -6.280860448135112 ], [ 107.329730634681894, -6.280860448135112 ], [ 107.327670726639113, -6.264647840943946 ], [ 107.33768543884652, -6.264647840943946 ], [ 107.340777627467261, -6.288966824208145 ], [ 107.350792628178922, -6.288966824208145 ], [ 107.352861074953481, -6.305179721626115 ], [ 107.362876268635262, -6.305179721626115 ], [ 107.363912627655068, -6.313286243097872 ], [ 107.383943208369161, -6.313286243097872 ], [ 107.389146370183525, -6.353819580621109 ], [ 107.399162145819602, -6.353819580621109 ], [ 107.40125312772075, -6.370033257557837 ], [ 107.411269098356541, -6.370033257557837 ], [ 107.41231672812529, -6.378140169550119 ], [ 107.422332796451315, -6.378140169550119 ], [ 107.423381885073695, -6.386247130642948 ], [ 107.45343038350309, -6.386247130642948 ], [ 107.45238100142933, -6.378140169550119 ], [ 107.472413138081365, -6.378140169550119 ], [ 107.473462715789353, -6.386247130642948 ], [ 107.503511214218733, -6.386247130642948 ], [ 107.50246134305938, -6.378140169550119 ], [ 107.51247741138539, -6.378140169550119 ], [ 107.511428804714583, -6.370033257557837 ], [ 107.521444775350389, -6.370033257557837 ], [ 107.523543546504996, -6.386247130642948 ], [ 107.513527380361865, -6.386247130642948 ], [ 107.514578711762567, -6.394354140899777 ], [ 107.504562447675383, -6.394354140899777 ], [ 107.506669001955473, -6.410568309159282 ], [ 107.496652541599389, -6.410568309159282 ], [ 107.499822297866046, -6.434889931865159 ], [ 107.489805542154357, -6.434889931865159 ], [ 107.490864754481152, -6.442997238438791 ], [ 107.470831045646094, -6.442997238438791 ], [ 107.469772030730979, -6.434889931865159 ], [ 107.459755275019276, -6.434889931865159 ], [ 107.458697721186851, -6.426782674836354 ], [ 107.448681064054, -6.426782674836354 ], [ 107.44762497093086, -6.418675467288886 ], [ 107.417575294887911, -6.418675467288886 ], [ 107.41863109265546, -6.426782674836354 ], [ 107.398597778389771, -6.426782674836354 ], [ 107.397542177525935, -6.418675467288886 ], [ 107.367492501482985, -6.418675467288886 ], [ 107.366438556970181, -6.410568309159282 ], [ 107.336389175901871, -6.410568309159282 ], [ 107.337442825440021, -6.418675467288886 ], [ 107.327426266759034, -6.418675467288886 ], [ 107.324269694106206, -6.394354140899777 ], [ 107.314253430019036, -6.394354140899777 ], [ 107.313204057499263, -6.386247130642948 ], [ 107.303187891356131, -6.386247130642948 ], [ 107.302139976539209, -6.378140169550119 ], [ 107.262075703235155, -6.378140169550119 ], [ 107.258941286914322, -6.353819580621109 ], [ 107.24892551127823, -6.353819580621109 ], [ 107.247883520862487, -6.345712815549781 ], [ 107.23786784253592, -6.345712815549781 ], [ 107.236827307837288, -6.337606099325225 ], [ 107.24684288898122, -6.337606099325225 ], [ 107.245803615516934, -6.329499431884004 ], [ 107.255819099605034, -6.329499431884004 ], [ 107.254781087511532, -6.321392813162696 ], [ 107.264796474670703, -6.321392813162696 ], [ 107.262724331817495, -6.305179721626115 ], [ 107.272739525499276, -6.305179721626115 ], [ 107.269641208181184, -6.280860448135112 ], [ 107.259626303764406, -6.280860448135112 ], [ 107.258596343607564, -6.272754120401512 ], [ 107.238566727110168, -6.272754120401512 ], [ 107.239596494930836, -6.280860448135112 ], [ 107.229581590514059, -6.280860448135112 ], [ 107.233713853013313, -6.313286243097872 ], [ 107.223698562656239, -6.313286243097872 ], [ 107.224734926034046, -6.321392813162696 ], [ 107.214719538874874, -6.321392813162696 ], [ 107.21575716325259, -6.329499431884004 ], [ 107.205741679164475, -6.329499431884004 ], [ 107.207820807556217, -6.345712815549781 ], [ 107.19780512922965, -6.345712815549781 ], [ 107.198846633097759, -6.353819580621109 ], [ 107.188830857461681, -6.353819580621109 ], [ 107.193010063781699, -6.386247130642948 ], [ 107.17297773149545, -6.386247130642948 ], [ 107.17402573279854, -6.394354140899777 ], [ 107.143976940537001, -6.394354140899777 ], [ 107.145026005854191, -6.402461200384067 ], [ 107.135009643696037, -6.402461200384067 ], [ 107.136059968780017, -6.410568309159282 ], [ 107.126043508423905, -6.410568309159282 ], [ 107.127095093139332, -6.418675467288886 ], [ 107.107061975777356, -6.418675467288886 ], [ 107.108114721537191, -6.426782674836354 ], [ 107.09809806440434, -6.426782674836354 ], [ 107.100207432197593, -6.442997238438791 ], [ 107.090190577780078, -6.442997238438791 ], [ 107.091247199670789, -6.451104594620726 ], [ 107.081230246420418, -6.451104594620726 ], [ 107.083347366024569, -6.467319456063486 ], [ 107.073330214727477, -6.467319456063486 ], [ 107.0754525678921, -6.483534516701411 ], [ 107.065435218040108, -6.483534516701411 ], [ 107.066498332306679, -6.491642121877324 ], [ 107.056480882986662, -6.491642121877324 ], [ 107.054356211276968, -6.475426961451302 ], [ 107.044338960765941, -6.475426961451302 ], [ 107.043278760836145, -6.467319456063486 ], [ 107.033261609539053, -6.467319456063486 ], [ 107.032202866216821, -6.45921200047446 ], [ 107.012168761796374, -6.45921200047446 ], [ 107.011111573667847, -6.451104594620726 ], [ 106.981060713916733, -6.451104594620726 ], [ 106.982117605165698, -6.45921200047446 ], [ 106.942049396324819, -6.45921200047446 ], [ 106.943107247865129, -6.467319456063486 ], [ 106.933090096568023, -6.467319456063486 ], [ 106.93414920514472, -6.475426961451302 ], [ 106.924131954633694, -6.475426961451302 ], [ 106.927317119896259, -6.49974977704255 ], [ 106.917299570981157, -6.49974977704255 ], [ 106.918363905804441, -6.507857482260606 ], [ 106.908346257167139, -6.507857482260606 ], [ 106.910478796515036, -6.524073043109305 ], [ 106.900460948052086, -6.524073043109305 ], [ 106.899394100123445, -6.515965237595016 ], [ 106.879358603150308, -6.515965237595016 ], [ 106.880425251126198, -6.524073043109305 ], [ 106.870407402663261, -6.524073043109305 ], [ 106.87147530673704, -6.532180898867002 ], [ 106.861457358170611, -6.532180898867002 ], [ 106.864668906971929, -6.556504768235914 ], [ 106.874687156611643, -6.556504768235914 ], [ 106.875760486190913, -6.564612825602641 ], [ 106.885778836442725, -6.564612825602641 ], [ 106.886853623440516, -6.572720933530492 ], [ 106.896872074431556, -6.572720933530492 ], [ 106.899025921192646, -6.588937301323817 ], [ 106.868969962639369, -6.588937301323817 ], [ 106.870048618544416, -6.597045561316414 ], [ 106.860029864572482, -6.597045561316414 ], [ 106.862191044998156, -6.613262233811345 ], [ 106.852172088402895, -6.613262233811345 ], [ 106.853254612786159, -6.621370646440829 ], [ 106.843235554688377, -6.621370646440829 ], [ 106.845404471644372, -6.637587624781767 ], [ 106.855423733128944, -6.637587624781767 ], [ 106.856510329333759, -6.6456961906204 ], [ 106.886568419440465, -6.6456961906204 ], [ 106.885481517582704, -6.637587624781767 ], [ 106.915539302036478, -6.637587624781767 ], [ 106.916626509547186, -6.6456961906204 ], [ 106.926645872916069, -6.6456961906204 ], [ 106.927734540721502, -6.653804807655943 ], [ 106.937754006102011, -6.653804807655943 ], [ 106.938844134579867, -6.661913475951994 ], [ 106.948863702099246, -6.661913475951994 ], [ 106.949955291627461, -6.670022195572166 ], [ 106.959974961413081, -6.670022195572166 ], [ 106.962162422612266, -6.686239789039312 ], [ 106.972182297312273, -6.686239789039312 ], [ 106.974375401574136, -6.702457588566341 ], [ 106.954335241326532, -6.702457588566341 ], [ 106.95543362726724, -6.710566565761376 ], [ 106.945413444240515, -6.710566565761376 ], [ 106.944315161202766, -6.702457588566341 ], [ 106.894214760583807, -6.702457588566341 ], [ 106.895312529106889, -6.710566565761376 ], [ 106.885292346080178, -6.710566565761376 ], [ 106.886391370463315, -6.718675594662274 ], [ 106.846310226235147, -6.718675594662274 ], [ 106.847410196874847, -6.726784675332674 ], [ 106.837389807660088, -6.726784675332674 ], [ 106.838491033516917, -6.734893807836218 ], [ 106.828470541017069, -6.734893807836218 ], [ 106.830676861401457, -6.751112228597348 ], [ 106.820656161949117, -6.751112228597348 ], [ 106.823975521117333, -6.775440250079017 ], [ 106.813954510280468, -6.775440250079017 ], [ 106.815063576859643, -6.783549694918236 ], [ 106.805042461972988, -6.783549694918236 ], [ 106.806152783242979, -6.791659192036241 ], [ 106.796131564179049, -6.791659192036241 ], [ 106.797243140010565, -6.79976874149672 ], [ 106.787221816641875, -6.79976874149672 ], [ 106.788334646905724, -6.807878343363357 ], [ 106.778313219104788, -6.807878343363357 ], [ 106.77942730367198, -6.815987997699843 ], [ 106.769405771311241, -6.815987997699843 ], [ 106.771637807654855, -6.832207464037152 ], [ 106.761616065791912, -6.832207464037152 ], [ 106.763853328070994, -6.848427141018273 ], [ 106.773875279946353, -6.848427141018273 ], [ 106.774996054889158, -6.856537058659544 ], [ 106.805062226107907, -6.856537058659544 ], [ 106.807308486556153, -6.8727570525621 ], [ 106.81733075440701, -6.8727570525621 ], [ 106.818456030154536, -6.880867128950841 ], [ 106.828478403585777, -6.880867128950841 ], [ 106.829605145300789, -6.888977258382868 ], [ 106.849650103579307, -6.888977258382868 ], [ 106.848523150448258, -6.880867128950841 ], [ 106.858545523879485, -6.880867128950841 ], [ 106.857419825810425, -6.8727570525621 ], [ 106.867442093661268, -6.8727570525621 ], [ 106.866317650781966, -6.864647029152912 ], [ 106.876339813180053, -6.864647029152912 ], [ 106.875216625618364, -6.856537058659544 ], [ 106.91530485391003, -6.856537058659544 ], [ 106.914182606201194, -6.848427141018273 ], [ 106.924204558076539, -6.848427141018273 ], [ 106.925326910982946, -6.856537058659544 ], [ 106.935348968055877, -6.856537058659544 ], [ 106.936472787568562, -6.864647029152912 ], [ 106.966539274762837, -6.864647029152912 ], [ 106.96541513927464, -6.856537058659544 ], [ 106.975437196347542, -6.856537058659544 ], [ 106.97656143716091, -6.864647029152912 ], [ 107.016650086753245, -6.864647029152912 ], [ 107.015525424639236, -6.856537058659544 ], [ 107.035569538785069, -6.856537058659544 ], [ 107.034446028705347, -6.848427141018273 ], [ 107.044467980580706, -6.848427141018273 ], [ 107.043345727988367, -6.840317276165381 ], [ 107.053367574793739, -6.840317276165381 ], [ 107.051126947398515, -6.824097704569872 ], [ 107.071170221494654, -6.824097704569872 ], [ 107.070051742133401, -6.815987997699843 ], [ 107.08007327449414, -6.815987997699843 ], [ 107.077840194333575, -6.79976874149672 ], [ 107.107904164439617, -6.79976874149672 ], [ 107.106789355160529, -6.791659192036241 ], [ 107.116810574224445, -6.791659192036241 ], [ 107.117925487808293, -6.79976874149672 ], [ 107.147989457914321, -6.79976874149672 ], [ 107.146874231416206, -6.791659192036241 ], [ 107.156895450480121, -6.791659192036241 ], [ 107.155781483005924, -6.783549694918236 ], [ 107.195865942552544, -6.783549694918236 ], [ 107.196980326735783, -6.791659192036241 ], [ 107.207001545799713, -6.791659192036241 ], [ 107.20811739812639, -6.79976874149672 ], [ 107.238181368232432, -6.79976874149672 ], [ 107.239298897948416, -6.807878343363357 ], [ 107.269363181351252, -6.807878343363357 ], [ 107.27048238934816, -6.815987997699843 ], [ 107.260460856987422, -6.815987997699843 ], [ 107.261581325407818, -6.824097704569872 ], [ 107.241538051311707, -6.824097704569872 ], [ 107.240417792265958, -6.815987997699843 ], [ 107.210353195183743, -6.815987997699843 ], [ 107.211473140167513, -6.824097704569872 ], [ 107.201451503119443, -6.824097704569872 ], [ 107.202572707760822, -6.832207464037152 ], [ 107.192550965897894, -6.832207464037152 ], [ 107.193673430068699, -6.840317276165381 ], [ 107.173629736457983, -6.840317276165381 ], [ 107.174753354960217, -6.848427141018273 ], [ 107.144687499334182, -6.848427141018273 ], [ 107.145812166587206, -6.856537058659544 ], [ 107.135790109514275, -6.856537058659544 ], [ 107.139171979954213, -6.880867128950841 ], [ 107.129149606522972, -6.880867128950841 ], [ 107.131410796777814, -6.897087440921915 ], [ 107.111365626828004, -6.897087440921915 ], [ 107.110234561199874, -6.888977258382868 ], [ 107.080167123782132, -6.888977258382868 ], [ 107.079037739366768, -6.880867128950841 ], [ 107.069015365935527, -6.880867128950841 ], [ 107.06788745067837, -6.8727570525621 ], [ 107.037820647125798, -6.8727570525621 ], [ 107.038948245641805, -6.880867128950841 ], [ 107.028925872210579, -6.880867128950841 ], [ 107.031184947028748, -6.897087440921915 ], [ 107.021162362053843, -6.897087440921915 ], [ 107.022293838229018, -6.905197676631734 ], [ 107.012271147290804, -6.905197676631734 ], [ 107.01681026010732, -6.937639152453721 ], [ 107.026833376175517, -6.937639152453721 ], [ 107.029111326897038, -6.953860211047007 ], [ 107.009064668098219, -6.953860211047007 ], [ 107.007925224276633, -6.945749654973699 ], [ 106.987878778936746, -6.945749654973699 ], [ 106.989018009299386, -6.953860211047007 ], [ 106.968971350500581, -6.953860211047007 ], [ 106.970111730606533, -6.961970820737421 ], [ 106.950064858093299, -6.961970820737421 ], [ 106.951206387560802, -6.970081484108726 ], [ 106.921135757836097, -6.970081484108726 ], [ 106.922278329170865, -6.978192201224707 ], [ 106.912254678816566, -6.978192201224707 ], [ 106.91111221459451, -6.970081484108726 ], [ 106.871018041628233, -6.970081484108726 ], [ 106.8721600773994, -6.978192201224707 ], [ 106.852112776690859, -6.978192201224707 ], [ 106.853255960293779, -6.986302972149155 ], [ 106.843232202698999, -6.986302972149155 ], [ 106.844376641120462, -6.994413796945866 ], [ 106.824328911194357, -6.994413796945866 ], [ 106.822041825627977, -6.978192201224707 ], [ 106.812018175273693, -6.978192201224707 ], [ 106.810876782178795, -6.970081484108726 ], [ 106.820900325420382, -6.970081484108726 ], [ 106.819760186757293, -6.961970820737421 ], [ 106.829783623013896, -6.961970820737421 ], [ 106.830923868661955, -6.970081484108726 ], [ 106.86099449838666, -6.970081484108726 ], [ 106.859853931783761, -6.961970820737421 ], [ 106.869877368040363, -6.961970820737421 ], [ 106.868738056506473, -6.953860211047007 ], [ 106.878761385905889, -6.953860211047007 ], [ 106.876486635152602, -6.937639152453721 ], [ 106.866463519084405, -6.937639152453721 ], [ 106.864194428330933, -6.92141830781867 ], [ 106.854171525083117, -6.92141830781867 ], [ 106.853039128104271, -6.913307965576066 ], [ 106.843016331075077, -6.913307965576066 ], [ 106.841885401341202, -6.905197676631734 ], [ 106.791771946650144, -6.905197676631734 ], [ 106.792902345929178, -6.913307965576066 ], [ 106.772856751870819, -6.913307965576066 ], [ 106.767219415152738, -6.8727570525621 ], [ 106.757197147301881, -6.8727570525621 ], [ 106.754951940743311, -6.856537058659544 ], [ 106.744929883670395, -6.856537058659544 ], [ 106.741572582066041, -6.832207464037152 ], [ 106.731550840203127, -6.832207464037152 ], [ 106.722658640212643, -6.76733085745491 ], [ 106.732679547127219, -6.76733085745491 ], [ 106.731574028266465, -6.759221516982241 ], [ 106.751615634505939, -6.759221516982241 ], [ 106.750511265782734, -6.751112228597348 ], [ 106.760531965235074, -6.751112228597348 ], [ 106.758327093518048, -6.734893807836218 ], [ 106.768347586017896, -6.734893807836218 ], [ 106.76724708315686, -6.726784675332674 ], [ 106.777267472371591, -6.726784675332674 ], [ 106.776168223835853, -6.718675594662274 ], [ 106.786188509892909, -6.718675594662274 ], [ 106.781804678012065, -6.686239789039312 ], [ 106.791824552712086, -6.686239789039312 ], [ 106.792918577344722, -6.694348663013527 ], [ 106.822978509389401, -6.694348663013527 ], [ 106.821884176812134, -6.686239789039312 ], [ 106.831904051512112, -6.686239789039312 ], [ 106.829719254200114, -6.670022195572166 ], [ 106.819699584414508, -6.670022195572166 ], [ 106.818609324347037, -6.661913475951994 ], [ 106.798570189308222, -6.661913475951994 ], [ 106.799660244843281, -6.670022195572166 ], [ 106.779620905272054, -6.670022195572166 ], [ 106.778531054269422, -6.661913475951994 ], [ 106.748472351711229, -6.661913475951994 ], [ 106.745211856798491, -6.637587624781767 ], [ 106.73519259531389, -6.637587624781767 ], [ 106.734108577590064, -6.629479110076441 ], [ 106.724089417862515, -6.629479110076441 ], [ 106.72300685751506, -6.621370646440829 ], [ 106.682930625123959, -6.621370646440829 ], [ 106.681849826283539, -6.613262233811345 ], [ 106.671830869688279, -6.613262233811345 ], [ 106.670751527088868, -6.605153872124399 ], [ 106.64069496142892, -6.605153872124399 ], [ 106.639617277190084, -6.597045561316414 ], [ 106.629598523218164, -6.597045561316414 ], [ 106.627447419071984, -6.58082909208303 ], [ 106.617428867214514, -6.58082909208303 ], [ 106.616355446682348, -6.572720933530492 ], [ 106.586300093709212, -6.572720933530492 ], [ 106.587373211642088, -6.58082909208303 ], [ 106.577354659784632, -6.58082909208303 ], [ 106.575209978636963, -6.564612825602641 ], [ 106.605265029392356, -6.564612825602641 ], [ 106.604194416339013, -6.556504768235914 ], [ 106.614212665978741, -6.556504768235914 ], [ 106.615283379644154, -6.564612825602641 ], [ 106.665375130903143, -6.564612825602641 ], [ 106.664303914177381, -6.556504768235914 ], [ 106.674322163817095, -6.556504768235914 ], [ 106.672183591064652, -6.540288804931643 ], [ 106.682201639861702, -6.540288804931643 ], [ 106.681134283974785, -6.532180898867002 ], [ 106.701170181107642, -6.532180898867002 ], [ 106.700103978793251, -6.524073043109305 ], [ 106.710121827256188, -6.524073043109305 ], [ 106.709056878878727, -6.515965237595016 ], [ 106.719074627365288, -6.515965237595016 ], [ 106.716948592678932, -6.49974977704255 ], [ 106.706931043763817, -6.49974977704255 ], [ 106.70587015678619, -6.491642121877324 ], [ 106.685835258146156, -6.491642121877324 ], [ 106.684775923664589, -6.483534516701411 ], [ 106.674758573812596, -6.483534516701411 ], [ 106.673700691858187, -6.475426961451302 ], [ 106.66368344134716, -6.475426961451302 ], [ 106.660518209905007, -6.451104594620726 ], [ 106.670535163155378, -6.451104594620726 ], [ 106.668431573795715, -6.434889931865159 ], [ 106.67844832950739, -6.434889931865159 ], [ 106.677398464824748, -6.426782674836354 ], [ 106.687415121957599, -6.426782674836354 ], [ 106.683228792526847, -6.394354140899777 ], [ 106.673212528439663, -6.394354140899777 ], [ 106.672169424338918, -6.386247130642948 ], [ 106.652137092052655, -6.386247130642948 ], [ 106.651095535348588, -6.378140169550119 ], [ 106.641079467022578, -6.378140169550119 ], [ 106.64003935939968, -6.370033257557837 ], [ 106.630023388763874, -6.370033257557837 ], [ 106.624843602053915, -6.329499431884004 ], [ 106.634859086142029, -6.329499431884004 ], [ 106.632796431589867, -6.313286243097872 ], [ 106.622781141232792, -6.313286243097872 ], [ 106.621751936183855, -6.305179721626115 ], [ 106.601721548820294, -6.305179721626115 ], [ 106.602750560518686, -6.313286243097872 ], [ 106.59273527016164, -6.313286243097872 ], [ 106.594797149789571, -6.329499431884004 ], [ 106.584781665701456, -6.329499431884004 ], [ 106.588921237560939, -6.36192639460265 ], [ 106.558873618343426, -6.36192639460265 ], [ 106.559911594313249, -6.370033257557837 ], [ 106.549895623677457, -6.370033257557837 ], [ 106.550934852088488, -6.378140169550119 ], [ 106.540918783762478, -6.378140169550119 ], [ 106.538841872198432, -6.36192639460265 ], [ 106.528825999125928, -6.36192639460265 ], [ 106.527789665479574, -6.353819580621109 ], [ 106.537805441115665, -6.353819580621109 ], [ 106.534704245260897, -6.329499431884004 ], [ 106.524688761172783, -6.329499431884004 ], [ 106.522628237662246, -6.313286243097872 ], [ 106.512612947305172, -6.313286243097872 ], [ 106.511584805684322, -6.305179721626115 ], [ 106.471524030957227, -6.305179721626115 ], [ 106.472551785876945, -6.313286243097872 ], [ 106.462536495519899, -6.313286243097872 ], [ 106.464595856644095, -6.329499431884004 ], [ 106.434549404379752, -6.329499431884004 ], [ 106.435580816324546, -6.337606099325225 ], [ 106.425565235180642, -6.337606099325225 ], [ 106.424533920291651, -6.329499431884004 ], [ 106.414518436203537, -6.329499431884004 ], [ 106.412460043734598, -6.313286243097872 ], [ 106.402444753377551, -6.313286243097872 ], [ 106.399367560572145, -6.288966824208145 ], [ 106.409382561283792, -6.288966824208145 ], [ 106.405298111495767, -6.256541609699019 ], [ 106.415312727788617, -6.256541609699019 ], [ 106.413278392291247, -6.240329291593526 ], [ 106.403263967447245, -6.240329291593526 ], [ 106.402248915232391, -6.2322232046062 ], [ 106.392234585922708, -6.2322232046062 ], [ 106.39122097550235, -6.22411716557798 ], [ 106.37119250769824, -6.22411716557798 ], [ 106.372205927303369, -6.2322232046062 ], [ 106.362191597993686, -6.2322232046062 ], [ 106.365239646324369, -6.256541609699019 ], [ 106.355225030031534, -6.256541609699019 ], [ 106.359307557725543, -6.288966824208145 ], [ 106.349292557013882, -6.288966824208145 ], [ 106.350316458621691, -6.29707324868401 ], [ 106.340301361488386, -6.29707324868401 ], [ 106.336214218107145, -6.264647840943946 ], [ 106.346228930314524, -6.264647840943946 ], [ 106.344193243133176, -6.248435426603341 ], [ 106.334178722628124, -6.248435426603341 ], [ 106.333162993539275, -6.240329291593526 ], [ 106.343177418383277, -6.240329291593526 ], [ 106.341149805992046, -6.22411716557798 ], [ 106.331135572089977, -6.22411716557798 ], [ 106.330123879500874, -6.216011174445496 ], [ 106.320109740879701, -6.216011174445496 ], [ 106.319099488716304, -6.20790523114538 ], [ 106.309085445249337, -6.20790523114538 ], [ 106.307069165829688, -6.191693487788806 ], [ 106.297055312291079, -6.191693487788806 ], [ 106.296049284427426, -6.183587687605629 ], [ 106.28603552566301, -6.183587687605629 ], [ 106.285030936883572, -6.175481935001393 ], [ 106.275017272766675, -6.175481935001393 ], [ 106.27401412270487, -6.167376229912751 ], [ 106.264000553108829, -6.167376229912751 ], [ 106.262998841398314, -6.159270572276357 ], [ 106.222944940591162, -6.159270572276357 ], [ 106.221944949668568, -6.151164962028878 ], [ 106.201918187800231, -6.151164962028878 ], [ 106.202917990187572, -6.159270572276357 ], [ 106.192904514985784, -6.159270572276357 ], [ 106.193905565936589, -6.167376229912751 ], [ 106.173878426744523, -6.167376229912751 ], [ 106.172877564582194, -6.159270572276357 ], [ 106.16286408938042, -6.159270572276357 ], [ 106.161864664063543, -6.151164962028878 ], [ 106.141837902195206, -6.151164962028878 ], [ 106.140840007498895, -6.143059399106977 ], [ 106.120813433912559, -6.143059399106977 ], [ 106.11882204613056, -6.126848414986598 ], [ 106.108808947239623, -6.126848414986598 ], [ 106.107815359408647, -6.118742993661474 ], [ 106.097802354278954, -6.118742993661474 ], [ 106.095819389417684, -6.102532292164769 ], [ 106.105832207404603, -6.102532292164769 ], [ 106.10188199490203, -6.070111452012934 ], [ 106.111894440121901, -6.070111452012934 ], [ 106.10992719221835, -6.053901312345035 ], [ 106.129951711409177, -6.053901312345035 ], [ 106.130934850557168, -6.062006358864393 ], [ 106.160971907590351, -6.062006358864393 ], [ 106.161956666221215, -6.070111452012934 ], [ 106.171969111441086, -6.070111452012934 ], [ 106.17295530442091, -6.078216591853948 ], [ 106.192980380864597, -6.078216591853948 ], [ 106.191994001880815, -6.070111452012934 ], [ 106.202006447100686, -6.070111452012934 ], [ 106.204969889061616, -6.094427011866569 ], [ 106.214982613666976, -6.094427011866569 ], [ 106.215973205260752, -6.102532292164769 ], [ 106.235998841234576, -6.102532292164769 ], [ 106.235008062877682, -6.094427011866569 ], [ 106.255033512088403, -6.094427011866569 ], [ 106.257016785259722, -6.110637619408635 ], [ 106.267029696754747, -6.110637619408635 ], [ 106.26802344148382, -6.118742993661474 ], [ 106.308075462002606, -6.118742993661474 ], [ 106.311065882982618, -6.143059399106977 ], [ 106.321079169775771, -6.143059399106977 ], [ 106.322078759010253, -6.151164962028878 ], [ 106.34210552087859, -6.151164962028878 ], [ 106.343106643012646, -6.159270572276357 ], [ 106.35312011821442, -6.159270572276357 ], [ 106.354122679473136, -6.167376229912751 ], [ 106.364136249069162, -6.167376229912751 ], [ 106.36514024981885, -6.175481935001393 ], [ 106.375153913935762, -6.175481935001393 ], [ 106.376159354542878, -6.183587687605629 ], [ 106.386173113307322, -6.183587687605629 ], [ 106.387179994138521, -6.191693487788806 ], [ 106.407207701215739, -6.191693487788806 ], [ 106.408216117538757, -6.19979933561427 ], [ 106.428244014417643, -6.19979933561427 ], [ 106.427235408292944, -6.191693487788806 ], [ 106.437249261831553, -6.191693487788806 ], [ 106.435235898637217, -6.175481935001393 ], [ 106.425222234520305, -6.175481935001393 ], [ 106.424217666645376, -6.167376229912751 ], [ 106.434231236241402, -6.167376229912751 ], [ 106.433227919828752, -6.159270572276357 ], [ 106.453254870232342, -6.159270572276357 ], [ 106.452252711154458, -6.151164962028878 ], [ 106.472279473022795, -6.151164962028878 ], [ 106.471278471673173, -6.143059399106977 ], [ 106.481291758466341, -6.143059399106977 ], [ 106.478296549207471, -6.118742993661474 ], [ 106.488309554337164, -6.118742993661474 ], [ 106.487313749645409, -6.110637619408635 ], [ 106.497326661140448, -6.110637619408635 ], [ 106.494347042196125, -6.086321778450727 ], [ 106.524384936247117, -6.086321778450727 ], [ 106.523394142185396, -6.078216591853948 ], [ 106.533406680407253, -6.078216591853948 ], [ 106.531428944332859, -6.062006358864393 ], [ 106.541441296677249, -6.062006358864393 ], [ 106.54045435482125, -6.053901312345035 ], [ 106.550466614416663, -6.053901312345035 ], [ 106.549480925869773, -6.045796312391579 ], [ 106.559493092842715, -6.045796312391579 ], [ 106.560478874012077, -6.053901312345035 ], [ 106.570491133607476, -6.053901312345035 ], [ 106.571478353710418, -6.062006358864393 ], [ 106.611527763087992, -6.062006358864393 ], [ 106.610540171989157, -6.053901312345035 ], [ 106.620552431584571, -6.053901312345035 ], [ 106.619566094680266, -6.045796312391579 ], [ 106.629578261653165, -6.045796312391579 ], [ 106.627609443365159, -6.029586451929263 ], [ 106.637621425472517, -6.029586451929263 ], [ 106.638605253562133, -6.037691358940747 ], [ 106.668641476992875, -6.037691358940747 ], [ 106.667657371794604, -6.029586451929263 ], [ 106.677669353901962, -6.029586451929263 ], [ 106.678653551469779, -6.037691358940747 ] ], [ [ 107.058625774192464, -6.353819580621109 ], [ 107.038594222920281, -6.353819580621109 ], [ 107.039635525823499, -6.36192639460265 ], [ 107.029619652750995, -6.36192639460265 ], [ 107.034846022114422, -6.402461200384067 ], [ 107.044862384272577, -6.402461200384067 ], [ 107.04591182557516, -6.410568309159282 ], [ 107.065944746287343, -6.410568309159282 ], [ 107.0648951085889, -6.402461200384067 ], [ 107.074911470747082, -6.402461200384067 ], [ 107.069683145041012, -6.36192639460265 ], [ 107.059667271968507, -6.36192639460265 ], [ 107.058625774192464, -6.353819580621109 ] ] ] ] } }
]
}
