{
"type": "FeatureCollection",
"name": "ghsl_1007",
"crs": { "type": "name", "properties": { "name": "urn:ogc:def:crs:OGC:1.3:CRS84" } },
"features": [
{ "type": "Feature", "properties": { "city_id": "ghsl_1007", "city_name": "Dubai" }, "geometry": { "type": "MultiPolygon", "coordinates": [ [ [ [ 55.561764914227503, 25.442627741209709 ], [ 55.583020371348475, 25.442627741209709 ], [ 55.580613563850477, 25.434219290881611 ], [ 55.569986295482622, 25.434219290881611 ], [ 55.56758103545819, 25.425811063355685 ], [ 55.556954227075046, 25.425811063355685 ], [ 55.54974634570177, 25.400587716643752 ], [ 55.560371775377689, 25.400587716643752 ], [ 55.557970860785403, 25.392180379379489 ], [ 55.53672091974093, 25.392180379379489 ], [ 55.534322008477197, 25.383773264444034 ], [ 55.523697496901057, 25.383773264444034 ], [ 55.521300129029093, 25.375366371742796 ], [ 55.510676076191544, 25.375366371742796 ], [ 55.508280250928678, 25.366959701181223 ], [ 55.497656656622283, 25.366959701181223 ], [ 55.49047705473351, 25.341741021389119 ], [ 55.501099274690382, 25.341741021389119 ], [ 55.498707781238046, 25.33333523844102 ], [ 55.509329543492825, 25.33333523844102 ], [ 55.506938674581477, 25.324929677160142 ], [ 55.51755997934125, 25.324929677160142 ], [ 55.515169735018731, 25.316524337452087 ], [ 55.547032277434084, 25.316524337452087 ], [ 55.539863921442681, 25.291309646821141 ], [ 55.529244444593452, 25.291309646821141 ], [ 55.522087188537263, 25.266096946949443 ], [ 55.511469080449949, 25.266096946949443 ], [ 55.504322910755327, 25.24088623529228 ], [ 55.472472687202867, 25.24088623529228 ], [ 55.470094154069514, 25.232483106125819 ], [ 55.459477868107022, 25.232483106125819 ], [ 55.457100867647291, 25.224080197495446 ], [ 55.446485036700189, 25.224080197495446 ], [ 55.43936186021174, 25.198872793880014 ], [ 55.449976327349447, 25.198872793880014 ], [ 55.442861471060183, 25.173667371703605 ], [ 55.432248365878124, 25.173667371703605 ], [ 55.427511410471539, 25.156864856465877 ], [ 55.438123608712111, 25.156864856465877 ], [ 55.435756289007138, 25.148463928429248 ], [ 55.414532798850544, 25.148463928429248 ], [ 55.416899212230973, 25.156864856465877 ], [ 55.374450419268719, 25.156864856465877 ], [ 55.376816092958599, 25.165266004192702 ], [ 55.355590789741676, 25.165266004192702 ], [ 55.353226022787588, 25.156864856465877 ], [ 55.34261382454703, 25.156864856465877 ], [ 55.344978138133214, 25.165266004192702 ], [ 55.334365486524753, 25.165266004192702 ], [ 55.336730419239622, 25.173667371703605 ], [ 55.326117314057562, 25.173667371703605 ], [ 55.33084949065573, 25.190470766453316 ], [ 55.341463503602334, 25.190470766453316 ], [ 55.34383165597243, 25.198872793880014 ], [ 55.33321718883473, 25.198872793880014 ], [ 55.335585960748823, 25.207275041466595 ], [ 55.324971039214056, 25.207275041466595 ], [ 55.327340430621803, 25.215677509307056 ], [ 55.306109678346047, 25.215677509307056 ], [ 55.303741196144522, 25.207275041466595 ], [ 55.293126274609754, 25.207275041466595 ], [ 55.276580112832725, 25.148463928429248 ], [ 55.265968367754432, 25.148463928429248 ], [ 55.261251440804827, 25.13166273105119 ], [ 55.250640601434483, 25.13166273105119 ], [ 55.241221391496346, 25.098062968449515 ], [ 55.251830421915294, 25.098062968449515 ], [ 55.242426497243606, 25.064466710388306 ], [ 55.231819272493752, 25.064466710388306 ], [ 55.224778885392659, 25.039271813091833 ], [ 55.235384758042052, 25.039271813091833 ], [ 55.233039643889498, 25.030873950874845 ], [ 55.190617954454872, 25.030873950874845 ], [ 55.188275706176512, 25.02247630694292 ], [ 55.177670733903994, 25.02247630694292 ], [ 55.172990329616077, 25.005681673560442 ], [ 55.183594402329824, 25.005681673560442 ], [ 55.181255346050243, 24.997284683923024 ], [ 55.202462592532193, 24.997284683923024 ], [ 55.200123701004458, 24.988887912196958 ], [ 55.221330048949525, 24.988887912196958 ], [ 55.216653659717345, 24.972095022105442 ], [ 55.206051383669013, 24.972095022105442 ], [ 55.203715232447458, 24.963698903553336 ], [ 55.161307922877683, 24.963698903553336 ], [ 55.163642279475681, 24.972095022105442 ], [ 55.142437727379018, 24.972095022105442 ], [ 55.140104268092806, 24.963698903553336 ], [ 55.129502440700364, 24.963698903553336 ], [ 55.127170491123877, 24.955303002539278 ], [ 55.105967733242679, 24.955303002539278 ], [ 55.103637740861963, 24.946907318969991 ], [ 55.093036810169224, 24.946907318969991 ], [ 55.090708325771075, 24.938511852752256 ], [ 55.069507360473494, 24.938511852752256 ], [ 55.067180831137158, 24.93011660379285 ], [ 55.035380726711097, 24.93011660379285 ], [ 55.037705912527116, 24.938511852752256 ], [ 55.048306395175899, 24.938511852752256 ], [ 55.055289648953263, 24.963698903553336 ], [ 55.044687821560821, 24.963698903553336 ], [ 55.047017242944023, 24.972095022105442 ], [ 55.036414966895684, 24.972095022105442 ], [ 55.041076091416471, 24.988887912196958 ], [ 55.030472917443937, 24.988887912196958 ], [ 55.035137384337389, 25.005681673560442 ], [ 55.045741457051136, 25.005681673560442 ], [ 55.048075731171693, 25.0140788812026 ], [ 55.037471208780786, 25.0140788812026 ], [ 55.044479050352962, 25.039271813091833 ], [ 55.055084923002362, 25.039271813091833 ], [ 55.052747463792322, 25.030873950874845 ], [ 55.084563730868297, 25.030873950874845 ], [ 55.089242414053615, 25.047669893687395 ], [ 55.099848737198407, 25.047669893687395 ], [ 55.104532575495497, 25.064466710388306 ], [ 55.115139800245345, 25.064466710388306 ], [ 55.117483766766149, 25.072865446680776 ], [ 55.106876090906503, 25.072865446680776 ], [ 55.109220670967829, 25.081264401726049 ], [ 55.119828798142215, 25.081264401726049 ], [ 55.122174894730414, 25.089663575617745 ], [ 55.132783473424553, 25.089663575617745 ], [ 55.135131087306796, 25.098062968449515 ], [ 55.145740117725758, 25.098062968449515 ], [ 55.148089249669702, 25.106462580315032 ], [ 55.158698732018621, 25.106462580315032 ], [ 55.161049382792342, 25.114862411307993 ], [ 55.171659317276436, 25.114862411307993 ], [ 55.181074407128079, 25.148463928429248 ], [ 55.191686152206373, 25.148463928429248 ], [ 55.19640101561474, 25.165266004192702 ], [ 55.207013667223194, 25.165266004192702 ], [ 55.211733717274839, 25.182068959092501 ], [ 55.222347276236256, 25.182068959092501 ], [ 55.224709361189674, 25.190470766453316 ], [ 55.214095348243063, 25.190470766453316 ], [ 55.218821823866371, 25.207275041466595 ], [ 55.229436745401138, 25.207275041466595 ], [ 55.231802045380896, 25.215677509307056 ], [ 55.221186669243018, 25.215677509307056 ], [ 55.223552586811095, 25.224080197495446 ], [ 55.244784248705301, 25.224080197495446 ], [ 55.251891169503239, 25.249289585088931 ], [ 55.262508366115362, 25.249289585088931 ], [ 55.26487994296852, 25.257693155609928 ], [ 55.275497595215008, 25.257693155609928 ], [ 55.282620143089062, 25.282905192460806 ], [ 55.314477204254878, 25.282905192460806 ], [ 55.31685490760897, 25.291309646821141 ], [ 55.327474384458199, 25.291309646821141 ], [ 55.332233935771399, 25.308119219222462 ], [ 55.342854326162133, 25.308119219222462 ], [ 55.352388195294083, 25.341741021389119 ], [ 55.363010415250969, 25.341741021389119 ], [ 55.365397038285401, 25.350147026098874 ], [ 55.354774360419263, 25.350147026098874 ], [ 55.359549930639112, 25.366959701181223 ], [ 55.370173524945507, 25.366959701181223 ], [ 55.372563389303416, 25.375366371742796 ], [ 55.383187442140958, 25.375366371742796 ], [ 55.385578846411249, 25.383773264444034 ], [ 55.396203357987389, 25.383773264444034 ], [ 55.398596302951816, 25.392180379379489 ], [ 55.409221273474067, 25.392180379379489 ], [ 55.411615759914838, 25.400587716643752 ], [ 55.42224118959075, 25.400587716643752 ], [ 55.427034330463385, 25.417403058537186 ], [ 55.437660679069687, 25.417403058537186 ], [ 55.440059334860464, 25.425811063355685 ], [ 55.482566568393047, 25.425811063355685 ], [ 55.484968148539828, 25.434219290881611 ], [ 55.506222685275524, 25.434219290881611 ], [ 55.508626271425065, 25.442627741209709 ], [ 55.540509457106531, 25.442627741209709 ], [ 55.542915510860581, 25.451036414434718 ], [ 55.564171888782838, 25.451036414434718 ], [ 55.561764914227503, 25.442627741209709 ] ] ], [ [ [ 55.065690795651754, 25.039271813091833 ], [ 55.055084923002362, 25.039271813091833 ], [ 55.057423444619232, 25.047669893687395 ], [ 55.068029767764031, 25.047669893687395 ], [ 55.065690795651754, 25.039271813091833 ] ] ] ] } }
]
}
