{
"type": "FeatureCollection",
"name": "ghsl_2576",
"crs": { "type": "name", "properties": { "name": "urn:ogc:def:crs:OGC:1.3:CRS84" } },
"features": [
{ "type": "Feature", "properties": { "city_id": "ghsl_2576", "city_name": "Moscow" }, "geometry": { "type": "MultiPolygon", "coordinates": [ [ [ [ 37.865628504800505, 56.024656301885834 ], [ 37.894358116716134, 56.024656301885834 ], [ 37.869333778906658, 55.984454005987622 ], [ 37.883689098762197, 55.984454005987622 ], [ 37.864956348480192, 55.954312296304558 ], [ 37.879304569908186, 55.954312296304558 ], [ 37.873066053165715, 55.94426696404868 ], [ 37.88741191151918, 55.94426696404868 ], [ 37.881175076367036, 55.93422258307573 ], [ 37.95289256041923, 55.93422258307573 ], [ 37.959141203286542, 55.94426696404868 ], [ 38.002178778346959, 55.94426696404868 ], [ 37.995923050850543, 55.93422258307573 ], [ 38.038953541281863, 55.93422258307573 ], [ 38.032694786689596, 55.924179152864554 ], [ 38.047035923486987, 55.924179152864554 ], [ 38.040778863971013, 55.914136672894507 ], [ 38.069456420596701, 55.914136672894507 ], [ 38.063198698286456, 55.904095142645303 ], [ 38.077535119641738, 55.904095142645303 ], [ 38.071279092108355, 55.894054561597173 ], [ 38.085613158031585, 55.894054561597173 ], [ 38.0793588243626, 55.884014929230766 ], [ 38.050695400332224, 55.884014929230766 ], [ 38.056945026185119, 55.894054561597173 ], [ 38.042610960261882, 55.894054561597173 ], [ 38.048862276931168, 55.904095142645303 ], [ 38.020189434220597, 55.904095142645303 ], [ 38.013942828415416, 55.894054561597173 ], [ 37.970940630645721, 55.894054561597173 ], [ 37.977180170154739, 55.904095142645303 ], [ 37.962843748799443, 55.904095142645303 ], [ 37.969084972406797, 55.914136672894507 ], [ 37.911729859155429, 55.914136672894507 ], [ 37.905498063378303, 55.904095142645303 ], [ 37.876825220667726, 55.904095142645303 ], [ 37.87060216918308, 55.894054561597173 ], [ 37.85626810325985, 55.894054561597173 ], [ 37.862488799312437, 55.904095142645303 ], [ 37.805143113891297, 55.904095142645303 ], [ 37.798931839566919, 55.894054561597173 ], [ 37.755929641797216, 55.894054561597173 ], [ 37.749729448013213, 55.884014929230766 ], [ 37.735397735998014, 55.884014929230766 ], [ 37.710646425333131, 55.843865876210707 ], [ 37.724968736926506, 55.843865876210707 ], [ 37.718788555616271, 55.83383097947808 ], [ 37.847668243163938, 55.83383097947808 ], [ 37.841470949480126, 55.823797028320321 ], [ 37.913059051919547, 55.823797028320321 ], [ 37.919268069579303, 55.83383097947808 ], [ 37.933588034862382, 55.83383097947808 ], [ 37.939803410826997, 55.843865876210707 ], [ 37.997092657200461, 55.843865876210707 ], [ 37.978430428373962, 55.813764022221207 ], [ 37.992745705580276, 55.813764022221207 ], [ 37.986530649562575, 55.803731960664869 ], [ 38.000843584999487, 55.803731960664869 ], [ 37.994630198061849, 55.793700843135973 ], [ 37.980319602883661, 55.793700843135973 ], [ 37.961710479859768, 55.763613149566396 ], [ 37.976014063311119, 55.763613149566396 ], [ 37.969816680763614, 55.753585803002018 ], [ 38.055624176087363, 55.753585803002018 ], [ 38.043213397513043, 55.733533933731621 ], [ 38.057509982780807, 55.733533933731621 ], [ 38.051308254642315, 55.723509410000489 ], [ 38.037013999099614, 55.723509410000489 ], [ 38.030818589430339, 55.713485826189398 ], [ 38.016526662113755, 55.713485826189398 ], [ 37.99797130257523, 55.683420709163904 ], [ 38.012256254192742, 55.683420709163904 ], [ 38.006076760831967, 55.67340087992266 ], [ 38.020359390204696, 55.67340087992266 ], [ 38.014181545527471, 55.66338198804845 ], [ 38.028461854147125, 55.66338198804845 ], [ 38.022285657288343, 55.653364033031977 ], [ 38.065119625358889, 55.653364033031977 ], [ 38.0713027800061, 55.66338198804845 ], [ 38.099863397245414, 55.66338198804845 ], [ 38.075136042212826, 55.623315784042319 ], [ 38.04659396122166, 55.623315784042319 ], [ 38.040426660320549, 55.613301571372304 ], [ 38.011889205961715, 55.613301571372304 ], [ 38.005730482583829, 55.603288293019958 ], [ 37.991464067237516, 55.603288293019958 ], [ 37.98531160128352, 55.5932759484785 ], [ 37.971047496288676, 55.5932759484785 ], [ 37.977197651891203, 55.603288293019958 ], [ 37.962931236544875, 55.603288293019958 ], [ 37.975238758743743, 55.623315784042319 ], [ 37.96096771824817, 55.623315784042319 ], [ 37.96712508802883, 55.633330931537145 ], [ 37.938578377436336, 55.633330931537145 ], [ 37.932425637257005, 55.623315784042319 ], [ 37.903883556265839, 55.623315784042319 ], [ 37.910031666843835, 55.633330931537145 ], [ 37.881484956251327, 55.633330931537145 ], [ 37.875341475274674, 55.623315784042319 ], [ 37.861070434779094, 55.623315784042319 ], [ 37.85493320698815, 55.613301571372304 ], [ 37.840664479808737, 55.613301571372304 ], [ 37.828406446340182, 55.5932759484785 ], [ 37.799878236350473, 55.5932759484785 ], [ 37.793759727501893, 55.583264537241625 ], [ 37.70818895076038, 55.583264537241625 ], [ 37.702088205015095, 55.573254058803499 ], [ 37.673569227552903, 55.573254058803499 ], [ 37.667476999739328, 55.563244512658642 ], [ 37.653219816923382, 55.563244512658642 ], [ 37.659309738821811, 55.573254058803499 ], [ 37.616531272628528, 55.573254058803499 ], [ 37.610448268475537, 55.563244512658642 ], [ 37.596191085659591, 55.563244512658642 ], [ 37.577972327940408, 55.533221462935536 ], [ 37.535221506179383, 55.533221462935536 ], [ 37.529163253501437, 55.523215640917726 ], [ 37.415179462298703, 55.523215640917726 ], [ 37.427263031900573, 55.543228215229057 ], [ 37.441515607312574, 55.543228215229057 ], [ 37.44756549565539, 55.55323589830202 ], [ 37.461820374032108, 55.55323589830202 ], [ 37.473936385317572, 55.573254058803499 ], [ 37.459676896586487, 55.573254058803499 ], [ 37.465738416659427, 55.583264537241625 ], [ 37.437214824412251, 55.583264537241625 ], [ 37.443275611479251, 55.5932759484785 ], [ 37.4290115064844, 55.5932759484785 ], [ 37.435073868731223, 55.603288293019958 ], [ 37.420807453384903, 55.603288293019958 ], [ 37.426871391605701, 55.613301571372304 ], [ 37.412602664426288, 55.613301571372304 ], [ 37.418668179416052, 55.623315784042319 ], [ 37.404397138920473, 55.623315784042319 ], [ 37.410464231475032, 55.633330931537145 ], [ 37.353370810290023, 55.633330931537145 ], [ 37.347312976938142, 55.623315784042319 ], [ 37.318770895946976, 55.623315784042319 ], [ 37.324824099697523, 55.633330931537145 ], [ 37.310550744401269, 55.633330931537145 ], [ 37.316605517597651, 55.643347014364359 ], [ 37.330881189180516, 55.643347014364359 ], [ 37.336942168159602, 55.653364033031977 ], [ 37.351220157516451, 55.653364033031977 ], [ 37.357287349023238, 55.66338198804845 ], [ 37.371567657642892, 55.66338198804845 ], [ 37.389799605201446, 55.693441476281926 ], [ 37.375512329845996, 55.693441476281926 ], [ 37.38159513817368, 55.703463181786908 ], [ 37.353015936997707, 55.703463181786908 ], [ 37.359098005550891, 55.713485826189398 ], [ 37.344806078234306, 55.713485826189398 ], [ 37.356977304660496, 55.733533933731621 ], [ 37.371273889928254, 55.733533933731621 ], [ 37.383465462717915, 55.753585803002018 ], [ 37.369164213497292, 55.753585803002018 ], [ 37.375263558354774, 55.763613149566396 ], [ 37.332352808000756, 55.763613149566396 ], [ 37.350653415043844, 55.793700843135973 ], [ 37.336342819865671, 55.793700843135973 ], [ 37.342448554901573, 55.803731960664869 ], [ 37.313822684027748, 55.803731960664869 ], [ 37.307721629509309, 55.793700843135973 ], [ 37.293411034331136, 55.793700843135973 ], [ 37.305612399676804, 55.813764022221207 ], [ 37.291297122470475, 55.813764022221207 ], [ 37.297401370940491, 55.823797028320321 ], [ 37.268766129964717, 55.823797028320321 ], [ 37.28097707753215, 55.843865876210707 ], [ 37.309621700718893, 55.843865876210707 ], [ 37.315737789729532, 55.85390171903493 ], [ 37.330062449149771, 55.85390171903493 ], [ 37.336184842063368, 55.863938508467861 ], [ 37.350511850828546, 55.863938508467861 ], [ 37.356640554548633, 55.873976245027151 ], [ 37.370969914178303, 55.873976245027151 ], [ 37.383243927793139, 55.894054561597173 ], [ 37.368909861869902, 55.894054561597173 ], [ 37.381195061580257, 55.914136672894507 ], [ 37.395533839893098, 55.914136672894507 ], [ 37.401684767604245, 55.924179152864554 ], [ 37.430367041199034, 55.924179152864554 ], [ 37.424211396518785, 55.914136672894507 ], [ 37.452888953144473, 55.914136672894507 ], [ 37.459049314793823, 55.924179152864554 ], [ 37.473390451591222, 55.924179152864554 ], [ 37.485727877621969, 55.94426696404868 ], [ 37.471382019268503, 55.94426696404868 ], [ 37.47755436992432, 55.954312296304558 ], [ 37.506250812780308, 55.954312296304558 ], [ 37.512431896826165, 55.964358580364902 ], [ 37.526782482861677, 55.964358580364902 ], [ 37.532969944222422, 55.974405816751791 ], [ 37.54732289639994, 55.974405816751791 ], [ 37.541133068897189, 55.964358580364902 ], [ 37.569834240968213, 55.964358580364902 ], [ 37.55745716938933, 55.94426696404868 ], [ 37.571803027742803, 55.94426696404868 ], [ 37.559437272375582, 55.924179152864554 ], [ 37.573778409172981, 55.924179152864554 ], [ 37.56759917964721, 55.914136672894507 ], [ 37.596276736272898, 55.914136672894507 ], [ 37.59009679356199, 55.904095142645303 ], [ 37.661778900338426, 55.904095142645303 ], [ 37.667970627837107, 55.914136672894507 ], [ 37.682309406149948, 55.914136672894507 ], [ 37.688507503552131, 55.924179152864554 ], [ 37.717189777146928, 55.924179152864554 ], [ 37.723396611452223, 55.93422258307573 ], [ 37.752083605073096, 55.93422258307573 ], [ 37.758299186337936, 55.94426696404868 ], [ 37.772645044691401, 55.94426696404868 ], [ 37.778867019912212, 55.954312296304558 ], [ 37.793215241340214, 55.954312296304558 ], [ 37.811912499484514, 55.984454005987622 ], [ 37.797557179628974, 55.984454005987622 ], [ 37.803795324105764, 55.994503148595363 ], [ 37.789437635034702, 55.994503148595363 ], [ 37.801921341648878, 56.014604296020437 ], [ 37.816283773769563, 56.014604296020437 ], [ 37.822534086927064, 56.024656301885834 ], [ 37.851263698842686, 56.024656301885834 ], [ 37.857522826968186, 56.034709263219291 ], [ 37.871890008306693, 56.034709263219291 ], [ 37.865628504800505, 56.024656301885834 ] ] ] ] } }
]
}
