{
"type": "FeatureCollection",
"name": "ghsl_1747",
"crs": { "type": "name", "properties": { "name": "urn:ogc:def:crs:OGC:1.3:CRS84" } },
"features": [
{ "type": "Feature", "properties": { "city_id": "ghsl_1747", "city_name": "Melbourne" }, "geometry": { "type": "MultiPolygon", "coordinates": [ [ [ [ 144.944153628571996, -37.578683301266977 ], [ 144.932626337842834, -37.578683301266977 ], [ 144.954114953451693, -37.596350647097182 ], [ 144.942585953614469, -37.596350647097182 ], [ 144.953336559961286, -37.605184910491054 ], [ 144.941806705001056, -37.605184910491054 ], [ 144.952561227875435, -37.614019567746382 ], [ 144.941030517412656, -37.614019567746382 ], [ 144.962552175877448, -37.631690064468614 ], [ 144.974084598484893, -37.631690064468614 ], [ 144.984853451179362, -37.640525904249316 ], [ 145.007920009679282, -37.640525904249316 ], [ 144.997149443699868, -37.631690064468614 ], [ 145.008681866307342, -37.631690064468614 ], [ 144.997915223912628, -37.62285461901994 ], [ 145.032509922948037, -37.62285461901994 ], [ 145.043279134129705, -37.631690064468614 ], [ 145.06634397934468, -37.631690064468614 ], [ 145.055573055638348, -37.62285461901994 ], [ 145.090167754673814, -37.62285461901994 ], [ 145.100941247167071, -37.631690064468614 ], [ 145.089408824559598, -37.631690064468614 ], [ 145.11096844817132, -37.649362138519059 ], [ 145.099434311898506, -37.649362138519059 ], [ 145.110220446847222, -37.658198767434911 ], [ 145.098685453171015, -37.658198767434911 ], [ 145.120270379512704, -37.675873209833583 ], [ 145.131807089138221, -37.675873209833583 ], [ 145.175037933097883, -37.711226837302959 ], [ 145.163497786998278, -37.711226837302959 ], [ 145.174316644018177, -37.720066233145332 ], [ 145.128152619328148, -37.720066233145332 ], [ 145.138972841588981, -37.728906024892886 ], [ 145.127430974961413, -37.728906024892886 ], [ 145.159917916324616, -37.755427777143758 ], [ 145.171462366612189, -37.755427777143758 ], [ 145.193146123576128, -37.773110927729718 ], [ 145.204692298218163, -37.773110927729718 ], [ 145.215542269071761, -37.781953098222246 ], [ 145.25018338125426, -37.781953098222246 ], [ 145.23933082214424, -37.773110927729718 ], [ 145.273969346070373, -37.773110927729718 ], [ 145.263119021971619, -37.764269154089583 ], [ 145.29775495879133, -37.764269154089583 ], [ 145.286906869488234, -37.755427777143758 ], [ 145.298451319775808, -37.755427777143758 ], [ 145.309300271064586, -37.764269154089583 ], [ 145.320845583337814, -37.764269154089583 ], [ 145.342559680407618, -37.781953098222246 ], [ 145.331012643013452, -37.781953098222246 ], [ 145.341876068707393, -37.790795665725227 ], [ 145.330328168177545, -37.790795665725227 ], [ 145.341195560190926, -37.799638630396885 ], [ 145.329646796141645, -37.799638630396885 ], [ 145.351394350432258, -37.817325751879267 ], [ 145.316742873711718, -37.817325751879267 ], [ 145.327621310541986, -37.826169909006694 ], [ 145.304518596717855, -37.826169909006694 ], [ 145.31540014145159, -37.835014463936218 ], [ 145.303847919483104, -37.835014463936218 ], [ 145.314733438551627, -37.843859416826355 ], [ 145.303180351141975, -37.843859416826355 ], [ 145.324964185539613, -37.861550517123014 ], [ 145.301854546645558, -37.861550517123014 ], [ 145.312751999289446, -37.870396664846929 ], [ 145.301196313245754, -37.870396664846929 ], [ 145.312097747276624, -37.879243211166305 ], [ 145.300541194250769, -37.879243211166305 ], [ 145.311446611435201, -37.888090156240011 ], [ 145.288331770647574, -37.888090156240011 ], [ 145.299240304999842, -37.896937500227033 ], [ 145.276123728704391, -37.896937500227033 ], [ 145.287035381221727, -37.90578524328636 ], [ 145.275476224933925, -37.90578524328636 ], [ 145.297312363722085, -37.923481927258415 ], [ 145.262629682540393, -37.923481927258415 ], [ 145.273552434144051, -37.932330868489565 ], [ 145.250428908090072, -37.932330868489565 ], [ 145.261354782630036, -37.941180209429831 ], [ 145.238229517202569, -37.941180209429831 ], [ 145.249158515680648, -37.950029950238608 ], [ 145.237595012892996, -37.950029950238608 ], [ 145.25946586868335, -37.967730632099546 ], [ 145.271031112781174, -37.967730632099546 ], [ 145.30387654713175, -37.994284657893274 ], [ 145.315444406103722, -37.994284657893274 ], [ 145.370288769892056, -38.038549386208153 ], [ 145.381860994758313, -38.038549386208153 ], [ 145.392845407232556, -38.047403536109776 ], [ 145.381272308020016, -38.047403536109776 ], [ 145.392260740607867, -38.056258087797978 ], [ 145.369112792710922, -38.056258087797978 ], [ 145.38010437208419, -38.065113041433079 ], [ 145.356954673935775, -38.065113041433079 ], [ 145.36794940111335, -38.073968397175463 ], [ 145.356373676523361, -38.073968397175463 ], [ 145.367372428431111, -38.082824155185556 ], [ 145.321066026447028, -38.082824155185556 ], [ 145.332066175997028, -38.091680315623883 ], [ 145.32048869920456, -38.091680315623883 ], [ 145.342501958674575, -38.109393844427657 ], [ 145.330922728117002, -38.109393844427657 ], [ 145.341935842037401, -38.118251213114533 ], [ 145.307195517957553, -38.118251213114533 ], [ 145.318210909127373, -38.127108984872415 ], [ 145.295048937353528, -38.127108984872415 ], [ 145.284035301904339, -38.118251213114533 ], [ 145.272455193877704, -38.118251213114533 ], [ 145.239446361657201, -38.091680315623883 ], [ 145.251023838449669, -38.091680315623883 ], [ 145.240029822974947, -38.082824155185556 ], [ 145.251606423470975, -38.082824155185556 ], [ 145.22963133411946, -38.065113041433079 ], [ 145.24120618319364, -38.065113041433079 ], [ 145.208277621764466, -38.038549386208153 ], [ 145.196705396898238, -38.038549386208153 ], [ 145.163823434083412, -38.011989345620869 ], [ 145.15225382992034, -38.011989345620869 ], [ 145.141303808541721, -38.003136801263985 ], [ 145.11816634579526, -38.003136801263985 ], [ 145.129114621594198, -38.011989345620869 ], [ 145.117545017431098, -38.011989345620869 ], [ 145.139454456370942, -38.029695637932882 ], [ 145.127883105461535, -38.029695637932882 ], [ 145.138844272566956, -38.038549386208153 ], [ 145.127272047700728, -38.038549386208153 ], [ 145.160182239674185, -38.065113041433079 ], [ 145.148607390600006, -38.065113041433079 ], [ 145.159586358493527, -38.073968397175463 ], [ 145.148010633903539, -38.073968397175463 ], [ 145.158993619502866, -38.082824155185556 ], [ 145.124263818014811, -38.082824155185556 ], [ 145.102307994303146, -38.065113041433079 ], [ 145.113882843377354, -38.065113041433079 ], [ 145.0919448277063, -38.047403536109776 ], [ 145.103517926918869, -38.047403536109776 ], [ 145.092555373101959, -38.038549386208153 ], [ 145.104127597968215, -38.038549386208153 ], [ 145.082215387858952, -38.020842291123834 ], [ 145.093785865200687, -38.020842291123834 ], [ 145.060951508719995, -37.994284657893274 ], [ 145.049383649748023, -37.994284657893274 ], [ 145.060322688929119, -38.003136801263985 ], [ 145.037185226182658, -38.003136801263985 ], [ 144.993465254433346, -37.967730632099546 ], [ 145.005030498531198, -37.967730632099546 ], [ 144.994111795296476, -37.958880091075329 ], [ 145.005676168545421, -37.958880091075329 ], [ 144.983851597500433, -37.941180209429831 ], [ 144.99541423021418, -37.941180209429831 ], [ 144.973607339359859, -37.923481927258415 ], [ 144.98516823308708, -37.923481927258415 ], [ 144.974271195156717, -37.914633385577091 ], [ 144.985831219970919, -37.914633385577091 ], [ 144.96404994871591, -37.896937500227033 ], [ 144.97560823686365, -37.896937500227033 ], [ 144.964723999620759, -37.888090156240011 ], [ 144.976281420014573, -37.888090156240011 ], [ 144.965401156500576, -37.879243211166305 ], [ 144.976957709526431, -37.879243211166305 ], [ 144.95520996323404, -37.861550517123014 ], [ 144.966764782681082, -37.861550517123014 ], [ 144.955897295997289, -37.852704767835746 ], [ 144.909681483054186, -37.852704767835746 ], [ 144.931414359847935, -37.870396664846929 ], [ 144.908302987760607, -37.870396664846929 ], [ 144.919174944397099, -37.879243211166305 ], [ 144.907618391371216, -37.879243211166305 ], [ 144.896747301716914, -37.870396664846929 ], [ 144.873635929629557, -37.870396664846929 ], [ 144.862771407657647, -37.861550517123014 ], [ 144.851216588210605, -37.861550517123014 ], [ 144.862080243585865, -37.870396664846929 ], [ 144.850524557542201, -37.870396664846929 ], [ 144.861392179267739, -37.879243211166305 ], [ 144.815165967164262, -37.879243211166305 ], [ 144.782587997460666, -37.852704767835746 ], [ 144.771034044224905, -37.852704767835746 ], [ 144.727667769462499, -37.817325751879267 ], [ 144.739218261702661, -37.817325751879267 ], [ 144.728387874737876, -37.808481992395457 ], [ 144.739937502690509, -37.808481992395457 ], [ 144.729111065579076, -37.799638630396885 ], [ 144.752208593677636, -37.799638630396885 ], [ 144.741385241155143, -37.790795665725227 ], [ 144.752933141684991, -37.790795665725227 ], [ 144.742113735910834, -37.781953098222246 ], [ 144.753660773304972, -37.781953098222246 ], [ 144.742845312536787, -37.773110927729718 ], [ 144.754391487178822, -37.773110927729718 ], [ 144.711174228217345, -37.737746212703279 ], [ 144.734259683147258, -37.737746212703279 ], [ 144.723465642996757, -37.728906024892886 ], [ 144.735007509624324, -37.728906024892886 ], [ 144.713432089113496, -37.711226837302959 ], [ 144.736512381312679, -37.711226837302959 ], [ 144.725730137416633, -37.702387837208114 ], [ 144.737269423825296, -37.702387837208114 ], [ 144.715717579106183, -37.684711023630868 ], [ 144.727255147277987, -37.684711023630868 ], [ 144.71648554261921, -37.675873209833583 ], [ 144.751095671495818, -37.675873209833583 ], [ 144.761867851793426, -37.684711023630868 ], [ 144.784942988137061, -37.684711023630868 ], [ 144.806505142277246, -37.702387837208114 ], [ 144.818044428685937, -37.702387837208114 ], [ 144.828833550109579, -37.711226837302959 ], [ 144.85191384230879, -37.711226837302959 ], [ 144.841123001503234, -37.702387837208114 ], [ 144.852662287911897, -37.702387837208114 ], [ 144.84187537954827, -37.693549232703234 ], [ 144.853413806647723, -37.693549232703234 ], [ 144.842630828996136, -37.684711023630868 ], [ 144.877243533511631, -37.684711023630868 ], [ 144.866462767751074, -37.675873209833583 ], [ 144.889536187002136, -37.675873209833583 ], [ 144.87875849109534, -37.667035791154028 ], [ 144.890294342555762, -37.667035791154028 ], [ 144.87952057332285, -37.658198767434911 ], [ 144.891055566999057, -37.658198767434911 ], [ 144.880285722715172, -37.649362138519059 ], [ 144.891819858988015, -37.649362138519059 ], [ 144.88105393792975, -37.640525904249316 ], [ 144.91565377567963, -37.640525904249316 ], [ 144.904890062840082, -37.631690064468614 ], [ 144.916422485447583, -37.631690064468614 ], [ 144.905662693151413, -37.62285461901994 ], [ 144.917194259496569, -37.62285461901994 ], [ 144.895687285160136, -37.605184910491054 ], [ 144.907217140120395, -37.605184910491054 ], [ 144.885727536448485, -37.587516777408034 ], [ 144.908783826635698, -37.587516777408034 ], [ 144.898044465655346, -37.578683301266977 ], [ 144.909571756384508, -37.578683301266977 ], [ 144.898836305272084, -37.569850218517381 ], [ 144.933415615503236, -37.569850218517381 ], [ 144.944153628571996, -37.578683301266977 ] ] ] ] } }
]
}
