{
"type": "FeatureCollection",
"name": "ghsl_11352",
"crs": { "type": "name", "properties": { "name": "urn:ogc:def:crs:OGC:1.3:CRS84" } },
"features": [
{ "type": "Feature", "properties": { "city_id": "ghsl_11352", "city_name": "Kolkata" }, "geometry": { "type": "MultiPolygon", "coordinates": [ [ [ [ 88.418968182132971, 23.004792296468558 ], [ 88.429470494543253, 23.004792296468558 ], [ 88.42608159918619, 22.996444787867471 ], [ 88.457587328972124, 22.996444787867471 ], [ 88.454198820204155, 22.988097475558909 ], [ 88.464700327840418, 22.988097475558909 ], [ 88.461313010513436, 22.979750359455196 ], [ 88.471814116046502, 22.979750359455196 ], [ 88.468427990049278, 22.971403439468702 ], [ 88.47892869366828, 22.971403439468702 ], [ 88.472160416754946, 22.9547101874969 ], [ 88.482660317112973, 22.9547101874969 ], [ 88.475897606315044, 22.938017718942795 ], [ 88.486396704167944, 22.938017718942795 ], [ 88.479639557090607, 22.921326033106066 ], [ 88.448144668781254, 22.921326033106066 ], [ 88.444769683133174, 22.912980483487939 ], [ 88.43427178762181, 22.912980483487939 ], [ 88.427527385040136, 22.896289970414866 ], [ 88.438024479933915, 22.896289970414866 ], [ 88.421189263145465, 22.854567102938141 ], [ 88.410694166497009, 22.854567102938141 ], [ 88.38384346056344, 22.787820640311846 ], [ 88.394335369806157, 22.787820640311846 ], [ 88.390985758384062, 22.779478206882647 ], [ 88.401477270046783, 22.779478206882647 ], [ 88.39812884301233, 22.771135967473835 ], [ 88.408619957282809, 22.771135967473835 ], [ 88.405272714529829, 22.76279392199833 ], [ 88.394781997463909, 22.76279392199833 ], [ 88.388093048900586, 22.74611041249894 ], [ 88.398582972120238, 22.74611041249894 ], [ 88.395240471501992, 22.737768948300978 ], [ 88.405729998079849, 22.737768948300978 ], [ 88.399048942893344, 22.721086600573493 ], [ 88.409537676749878, 22.721086600573493 ], [ 88.406199121784027, 22.712745716870018 ], [ 88.416687459560961, 22.712745716870018 ], [ 88.41335008738875, 22.704405026490779 ], [ 88.434325971158003, 22.704405026490779 ], [ 88.437664135114844, 22.712745716870018 ], [ 88.448152472891778, 22.712745716870018 ], [ 88.45483433137511, 22.729427677688157 ], [ 88.444345201251622, 22.729427677688157 ], [ 88.447688104391204, 22.737768948300978 ], [ 88.42670905123552, 22.737768948300978 ], [ 88.433398013116317, 22.754452070369044 ], [ 88.422907693067302, 22.754452070369044 ], [ 88.432951805034932, 22.779478206882647 ], [ 88.443443316697653, 22.779478206882647 ], [ 88.440093300094219, 22.771135967473835 ], [ 88.450584414364684, 22.771135967473835 ], [ 88.447235582793525, 22.76279392199833 ], [ 88.468217016925365, 22.76279392199833 ], [ 88.471566642905643, 22.771135967473835 ], [ 88.482057757176122, 22.771135967473835 ], [ 88.475359293312351, 22.754452070369044 ], [ 88.485849613361353, 22.754452070369044 ], [ 88.482502357877564, 22.74611041249894 ], [ 88.49299228109723, 22.74611041249894 ], [ 88.489646210702588, 22.737768948300978 ], [ 88.510625263858287, 22.737768948300978 ], [ 88.503936281458721, 22.721086600573493 ], [ 88.514425015315254, 22.721086600573493 ], [ 88.507741564350383, 22.704405026490779 ], [ 88.497253622465749, 22.704405026490779 ], [ 88.490577283040651, 22.687724225357393 ], [ 88.48009013237899, 22.687724225357393 ], [ 88.466757977103725, 22.654364939158526 ], [ 88.477243547564441, 22.654364939158526 ], [ 88.473914057441405, 22.64602559961644 ], [ 88.48439923331928, 22.64602559961644 ], [ 88.481070925343218, 22.637686452703843 ], [ 88.502040488306918, 22.637686452703843 ], [ 88.498712968165052, 22.629347498333992 ], [ 88.51968174271029, 22.629347498333992 ], [ 88.516355010672669, 22.621008736420155 ], [ 88.505871017422564, 22.621008736420155 ], [ 88.50254625526668, 22.612670166875603 ], [ 88.492062655852408, 22.612670166875603 ], [ 88.48541864432498, 22.595993604547729 ], [ 88.495901456627351, 22.595993604547729 ], [ 88.492581419192021, 22.587655611591089 ], [ 88.503063838218225, 22.587655611591089 ], [ 88.496427698745947, 22.570980201659307 ], [ 88.48594606571281, 22.570980201659307 ], [ 88.482630748718961, 22.562642784510988 ], [ 88.461668268086711, 22.562642784510988 ], [ 88.458355308685398, 22.554305559125645 ], [ 88.447874460899996, 22.554305559125645 ], [ 88.437946187383005, 22.529295032682192 ], [ 88.427466516072727, 22.529295032682192 ], [ 88.420856301627055, 22.51262230561553 ], [ 88.431335189550921, 22.51262230561553 ], [ 88.424730468250573, 22.495950343525241 ], [ 88.435208573531796, 22.495950343525241 ], [ 88.42531207924975, 22.470943833208704 ], [ 88.435789011960551, 22.470943833208704 ], [ 88.432492924597852, 22.462608711509503 ], [ 88.442969466823257, 22.462608711509503 ], [ 88.439674555836746, 22.454273780536283 ], [ 88.450150707762333, 22.454273780536283 ], [ 88.446856973052803, 22.445939040202752 ], [ 88.457332734864124, 22.445939040202752 ], [ 88.444171893792557, 22.412601983540807 ], [ 88.454646097001202, 22.412601983540807 ], [ 88.444790727186401, 22.387601188536699 ], [ 88.455263763388558, 22.387601188536699 ], [ 88.451981378498331, 22.379267970217292 ], [ 88.462454026068599, 22.379267970217292 ], [ 88.459172815643356, 22.370934941762041 ], [ 88.469645074766774, 22.370934941762041 ], [ 88.466365038708986, 22.362602103084864 ], [ 88.487308780432173, 22.362602103084864 ], [ 88.477475717120896, 22.337604724861489 ], [ 88.487946424306344, 22.337604724861489 ], [ 88.484671472268573, 22.329272644436397 ], [ 88.495141791931601, 22.329272644436397 ], [ 88.491868013591173, 22.320940753359377 ], [ 88.481398081265851, 22.320940753359377 ], [ 88.478126250832275, 22.312609051544499 ], [ 88.446717615315464, 22.312609051544499 ], [ 88.449988284289901, 22.320940753359377 ], [ 88.429048419639258, 22.320940753359377 ], [ 88.425778524970937, 22.312609051544499 ], [ 88.415308979798667, 22.312609051544499 ], [ 88.408774641290876, 22.29594621535745 ], [ 88.419243412710799, 22.29594621535745 ], [ 88.415978194189265, 22.287615080813509 ], [ 88.426446579009777, 22.287615080813509 ], [ 88.423182531859709, 22.279284135188163 ], [ 88.412714533454135, 22.279284135188163 ], [ 88.399675459100493, 22.245962240156128 ], [ 88.410141913689529, 22.245962240156128 ], [ 88.406885649437712, 22.237632237836557 ], [ 88.417351718533183, 22.237632237836557 ], [ 88.414096624162525, 22.229302423920874 ], [ 88.393165256590535, 22.229302423920874 ], [ 88.389912487383114, 22.220972798323356 ], [ 88.379447188722509, 22.220972798323356 ], [ 88.382699572804526, 22.229302423920874 ], [ 88.361768205232508, 22.229302423920874 ], [ 88.365021373055839, 22.237632237836557 ], [ 88.344089234864896, 22.237632237836557 ], [ 88.347343186155243, 22.245962240156128 ], [ 88.326410276977157, 22.245962240156128 ], [ 88.323157096673953, 22.237632237836557 ], [ 88.312691027578481, 22.237632237836557 ], [ 88.309439786302491, 22.229302423920874 ], [ 88.298974102516482, 22.229302423920874 ], [ 88.29572479943775, 22.220972798323356 ], [ 88.285259500777144, 22.220972798323356 ], [ 88.288508418730473, 22.229302423920874 ], [ 88.267577051158483, 22.229302423920874 ], [ 88.270826751196608, 22.237632237836557 ], [ 88.176632129337378, 22.237632237836557 ], [ 88.173385897084444, 22.229302423920874 ], [ 88.162920213298435, 22.229302423920874 ], [ 88.175912908654354, 22.26262281034986 ], [ 88.165445682525586, 22.26262281034986 ], [ 88.16869735001633, 22.270953378395546 ], [ 88.158229737841324, 22.270953378395546 ], [ 88.161482571720441, 22.279284135188163 ], [ 88.140546574909294, 22.279284135188163 ], [ 88.137294513491327, 22.270953378395546 ], [ 88.126826901316335, 22.270953378395546 ], [ 88.123576778010559, 22.26262281034986 ], [ 88.113109551881806, 22.26262281034986 ], [ 88.106614730607134, 22.245962240156128 ], [ 88.117081185196199, 22.245962240156128 ], [ 88.113835714764548, 22.237632237836557 ], [ 88.082437507478147, 22.237632237836557 ], [ 88.088927685324037, 22.254292430965315 ], [ 88.078460845057251, 22.254292430965315 ], [ 88.071971438382676, 22.237632237836557 ], [ 88.051039300191718, 22.237632237836557 ], [ 88.054282457661898, 22.245962240156128 ], [ 88.043816003072848, 22.245962240156128 ], [ 88.047060324256861, 22.254292430965315 ], [ 88.03659348399006, 22.254292430965315 ], [ 88.049584725470737, 22.287615080813509 ], [ 88.028647955829683, 22.287615080813509 ], [ 88.025398592447999, 22.279284135188163 ], [ 88.014930594042426, 22.279284135188163 ], [ 88.01168316739134, 22.270953378395546 ], [ 88.001215555216348, 22.270953378395546 ], [ 87.994726122922899, 22.254292430965315 ], [ 87.963325602122524, 22.254292430965315 ], [ 87.966568386079203, 22.26262281034986 ], [ 87.956101159950435, 22.26262281034986 ], [ 87.962590602014572, 22.279284135188163 ], [ 87.952122603609013, 22.279284135188163 ], [ 87.958617470233975, 22.29594621535745 ], [ 87.948148698814038, 22.29594621535745 ], [ 87.954648992218893, 22.312609051544499 ], [ 87.944179447046622, 22.312609051544499 ], [ 87.957197098319881, 22.345936994720596 ], [ 87.946726003427244, 22.345936994720596 ], [ 87.956504377718545, 22.370934941762041 ], [ 87.946032118595113, 22.370934941762041 ], [ 87.955823310739675, 22.395934596806345 ], [ 87.987243585797088, 22.395934596806345 ], [ 87.983977134291635, 22.387601188536699 ], [ 88.004923206695949, 22.387601188536699 ], [ 88.008190435835374, 22.395934596806345 ], [ 88.018663860854517, 22.395934596806345 ], [ 88.025203765446776, 22.412601983540807 ], [ 88.014729562238131, 22.412601983540807 ], [ 88.018001460433879, 22.420935962177897 ], [ 88.007526867852604, 22.420935962177897 ], [ 88.014074557264919, 22.437604490422668 ], [ 88.066451416677722, 22.437604490422668 ], [ 88.069729547844929, 22.445939040202752 ], [ 88.080205309656279, 22.445939040202752 ], [ 88.086767031159667, 22.462608711509503 ], [ 88.076290488934276, 22.462608711509503 ], [ 88.079573299792955, 22.470943833208704 ], [ 88.069096367082153, 22.470943833208704 ], [ 88.072380348104048, 22.479279145720177 ], [ 88.082857671485939, 22.479279145720177 ], [ 88.086143604482274, 22.487614649130244 ], [ 88.096621318720949, 22.487614649130244 ], [ 88.099909204532622, 22.495950343525241 ], [ 88.110387309813845, 22.495950343525241 ], [ 88.116968551834788, 22.51262230561553 ], [ 88.106489663910907, 22.51262230561553 ], [ 88.109782238418006, 22.520958573483608 ], [ 88.088823679369852, 22.520958573483608 ], [ 88.092117034144039, 22.529295032682192 ], [ 88.102596705454303, 22.529295032682192 ], [ 88.105892016139137, 22.537631683297747 ], [ 88.116372079421652, 22.537631683297747 ], [ 88.122968179552927, 22.554305559125645 ], [ 88.112487331767525, 22.554305559125645 ], [ 88.115787337654609, 22.562642784510988 ], [ 88.105306097338485, 22.562642784510988 ], [ 88.111910021999165, 22.579317810657155 ], [ 88.101427996062696, 22.579317810657155 ], [ 88.104731915222587, 22.587655611591089 ], [ 88.08376707717018, 22.587655611591089 ], [ 88.080463944189759, 22.579317810657155 ], [ 88.069981918253276, 22.579317810657155 ], [ 88.066680744387469, 22.570980201659307 ], [ 88.056199111354331, 22.570980201659307 ], [ 88.052899895757861, 22.562642784510988 ], [ 88.042418655441736, 22.562642784510988 ], [ 88.03912139726981, 22.554305559125645 ], [ 88.028640549484436, 22.554305559125645 ], [ 88.03193741512564, 22.562642784510988 ], [ 88.010974934493376, 22.562642784510988 ], [ 88.007678853913646, 22.554305559125645 ], [ 87.976236310557482, 22.554305559125645 ], [ 87.979531213545002, 22.562642784510988 ], [ 87.990012453861127, 22.562642784510988 ], [ 87.999907724960565, 22.587655611591089 ], [ 88.010390143986768, 22.587655611591089 ], [ 88.013692090718223, 22.595993604547729 ], [ 88.024174903020608, 22.595993604547729 ], [ 88.017571788570905, 22.579317810657155 ], [ 88.028053814507388, 22.579317810657155 ], [ 88.024754212254948, 22.570980201659307 ], [ 88.045717478321208, 22.570980201659307 ], [ 88.049017866380325, 22.579317810657155 ], [ 88.059499892316794, 22.579317810657155 ], [ 88.082649229032867, 22.637686452703843 ], [ 88.072164447551017, 22.637686452703843 ], [ 88.075477374082453, 22.64602559961644 ], [ 88.064992198204592, 22.64602559961644 ], [ 88.06830629959633, 22.654364939158526 ], [ 88.078791870057032, 22.654364939158526 ], [ 88.085425572237227, 22.671044196478231 ], [ 88.0959119324244, 22.671044196478231 ], [ 88.102552708559429, 22.687724225357393 ], [ 88.092065557897769, 22.687724225357393 ], [ 88.095387908224026, 22.696064529348874 ], [ 88.084900362044479, 22.696064529348874 ], [ 88.091548988475992, 22.712745716870018 ], [ 88.102037326252926, 22.712745716870018 ], [ 88.10536439491031, 22.721086600573493 ], [ 88.115853128766844, 22.721086600573493 ], [ 88.129178731695163, 22.754452070369044 ], [ 88.139669051744164, 22.754452070369044 ], [ 88.136334891628607, 22.74611041249894 ], [ 88.167804661287605, 22.74611041249894 ], [ 88.171140011891183, 22.754452070369044 ], [ 88.181630331940184, 22.754452070369044 ], [ 88.184967656145446, 22.76279392199833 ], [ 88.19545837321138, 22.76279392199833 ], [ 88.192120651989185, 22.754452070369044 ], [ 88.202610972038201, 22.754452070369044 ], [ 88.199274430946602, 22.74611041249894 ], [ 88.220254277385934, 22.74611041249894 ], [ 88.216918519678629, 22.737768948300978 ], [ 88.237897572834299, 22.737768948300978 ], [ 88.241234123825251, 22.74611041249894 ], [ 88.251724047044931, 22.74611041249894 ], [ 88.255062572283236, 22.754452070369044 ], [ 88.265552892332238, 22.754452070369044 ], [ 88.262213970264597, 22.74611041249894 ], [ 88.272703893484262, 22.74611041249894 ], [ 88.269366152567841, 22.737768948300978 ], [ 88.279855679145683, 22.737768948300978 ], [ 88.276519119275804, 22.729427677688157 ], [ 88.287008249399278, 22.729427677688157 ], [ 88.28367287047142, 22.721086600573493 ], [ 88.294161604327968, 22.721086600573493 ], [ 88.290827406237753, 22.712745716870018 ], [ 88.311804081791621, 22.712745716870018 ], [ 88.315139072041049, 22.721086600573493 ], [ 88.325627805897582, 22.721086600573493 ], [ 88.335643432802257, 22.74611041249894 ], [ 88.325153509582591, 22.74611041249894 ], [ 88.328494812626261, 22.754452070369044 ], [ 88.318004492577259, 22.754452070369044 ], [ 88.324691043119017, 22.771135967473835 ], [ 88.314199928848538, 22.771135967473835 ], [ 88.320892005107197, 22.787820640311846 ], [ 88.310400095864495, 22.787820640311846 ], [ 88.313748107405914, 22.796163267848563 ], [ 88.324240414416408, 22.796163267848563 ], [ 88.334295132845554, 22.821192315975242 ], [ 88.323801631404265, 22.821192315975242 ], [ 88.327155970802878, 22.829535720813592 ], [ 88.337649870763769, 22.829535720813592 ], [ 88.347723586606349, 22.854567102938141 ], [ 88.337228489957894, 22.854567102938141 ], [ 88.340589164941377, 22.862911286473725 ], [ 88.319598173099891, 22.862911286473725 ], [ 88.32295963426823, 22.871255664901845 ], [ 88.333455529649612, 22.871255664901845 ], [ 88.336818975680856, 22.879600238309834 ], [ 88.347315270711221, 22.879600238309834 ], [ 88.354047720783811, 22.896289970414866 ], [ 88.364544815677576, 22.896289970414866 ], [ 88.371284414553713, 22.912980483487939 ], [ 88.36078651904235, 22.912980483487939 ], [ 88.367531669375239, 22.929671778228517 ], [ 88.357032972491652, 22.929671778228517 ], [ 88.367161413174657, 22.9547101874969 ], [ 88.356661512816629, 22.9547101874969 ], [ 88.366803060715895, 22.979750359455196 ], [ 88.356301955182829, 22.979750359455196 ], [ 88.366456620081578, 23.004792296468558 ], [ 88.376958932491874, 23.004792296468558 ], [ 88.380347408450447, 23.013140001449859 ], [ 88.390850123531663, 23.013140001449859 ], [ 88.394240595850206, 23.021487902899068 ], [ 88.404743713791717, 23.021487902899068 ], [ 88.408136183339465, 23.029836000903924 ], [ 88.42914322532198, 23.029836000903924 ], [ 88.418968182132971, 23.004792296468558 ] ], [ [ 88.25985996848425, 22.687724225357393 ], [ 88.238885667160943, 22.687724225357393 ], [ 88.235559354026691, 22.679384114429464 ], [ 88.214585843364915, 22.679384114429464 ], [ 88.211261894483272, 22.671044196478231 ], [ 88.200775534296113, 22.671044196478231 ], [ 88.194133145124965, 22.654364939158526 ], [ 88.204618715585696, 22.654364939158526 ], [ 88.19798182533323, 22.637686452703843 ], [ 88.18749704385138, 22.637686452703843 ], [ 88.190814308738979, 22.64602559961644 ], [ 88.148873605227521, 22.64602559961644 ], [ 88.145557917923966, 22.637686452703843 ], [ 88.135073136442131, 22.637686452703843 ], [ 88.128447260418625, 22.621008736420155 ], [ 88.13893125366873, 22.621008736420155 ], [ 88.135620275767224, 22.612670166875603 ], [ 88.167071074010053, 22.612670166875603 ], [ 88.163760484012258, 22.604331789613688 ], [ 88.18472689554234, 22.604331789613688 ], [ 88.188038272838583, 22.612670166875603 ], [ 88.219489071081398, 22.612670166875603 ], [ 88.222803199669613, 22.621008736420155 ], [ 88.233287192919732, 22.621008736420155 ], [ 88.23660328634962, 22.629347498333992 ], [ 88.247087673622232, 22.629347498333992 ], [ 88.253725364006186, 22.64602559961644 ], [ 88.243240188128325, 22.64602559961644 ], [ 88.246560997428588, 22.654364939158526 ], [ 88.25704656788929, 22.654364939158526 ], [ 88.267019620019326, 22.679384114429464 ], [ 88.256532864688452, 22.679384114429464 ], [ 88.25985996848425, 22.687724225357393 ] ], [ [ 88.253787032300963, 22.487614649130244 ], [ 88.232831603823627, 22.487614649130244 ], [ 88.229540198832296, 22.479279145720177 ], [ 88.219062875450419, 22.479279145720177 ], [ 88.209199213473752, 22.454273780536283 ], [ 88.198723061548165, 22.454273780536283 ], [ 88.18887463014228, 22.429270131109792 ], [ 88.199349612281509, 22.429270131109792 ], [ 88.196069534315512, 22.420935962177897 ], [ 88.227493312059323, 22.420935962177897 ], [ 88.224213626411014, 22.412601983540807 ], [ 88.245162032828304, 22.412601983540807 ], [ 88.248442497221873, 22.420935962177897 ], [ 88.258917089803148, 22.420935962177897 ], [ 88.262199505116868, 22.429270131109792 ], [ 88.272674487256097, 22.429270131109792 ], [ 88.285821333442257, 22.462608711509503 ], [ 88.275344791216867, 22.462608711509503 ], [ 88.278635021298385, 22.470943833208704 ], [ 88.268158088587569, 22.470943833208704 ], [ 88.271449492359821, 22.479279145720177 ], [ 88.250494845596066, 22.479279145720177 ], [ 88.253787032300963, 22.487614649130244 ] ], [ [ 88.253001074663203, 22.379267970217292 ], [ 88.232055779522653, 22.379267970217292 ], [ 88.228783114927808, 22.370934941762041 ], [ 88.218310855804376, 22.370934941762041 ], [ 88.201972841366739, 22.329272644436397 ], [ 88.212443161029782, 22.329272644436397 ], [ 88.209179840807579, 22.320940753359377 ], [ 88.240589637783529, 22.320940753359377 ], [ 88.243854120018881, 22.329272644436397 ], [ 88.254324439681895, 22.329272644436397 ], [ 88.264128392089233, 22.354269454099718 ], [ 88.253656909304567, 22.354269454099718 ], [ 88.260199892298118, 22.370934941762041 ], [ 88.249727633174686, 22.370934941762041 ], [ 88.253001074663203, 22.379267970217292 ] ], [ [ 88.08354065290375, 22.320940753359377 ], [ 88.062600788253107, 22.320940753359377 ], [ 88.059344443941569, 22.312609051544499 ], [ 88.048874898769299, 22.312609051544499 ], [ 88.0521308559278, 22.320940753359377 ], [ 88.041660923602478, 22.320940753359377 ], [ 88.035151335941691, 22.304277538905819 ], [ 88.045620494145524, 22.304277538905819 ], [ 88.042367641593401, 22.29594621535745 ], [ 88.05283641301331, 22.29594621535745 ], [ 88.049584725470737, 22.287615080813509 ], [ 88.080989879932332, 22.287615080813509 ], [ 88.077738584475853, 22.279284135188163 ], [ 88.08820658288144, 22.279284135188163 ], [ 88.09471149869303, 22.29594621535745 ], [ 88.084242727273093, 22.29594621535745 ], [ 88.090753079458381, 22.312609051544499 ], [ 88.08028353428611, 22.312609051544499 ], [ 88.08354065290375, 22.320940753359377 ] ] ] ] } }
]
}
