{
"type": "FeatureCollection",
"name": "ghsl_5816",
"crs": { "type": "name", "properties": { "name": "urn:ogc:def:crs:OGC:1.3:CRS84" } },
"features": [
{ "type": "Feature", "properties": { "city_id": "ghsl_5816", "city_name": "London" }, "geometry": { "type": "MultiPolygon", "coordinates": [ [ [ [ 0.0, 51.774359307588441 ], [ 0.013467094760072, 51.774359307588441 ], [ 0.013463443458983, 51.75499254008038 ], [ 0.0, 51.75499254008038 ], [ 0.0, 51.745310302200338 ], [ -0.01346161937355, 51.745310302200338 ], [ -0.013454333445624, 51.706588981136257 ], [ 0.0, 51.706588981136257 ], [ 0.0, 51.69691055662183 ], [ 0.040357543688274, 51.69691055662183 ], [ 0.040352090153423, 51.68723289366406 ], [ 0.026901393435615, 51.68723289366406 ], [ 0.026897759819819, 51.677555991891346 ], [ 0.0, 51.677555991891346 ], [ 0.0, 51.667879850932415 ], [ -0.013447064138201, 51.667879850932415 ], [ -0.013443435699908, 51.648529849972242 ], [ 0.0, 51.648529849972242 ], [ 0.0, 51.638855989229747 ], [ 0.040324869094814, 51.638855989229747 ], [ 0.040330307099725, 51.648529849972242 ], [ 0.053773742799633, 51.648529849972242 ], [ 0.053780997607282, 51.658204470416308 ], [ 0.067226247009103, 51.658204470416308 ], [ 0.067235320691004, 51.667879850932415 ], [ 0.080682384829205, 51.667879850932415 ], [ 0.080671496410924, 51.658204470416308 ], [ 0.094116745812744, 51.658204470416308 ], [ 0.094104049899358, 51.648529849972242 ], [ 0.08066061419945, 51.648529849972242 ], [ 0.080638868376307, 51.629182887818665 ], [ 0.094078679772358, 51.629182887818665 ], [ 0.094066005546734, 51.619510545368989 ], [ 0.120942007131515, 51.619510545368989 ], [ 0.120925720977899, 51.609838961511088 ], [ 0.214979059516265, 51.609838961511088 ], [ 0.21500801267825, 51.619510545368989 ], [ 0.22844601347064, 51.619510545368989 ], [ 0.228415250736032, 51.609838961511088 ], [ 0.255287633175565, 51.609838961511088 ], [ 0.255184604911751, 51.580828757795274 ], [ 0.268615373591317, 51.580828757795274 ], [ 0.268579264450903, 51.57116020461303 ], [ 0.282008227673448, 51.57116020461303 ], [ 0.281970334638185, 51.561492408178182 ], [ 0.268543175845891, 51.561492408178182 ], [ 0.268507107759276, 51.551825368122643 ], [ 0.255081752371312, 51.551825368122643 ], [ 0.25504750716537, 51.542159084078605 ], [ 0.241623954156666, 51.542159084078605 ], [ 0.241591529765987, 51.532493555678506 ], [ 0.228169778112321, 51.532493555678506 ], [ 0.228139172474056, 51.522828782555045 ], [ 0.214719221152052, 51.522828782555045 ], [ 0.214690432205912, 51.513164764341219 ], [ 0.201272280193042, 51.513164764341219 ], [ 0.20124530588129, 51.503501500670254 ], [ 0.18782895215587, 51.503501500670254 ], [ 0.187778642970712, 51.484177235491174 ], [ 0.201191403182906, 51.484177235491174 ], [ 0.201164474770992, 51.474516233250846 ], [ 0.214575439755724, 51.474516233250846 ], [ 0.21454673240935, 51.464855984088985 ], [ 0.227955903184935, 51.464855984088985 ], [ 0.227925418926441, 51.455196487640073 ], [ 0.241332796510349, 51.455196487640073 ], [ 0.241300537359572, 51.445537743538992 ], [ 0.268111708177303, 51.445537743538992 ], [ 0.268147551678166, 51.455196487640073 ], [ 0.30836968442989, 51.455196487640073 ], [ 0.308328464403898, 51.445537743538992 ], [ 0.321734049812763, 51.445537743538992 ], [ 0.3216910619908, 51.435879751420764 ], [ 0.227864502243483, 51.435879751420764 ], [ 0.227834069790534, 51.426222510920752 ], [ 0.174226053369232, 51.426222510920752 ], [ 0.17420279467702, 51.416566021674527 ], [ 0.160802579701865, 51.416566021674527 ], [ 0.160824049263906, 51.426222510920752 ], [ 0.134020041053255, 51.426222510920752 ], [ 0.134002149751554, 51.416566021674527 ], [ 0.120601934776399, 51.416566021674527 ], [ 0.12056975778454, 51.397255295487156 ], [ 0.133966397538378, 51.397255295487156 ], [ 0.133912845069172, 51.368294831514341 ], [ 0.120521560562254, 51.368294831514341 ], [ 0.120505512995686, 51.358642842152889 ], [ 0.107116011551721, 51.358642842152889 ], [ 0.107101755114458, 51.348991601501687 ], [ 0.080326316335843, 51.348991601501687 ], [ 0.080337008663791, 51.358642842152889 ], [ 0.05355800577586, 51.358642842152889 ], [ 0.053565138027669, 51.368294831514341 ], [ 0.013391284506917, 51.368294831514341 ], [ 0.013389501443965, 51.358642842152889 ], [ 0.0, 51.358642842152889 ], [ 0.0, 51.329691364880844 ], [ -0.013384158301561, 51.329691364880844 ], [ -0.013385938342115, 51.339341109198365 ], [ -0.05354375336846, 51.339341109198365 ], [ -0.053536633206243, 51.329691364880844 ], [ -0.066920791507804, 51.329691364880844 ], [ -0.066911896334091, 51.320042368187337 ], [ -0.080294275600909, 51.320042368187337 ], [ -0.08028360742237, 51.310394118756264 ], [ -0.107044809896493, 51.310394118756264 ], [ -0.10703059369173, 51.30074661622632 ], [ -0.133788242114663, 51.30074661622632 ], [ -0.133806012370616, 51.310394118756264 ], [ -0.173947816081801, 51.310394118756264 ], [ -0.173970930468637, 51.320042368187337 ], [ -0.200735689002274, 51.320042368187337 ], [ -0.200709018555924, 51.310394118756264 ], [ -0.214089619792985, 51.310394118756264 ], [ -0.21406118738346, 51.30074661622632 ], [ -0.227440011594926, 51.30074661622632 ], [ -0.227409819216546, 51.291099860236478 ], [ -0.240786867405755, 51.291099860236478 ], [ -0.240850822267109, 51.310394118756264 ], [ -0.25423142350417, 51.310394118756264 ], [ -0.254265206069547, 51.320042368187337 ], [ -0.294412343870001, 51.320042368187337 ], [ -0.294529826564759, 51.348991601501687 ], [ -0.307917545954066, 51.348991601501687 ], [ -0.307958533211198, 51.358642842152889 ], [ -0.334737536099128, 51.358642842152889 ], [ -0.334692984732681, 51.348991601501687 ], [ -0.348080704121988, 51.348991601501687 ], [ -0.348219783053813, 51.377947569948581 ], [ -0.361612851632806, 51.377947569948581 ], [ -0.361661048847609, 51.387601057818479 ], [ -0.388450756169654, 51.387601057818479 ], [ -0.388502552861296, 51.397255295487156 ], [ -0.401899192615134, 51.397255295487156 ], [ -0.401952805748128, 51.406910283317963 ], [ -0.455546513181212, 51.406910283317963 ], [ -0.455485751630485, 51.397255295487156 ], [ -0.468882391384323, 51.397255295487156 ], [ -0.468944940039483, 51.406910283317963 ], [ -0.482343366897754, 51.406910283317963 ], [ -0.482407739105594, 51.416566021674527 ], [ -0.536008599006216, 51.416566021674527 ], [ -0.53608016421302, 51.426222510920752 ], [ -0.562884172423671, 51.426222510920752 ], [ -0.562809028956527, 51.416566021674527 ], [ -0.576209243931682, 51.416566021674527 ], [ -0.576286176528997, 51.426222510920752 ], [ -0.589688180634322, 51.426222510920752 ], [ -0.589766946983132, 51.435879751420764 ], [ -0.509344181485433, 51.435879751420764 ], [ -0.509412245536875, 51.445537743538992 ], [ -0.49600666012801, 51.445537743538992 ], [ -0.496205704435113, 51.474516233250846 ], [ -0.48279473945038, 51.474516233250846 ], [ -0.483183059531973, 51.532493555678506 ], [ -0.496604811185639, 51.532493555678506 ], [ -0.496671461322036, 51.542159084078605 ], [ -0.483247908313333, 51.542159084078605 ], [ -0.483377716522603, 51.561492408178182 ], [ -0.469950557730309, 51.561492408178182 ], [ -0.47001371278908, 51.57116020461303 ], [ -0.456584749566535, 51.57116020461303 ], [ -0.456646135105239, 51.580828757795274 ], [ -0.443215366425674, 51.580828757795274 ], [ -0.443274980418864, 51.590498068093247 ], [ -0.429842405254656, 51.590498068093247 ], [ -0.429958119032531, 51.609838961511088 ], [ -0.443394310252297, 51.609838961511088 ], [ -0.443573560042954, 51.638855989229747 ], [ -0.457015183074558, 51.638855989229747 ], [ -0.457138479661901, 51.658204470416308 ], [ -0.44369323026008, 51.658204470416308 ], [ -0.443753116560627, 51.667879850932415 ], [ -0.430306052422426, 51.667879850932415 ], [ -0.430538670259976, 51.706588981136257 ], [ -0.390175669923104, 51.706588981136257 ], [ -0.390122922319986, 51.69691055662183 ], [ -0.376670407757228, 51.69691055662183 ], [ -0.376517795869623, 51.667879850932415 ], [ -0.363070731731422, 51.667879850932415 ], [ -0.363021733849156, 51.658204470416308 ], [ -0.349576484447336, 51.658204470416308 ], [ -0.349529328197617, 51.648529849972242 ], [ -0.336085892497708, 51.648529849972242 ], [ -0.336040575790116, 51.638855989229747 ], [ -0.322598952758512, 51.638855989229747 ], [ -0.322555473505228, 51.629182887818665 ], [ -0.241916605128921, 51.629182887818665 ], [ -0.241949214568884, 51.638855989229747 ], [ -0.228507591537279, 51.638855989229747 ], [ -0.22856923983095, 51.658204470416308 ], [ -0.147897743420027, 51.658204470416308 ], [ -0.147877792698992, 51.648529849972242 ], [ -0.120990921299175, 51.648529849972242 ], [ -0.121007244616385, 51.658204470416308 ], [ -0.107561995214565, 51.658204470416308 ], [ -0.107576513105606, 51.667879850932415 ], [ -0.067235320691004, 51.667879850932415 ], [ -0.067244399549547, 51.677555991891346 ], [ -0.053795519639637, 51.677555991891346 ], [ -0.053810058251033, 51.69691055662183 ], [ -0.067262572813791, 51.69691055662183 ], [ -0.067280766836353, 51.716268167579102 ], [ -0.080736920203623, 51.716268167579102 ], [ -0.080747845971375, 51.725948116322449 ], [ -0.040373922985687, 51.725948116322449 ], [ -0.0403793889911, 51.735628827738644 ], [ -0.026919592660733, 51.735628827738644 ], [ -0.026934189520144, 51.774359307588441 ], [ -0.013467094760072, 51.774359307588441 ], [ -0.013468921977471, 51.784043837963594 ], [ 0.0, 51.784043837963594 ], [ 0.0, 51.774359307588441 ] ] ] ] } }
]
}
