{
"type": "FeatureCollection",
"name": "ghsl_7277",
"crs": { "type": "name", "properties": { "name": "urn:ogc:def:crs:OGC:1.3:CRS84" } },
"features": [
{ "type": "Feature", "properties": { "city_id": "ghsl_7277", "city_name": "São Paulo" }, "geometry": { "type": "MultiPolygon", "coordinates": [ [ [ [ -46.438020678093061, -23.380634772080626 ], [ -46.427500057187281, -23.380634772080626 ], [ -46.429314905952033, -23.388991405288007 ], [ -46.387230777326643, -23.388991405288007 ], [ -46.389044827727915, -23.397348238933308 ], [ -46.378523384128982, -23.397348238933308 ], [ -46.380337869799121, -23.405705273105283 ], [ -46.369816014565494, -23.405705273105283 ], [ -46.37163093538512, -23.414062507892687 ], [ -46.361108668324668, -23.414062507892687 ], [ -46.36292402417439, -23.422419943384323 ], [ -46.320833307856489, -23.422419943384323 ], [ -46.319019600082896, -23.414062507892687 ], [ -46.308497333022444, -23.414062507892687 ], [ -46.31031062877701, -23.422419943384323 ], [ -46.299787949697532, -23.422419943384323 ], [ -46.301601679401486, -23.430777579668984 ], [ -46.291078588110722, -23.430777579668984 ], [ -46.294707761484027, -23.447493454972758 ], [ -46.284183845193617, -23.447493454972758 ], [ -46.285999288816022, -23.455851694169606 ], [ -46.27547495973716, -23.455851694169606 ], [ -46.280925132010218, -23.480927619006859 ], [ -46.27039956341072, -23.480927619006859 ], [ -46.27221756808531, -23.489286663331345 ], [ -46.261691585926968, -23.489286663331345 ], [ -46.263510024171531, -23.497645909160163 ], [ -46.274036420081465, -23.497645909160163 ], [ -46.277676667103009, -23.514365005686891 ], [ -46.288203891094611, -23.514365005686891 ], [ -46.291848359451052, -23.531084909299445 ], [ -46.281320306606055, -23.531084909299445 ], [ -46.283143399204775, -23.539445163985626 ], [ -46.230501061398584, -23.539445163985626 ], [ -46.228680042381072, -23.531084909299445 ], [ -46.218151989536075, -23.531084909299445 ], [ -46.21269526053927, -23.506005356582332 ], [ -46.20216845068493, -23.506005356582332 ], [ -46.200351648711909, -23.497645909160163 ], [ -46.189825252801981, -23.497645909160163 ], [ -46.188009710818548, -23.489286663331345 ], [ -46.166957746501858, -23.489286663331345 ], [ -46.17240442718694, -23.514365005686891 ], [ -46.161877203195345, -23.514365005686891 ], [ -46.16369404112119, -23.522724856562895 ], [ -46.153166402799386, -23.522724856562895 ], [ -46.158620751077081, -23.547805620710594 ], [ -46.179678516018264, -23.547805620710594 ], [ -46.18149915570023, -23.556166279563488 ], [ -46.192028453273352, -23.556166279563488 ], [ -46.193850355773918, -23.564527140633484 ], [ -46.204380068642799, -23.564527140633484 ], [ -46.208027249031517, -23.581249469781625 ], [ -46.229088337112202, -23.581249469781625 ], [ -46.230914031990807, -23.589610938038227 ], [ -46.241444991906981, -23.589610938038227 ], [ -46.23596920724944, -23.564527140633484 ], [ -46.246498920118313, -23.564527140633484 ], [ -46.244674941138946, -23.556166279563488 ], [ -46.276262833858304, -23.556166279563488 ], [ -46.278088058724954, -23.564527140633484 ], [ -46.288617771593835, -23.564527140633484 ], [ -46.290444261478889, -23.572888204009793 ], [ -46.343094903268558, -23.572888204009793 ], [ -46.341266335938229, -23.564527140633484 ], [ -46.362325761675983, -23.564527140633484 ], [ -46.364155159984421, -23.572888204009793 ], [ -46.374685288342363, -23.572888204009793 ], [ -46.380179840031438, -23.597972608868883 ], [ -46.390711216016918, -23.597972608868883 ], [ -46.394379344461761, -23.614696558609513 ], [ -46.404911553166514, -23.614696558609513 ], [ -46.408583927402852, -23.631421319718129 ], [ -46.419116969601539, -23.631421319718129 ], [ -46.422793593334781, -23.648146892909732 ], [ -46.412259716867034, -23.648146892909732 ], [ -46.414098892983986, -23.656509984260179 ], [ -46.403564599090892, -23.656509984260179 ], [ -46.407244680012234, -23.673236776917658 ], [ -46.396709550686467, -23.673236776917658 ], [ -46.398550455449374, -23.681600478403652 ], [ -46.377479360782957, -23.681600478403652 ], [ -46.388537730425433, -23.731786965162932 ], [ -46.377999670968265, -23.731786965162932 ], [ -46.379845308596053, -23.740152093433014 ], [ -46.369306829771105, -23.740152093433014 ], [ -46.371152904191, -23.74851742588795 ], [ -46.381691802578324, -23.74851742588795 ], [ -46.383539153186838, -23.756882962617457 ], [ -46.394078471331163, -23.756882962617457 ], [ -46.395927098789599, -23.765248703711276 ], [ -46.406466836885635, -23.765248703711276 ], [ -46.408316741855636, -23.773614649259152 ], [ -46.41885690009817, -23.773614649259152 ], [ -46.415157107619819, -23.756882962617457 ], [ -46.404617789475488, -23.756882962617457 ], [ -46.400922266245949, -23.740152093433014 ], [ -46.411460745070897, -23.740152093433014 ], [ -46.409613849339756, -23.731786965162932 ], [ -46.430689968254072, -23.731786965162932 ], [ -46.428843090842861, -23.72342204098803 ], [ -46.439380731126761, -23.72342204098803 ], [ -46.437534291520528, -23.715057320818637 ], [ -46.448071512825621, -23.715057320818637 ], [ -46.446225511141641, -23.706692804565108 ], [ -46.488372721224337, -23.706692804565108 ], [ -46.490220398045963, -23.715057320818637 ], [ -46.500757619351056, -23.715057320818637 ], [ -46.502606572830132, -23.72342204098803 ], [ -46.513144213114032, -23.72342204098803 ], [ -46.522403955942131, -23.765248703711276 ], [ -46.543483432134224, -23.765248703711276 ], [ -46.541628925351752, -23.756882962617457 ], [ -46.57324687978474, -23.756882962617457 ], [ -46.575102646422359, -23.765248703711276 ], [ -46.585642384518401, -23.765248703711276 ], [ -46.591216110605941, -23.790347154076255 ], [ -46.612298108846026, -23.790347154076255 ], [ -46.610438497750948, -23.78198079935088 ], [ -46.620979076334791, -23.78198079935088 ], [ -46.619119906706231, -23.773614649259152 ], [ -46.629660064948752, -23.773614649259152 ], [ -46.627801336902579, -23.765248703711276 ], [ -46.638341074998621, -23.765248703711276 ], [ -46.636482788650703, -23.756882962617457 ], [ -46.647022106795035, -23.756882962617457 ], [ -46.648880813094671, -23.765248703711276 ], [ -46.659420551190713, -23.765248703711276 ], [ -46.661280539676333, -23.773614649259152 ], [ -46.671820697918868, -23.773614649259152 ], [ -46.67554410356631, -23.790347154076255 ], [ -46.707167100926448, -23.790347154076255 ], [ -46.709031360683767, -23.798713713525107 ], [ -46.719572780534968, -23.798713713525107 ], [ -46.721438325329558, -23.807080477787295 ], [ -46.731980166106922, -23.807080477787295 ], [ -46.73384699660383, -23.815447446952685 ], [ -46.744389258502466, -23.815447446952685 ], [ -46.740655620237376, -23.798713713525107 ], [ -46.751197040088584, -23.798713713525107 ], [ -46.749331097406639, -23.790347154076255 ], [ -46.738790098286586, -23.790347154076255 ], [ -46.733198717863026, -23.765248703711276 ], [ -46.722658979766983, -23.765248703711276 ], [ -46.717076630994391, -23.740152093433014 ], [ -46.72761510981934, -23.740152093433014 ], [ -46.722039266757889, -23.715057320818637 ], [ -46.732576488062982, -23.715057320818637 ], [ -46.734434659075831, -23.72342204098803 ], [ -46.755509939643616, -23.72342204098803 ], [ -46.757369811426088, -23.731786965162932 ], [ -46.767907870883256, -23.731786965162932 ], [ -46.773493924526967, -23.756882962617457 ], [ -46.784033242671292, -23.756882962617457 ], [ -46.785897408343246, -23.765248703711276 ], [ -46.817516622631381, -23.765248703711276 ], [ -46.811922940418924, -23.740152093433014 ], [ -46.801384461593983, -23.740152093433014 ], [ -46.797660500779202, -23.72342204098803 ], [ -46.808198141063095, -23.72342204098803 ], [ -46.806337037198588, -23.715057320818637 ], [ -46.837948701113852, -23.715057320818637 ], [ -46.83981106191478, -23.72342204098803 ], [ -46.85034870219868, -23.72342204098803 ], [ -46.854076855718716, -23.740152093433014 ], [ -46.864615334543657, -23.740152093433014 ], [ -46.860886342482573, -23.72342204098803 ], [ -46.871423982766466, -23.72342204098803 ], [ -46.862114538110539, -23.681600478403652 ], [ -46.872650085443752, -23.681600478403652 ], [ -46.863360142257122, -23.639784004758859 ], [ -46.85282668302083, -23.639784004758859 ], [ -46.847264318766378, -23.614696558609513 ], [ -46.857796527471145, -23.614696558609513 ], [ -46.855943712762674, -23.606334482362868 ], [ -46.877007297259304, -23.606334482362868 ], [ -46.878860944880664, -23.614696558609513 ], [ -46.910457570994936, -23.614696558609513 ], [ -46.91231333054931, -23.623058837698146 ], [ -46.922845955904172, -23.623058837698146 ], [ -46.924702995138382, -23.631421319718129 ], [ -46.935236037337063, -23.631421319718129 ], [ -46.937094356911153, -23.639784004758859 ], [ -46.958161275383738, -23.639784004758859 ], [ -46.95444383196876, -23.623058837698146 ], [ -46.964976457323608, -23.623058837698146 ], [ -46.96126163524584, -23.606334482362868 ], [ -46.94019805074921, -23.606334482362868 ], [ -46.938342767261609, -23.597972608868883 ], [ -46.92781139127613, -23.597972608868883 ], [ -46.924104243774934, -23.581249469781625 ], [ -46.934634787815277, -23.581249469781625 ], [ -46.932782091312873, -23.572888204009793 ], [ -46.964372476386679, -23.572888204009793 ], [ -46.960667176111052, -23.556166279563488 ], [ -46.971196473684167, -23.556166279563488 ], [ -46.969344701312693, -23.547805620710594 ], [ -46.979873583783288, -23.547805620710594 ], [ -46.978022258246519, -23.539445163985626 ], [ -46.999079193369006, -23.539445163985626 ], [ -46.997227900065845, -23.531084909299445 ], [ -46.944587635840854, -23.531084909299445 ], [ -46.942739276934866, -23.522724856562895 ], [ -46.932211638613062, -23.522724856562895 ], [ -46.928518330634184, -23.506005356582332 ], [ -46.917991520779843, -23.506005356582332 ], [ -46.9161465705876, -23.497645909160163 ], [ -46.905620174677665, -23.497645909160163 ], [ -46.900091719792599, -23.47256877609772 ], [ -46.910616875025944, -23.47256877609772 ], [ -46.908775360611791, -23.46421013451495 ], [ -46.89825061855197, -23.46421013451495 ], [ -46.894570990037003, -23.447493454972758 ], [ -46.873523157456198, -23.447493454972758 ], [ -46.875361717232053, -23.455851694169606 ], [ -46.864837388153191, -23.455851694169606 ], [ -46.866676392372511, -23.46421013451495 ], [ -46.835102166193053, -23.46421013451495 ], [ -46.836940788392518, -23.47256877609772 ], [ -46.826415633159179, -23.47256877609772 ], [ -46.82825469918432, -23.480927619006859 ], [ -46.807203561985318, -23.480927619006859 ], [ -46.805365322692474, -23.47256877609772 ], [ -46.773789856992444, -23.47256877609772 ], [ -46.771953713834151, -23.46421013451495 ], [ -46.761428971774336, -23.46421013451495 ], [ -46.754094604904736, -23.430777579668984 ], [ -46.733048422323186, -23.430777579668984 ], [ -46.731217791956084, -23.422419943384323 ], [ -46.720695112876605, -23.422419943384323 ], [ -46.718865748379841, -23.414062507892687 ], [ -46.708343481319382, -23.414062507892687 ], [ -46.710172433797126, -23.422419943384323 ], [ -46.699649754717647, -23.422419943384323 ], [ -46.701479148450872, -23.430777579668984 ], [ -46.690956057160101, -23.430777579668984 ], [ -46.692785892031388, -23.439135416835505 ], [ -46.682262388336987, -23.439135416835505 ], [ -46.684092664228942, -23.447493454972758 ], [ -46.620949166486525, -23.447493454972758 ], [ -46.619121366170617, -23.439135416835505 ], [ -46.60859786247623, -23.439135416835505 ], [ -46.606771326833915, -23.430777579668984 ], [ -46.596248235543143, -23.430777579668984 ], [ -46.592598543654482, -23.414062507892687 ], [ -46.582076276594037, -23.414062507892687 ], [ -46.583900284843402, -23.422419943384323 ], [ -46.562854926684452, -23.422419943384323 ], [ -46.561031742473148, -23.414062507892687 ], [ -46.550509475412703, -23.414062507892687 ], [ -46.548687553537043, -23.405705273105283 ], [ -46.538165698303423, -23.405705273105283 ], [ -46.536345038113083, -23.397348238933308 ], [ -46.525823594514144, -23.397348238933308 ], [ -46.524004195359133, -23.388991405288007 ], [ -46.513483163202785, -23.388991405288007 ], [ -46.515302150915204, -23.397348238933308 ], [ -46.473216376519446, -23.397348238933308 ], [ -46.471399034577416, -23.388991405288007 ], [ -46.460878002421069, -23.388991405288007 ], [ -46.457246685106171, -23.372278339222465 ], [ -46.436206265411833, -23.372278339222465 ], [ -46.438020678093061, -23.380634772080626 ] ], [ [ -46.865903497952971, -23.556166279563488 ], [ -46.897491390672336, -23.556166279563488 ], [ -46.89934111798884, -23.564527140633484 ], [ -46.90987083085772, -23.564527140633484 ], [ -46.913573699734592, -23.581249469781625 ], [ -46.903043155694242, -23.581249469781625 ], [ -46.904895466625753, -23.589610938038227 ], [ -46.873302586877244, -23.589610938038227 ], [ -46.871451523573207, -23.581249469781625 ], [ -46.860920979532864, -23.581249469781625 ], [ -46.857222266513311, -23.564527140633484 ], [ -46.867751979382199, -23.564527140633484 ], [ -46.865903497952971, -23.556166279563488 ] ] ] ] } }
]
}
