{
"type": "FeatureCollection",
"name": "ghsl_6090",
"crs": { "type": "name", "properties": { "name": "urn:ogc:def:crs:OGC:1.3:CRS84" } },
"features": [
{ "type": "Feature", "properties": { "city_id": "ghsl_6090", "city_name": "Dhaka" }, "geometry": { "type": "MultiPolygon", "coordinates": [ [ [ [ 90.377131312345554, 24.342983532058668 ], [ 90.387700500898035, 24.342983532058668 ], [ 90.383992883925757, 24.334603471766066 ], [ 90.394561638940232, 24.334603471766066 ], [ 90.387150645309077, 24.317843982929535 ], [ 90.39771853384471, 24.317843982929535 ], [ 90.394015156676318, 24.309464554202858 ], [ 90.404582612270985, 24.309464554202858 ], [ 90.400880503547782, 24.301085335815454 ], [ 90.422014549252893, 24.301085335815454 ], [ 90.410915831809945, 24.275948941775862 ], [ 90.421481557628795, 24.275948941775862 ], [ 90.417784953087505, 24.267570563832674 ], [ 90.428350246959099, 24.267570563832674 ], [ 90.424654909892311, 24.259192395772423 ], [ 90.445784634138107, 24.259192395772423 ], [ 90.431016819055372, 24.225681820537552 ], [ 90.441579956167743, 24.225681820537552 ], [ 90.437891815683258, 24.217304700524707 ], [ 90.459017228394217, 24.217304700524707 ], [ 90.455329923508785, 24.208927789848047 ], [ 90.487016750899059, 24.208927789848047 ], [ 90.483329851495654, 24.200551088416521 ], [ 90.493891696931797, 24.200551088416521 ], [ 90.490206063975151, 24.192174596139107 ], [ 90.469083233427995, 24.192174596139107 ], [ 90.465400156659413, 24.183798312924807 ], [ 90.454839171350429, 24.183798312924807 ], [ 90.440125529830468, 24.150295268879695 ], [ 90.429566262401437, 24.150295268879695 ], [ 90.414881422467531, 24.116795562571056 ], [ 90.404323869755885, 24.116795562571056 ], [ 90.39699245143882, 24.100046959251362 ], [ 90.407549147976425, 24.100046959251362 ], [ 90.392904868168927, 24.066552248651544 ], [ 90.403459854725213, 24.066552248651544 ], [ 90.399802577345483, 24.058179090480877 ], [ 90.410357136899179, 24.058179090480877 ], [ 90.406701119655267, 24.049806139920673 ], [ 90.427809385151335, 24.049806139920673 ], [ 90.424154201286129, 24.041433396880336 ], [ 90.434707907425405, 24.041433396880336 ], [ 90.431053983596343, 24.033060861269313 ], [ 90.441607263323675, 24.033060861269313 ], [ 90.437954599382664, 24.024688532997065 ], [ 90.46961315991922, 24.024688532997065 ], [ 90.462310333251367, 24.007944498106838 ], [ 90.451758331579455, 24.007944498106838 ], [ 90.42989283150186, 23.957717360157996 ], [ 90.440442282368821, 23.957717360157996 ], [ 90.436803497468887, 23.949346893864362 ], [ 90.489548629568176, 23.949346893864362 ], [ 90.493189536703568, 23.957717360157996 ], [ 90.514288438437475, 23.957717360157996 ], [ 90.510646682407909, 23.949346893864362 ], [ 90.500097655988043, 23.949346893864362 ], [ 90.492820040288507, 23.932606580490905 ], [ 90.482271862174471, 23.932606580490905 ], [ 90.478636000839998, 23.924236733230547 ], [ 90.468088246584827, 23.924236733230547 ], [ 90.464454489771356, 23.915867092134118 ], [ 90.453907159179096, 23.915867092134118 ], [ 90.443017237155829, 23.890759404926506 ], [ 90.453563297934423, 23.890759404926506 ], [ 90.449936258401934, 23.882390587583998 ], [ 90.460481896300777, 23.882390587583998 ], [ 90.456856112064344, 23.87402197595463 ], [ 90.467401327279092, 23.87402197595463 ], [ 90.463776798194544, 23.865653569948318 ], [ 90.474321590920752, 23.865653569948318 ], [ 90.470698316844036, 23.857285369474997 ], [ 90.460153946410827, 23.857285369474997 ], [ 90.438452029106998, 23.807080477787295 ], [ 90.448993869884376, 23.807080477787295 ], [ 90.44538232332809, 23.798713713525107 ], [ 90.466465163030477, 23.798713713525107 ], [ 90.470077551439118, 23.807080477787295 ], [ 90.501703073771253, 23.807080477787295 ], [ 90.498089422584101, 23.798713713525107 ], [ 90.487548002732893, 23.798713713525107 ], [ 90.483936446479944, 23.790347154076255 ], [ 90.473395447359906, 23.790347154076255 ], [ 90.466178195627293, 23.773614649259152 ], [ 90.476718353869813, 23.773614649259152 ], [ 90.473111816449304, 23.765248703711276 ], [ 90.494191292641403, 23.765248703711276 ], [ 90.497798670354882, 23.773614649259152 ], [ 90.508338828597417, 23.773614649259152 ], [ 90.522786755326024, 23.807080477787295 ], [ 90.533328596103374, 23.807080477787295 ], [ 90.540563450530641, 23.823814621111179 ], [ 90.530020767315634, 23.823814621111179 ], [ 90.548135140004263, 23.865653569948318 ], [ 90.537590347278041, 23.865653569948318 ], [ 90.541217833782284, 23.87402197595463 ], [ 90.53067261856755, 23.87402197595463 ], [ 90.534301361592711, 23.882390587583998 ], [ 90.544846999491568, 23.882390587583998 ], [ 90.55211037066897, 23.89912842807227 ], [ 90.541563886814941, 23.89912842807227 ], [ 90.548833134509394, 23.915867092134118 ], [ 90.538285803917134, 23.915867092134118 ], [ 90.54556093085867, 23.932606580490905 ], [ 90.535012752744635, 23.932606580490905 ], [ 90.538652415749112, 23.940976634005427 ], [ 90.528103813580202, 23.940976634005427 ], [ 90.539031628890328, 23.966088032976621 ], [ 90.528481753380106, 23.966088032976621 ], [ 90.532127301593917, 23.974458912410562 ], [ 90.521577001244111, 23.974458912410562 ], [ 90.525223809099728, 23.982829998550166 ], [ 90.514673083714044, 23.982829998550166 ], [ 90.518321151358577, 23.991201291485819 ], [ 90.507770000740621, 23.991201291485819 ], [ 90.511419328321324, 23.999572791307902 ], [ 90.521970904368004, 23.999572791307902 ], [ 90.532930280992304, 24.024688532997065 ], [ 90.543483134504484, 24.024688532997065 ], [ 90.547140060597101, 24.033060861269313 ], [ 90.557693340324448, 24.033060861269313 ], [ 90.565013110875768, 24.049806139920673 ], [ 90.554458978127741, 24.049806139920673 ], [ 90.558120970650833, 24.058179090480877 ], [ 90.56867553020453, 24.058179090480877 ], [ 90.572339639626065, 24.066552248651544 ], [ 90.582894626182352, 24.066552248651544 ], [ 90.586560853439806, 24.07492561452327 ], [ 90.59711626719573, 24.07492561452327 ], [ 90.600784613227162, 24.083299188186714 ], [ 90.611340454379828, 24.083299188186714 ], [ 90.618683078728338, 24.100046959251362 ], [ 90.629239775265944, 24.100046959251362 ], [ 90.63659002941192, 24.116795562571056 ], [ 90.647147582123566, 24.116795562571056 ], [ 90.6508256793485, 24.125170176553382 ], [ 90.661383660443249, 24.125170176553382 ], [ 90.657705134835211, 24.116795562571056 ], [ 90.668262687546829, 24.116795562571056 ], [ 90.664585428842472, 24.108421156833963 ], [ 90.696256802420322, 24.108421156833963 ], [ 90.699935345681752, 24.116795562571056 ], [ 90.710492898393397, 24.116795562571056 ], [ 90.706813926946282, 24.108421156833963 ], [ 90.717371051472227, 24.108421156833963 ], [ 90.710017338842462, 24.091672969732521 ], [ 90.699461070095936, 24.091672969732521 ], [ 90.703136651029126, 24.100046959251362 ], [ 90.682023257953915, 24.100046959251362 ], [ 90.678348532602897, 24.091672969732521 ], [ 90.66779226385637, 24.091672969732521 ], [ 90.653112006634032, 24.058179090480877 ], [ 90.663666566187715, 24.058179090480877 ], [ 90.656335736350115, 24.041433396880336 ], [ 90.666889442489406, 24.041433396880336 ], [ 90.66322613759786, 24.033060861269313 ], [ 90.673779417325207, 24.033060861269313 ], [ 90.662798365017579, 24.007944498106838 ], [ 90.67335036668949, 24.007944498106838 ], [ 90.669692969021369, 23.999572791307902 ], [ 90.680244545068007, 23.999572791307902 ], [ 90.67293396449918, 23.982829998550166 ], [ 90.683484689884864, 23.982829998550166 ], [ 90.679831506491041, 23.974458912410562 ], [ 90.711482407540444, 23.974458912410562 ], [ 90.715136866041888, 23.982829998550166 ], [ 90.725687591427558, 23.982829998550166 ], [ 90.729344163717499, 23.991201291485819 ], [ 90.739895314335428, 23.991201291485819 ], [ 90.736238316813228, 23.982829998550166 ], [ 90.746789042198898, 23.982829998550166 ], [ 90.739479263584911, 23.966088032976621 ], [ 90.750029139095162, 23.966088032976621 ], [ 90.742725263644843, 23.949346893864362 ], [ 90.753274290064709, 23.949346893864362 ], [ 90.749624459127304, 23.940976634005427 ], [ 90.770721663465125, 23.940976634005427 ], [ 90.774372342904442, 23.949346893864362 ], [ 90.78492136932428, 23.949346893864362 ], [ 90.770327076946742, 23.915867092134118 ], [ 90.728137754577716, 23.915867092134118 ], [ 90.724495091213612, 23.907497657111424 ], [ 90.71394818408838, 23.907497657111424 ], [ 90.703031567974236, 23.882390587583998 ], [ 90.713577205873094, 23.882390587583998 ], [ 90.709941277218164, 23.87402197595463 ], [ 90.699396062003416, 23.87402197595463 ], [ 90.688499634777202, 23.848917374444625 ], [ 90.699043583112839, 23.848917374444625 ], [ 90.695414380576977, 23.840549584767192 ], [ 90.727044959877347, 23.840549584767192 ], [ 90.723416172411135, 23.832182000352702 ], [ 90.744502381864336, 23.832182000352702 ], [ 90.737248161463839, 23.815447446952685 ], [ 90.747790423362474, 23.815447446952685 ], [ 90.744165411650897, 23.807080477787295 ], [ 90.754707252428275, 23.807080477787295 ], [ 90.751083499012992, 23.798713713525107 ], [ 90.772166338715408, 23.798713713525107 ], [ 90.775790933983032, 23.807080477787295 ], [ 90.796874615537774, 23.807080477787295 ], [ 90.800501732855579, 23.815447446952685 ], [ 90.811043994754215, 23.815447446952685 ], [ 90.81830411495055, 23.832182000352702 ], [ 90.807761010223942, 23.832182000352702 ], [ 90.81139317134496, 23.840549584767192 ], [ 90.821936697778426, 23.840549584767192 ], [ 90.825570963140436, 23.848917374444625 ], [ 90.836114911476074, 23.848917374444625 ], [ 90.839751282005992, 23.857285369474997 ], [ 90.850295652439186, 23.857285369474997 ], [ 90.85393412906447, 23.865653569948318 ], [ 90.8750237145169, 23.865653569948318 ], [ 90.871384393305576, 23.857285369474997 ], [ 90.88192876373877, 23.857285369474997 ], [ 90.871019638583562, 23.832182000352702 ], [ 90.881562743310155, 23.832182000352702 ], [ 90.877929313411059, 23.823814621111179 ], [ 90.899014679841088, 23.823814621111179 ], [ 90.895382089943212, 23.815447446952685 ], [ 90.905924351841833, 23.815447446952685 ], [ 90.902293023311529, 23.807080477787295 ], [ 90.891751182534165, 23.807080477787295 ], [ 90.884494413041722, 23.790347154076255 ], [ 90.895035412161747, 23.790347154076255 ], [ 90.887784525328456, 23.773614649259152 ], [ 90.898324683570976, 23.773614649259152 ], [ 90.883841386351378, 23.740152093433014 ], [ 90.894379865176305, 23.740152093433014 ], [ 90.890762818018942, 23.731786965162932 ], [ 90.911838936933265, 23.731786965162932 ], [ 90.908222729165104, 23.72342204098803 ], [ 90.918760369448989, 23.72342204098803 ], [ 90.915145420294792, 23.715057320818637 ], [ 90.925682641599863, 23.715057320818637 ], [ 90.922068950916781, 23.706692804565108 ], [ 90.953679358478809, 23.706692804565108 ], [ 90.957294305515148, 23.715057320818637 ], [ 90.96783152682022, 23.715057320818637 ], [ 90.971448570868461, 23.72342204098803 ], [ 90.981986211152361, 23.72342204098803 ], [ 90.992848676087533, 23.74851742588795 ], [ 91.035004269636801, 23.74851742588795 ], [ 91.038630130703908, 23.756882962617457 ], [ 91.049169448848247, 23.756882962617457 ], [ 91.041918568725592, 23.740152093433014 ], [ 91.052457047550547, 23.740152093433014 ], [ 91.048833709876362, 23.731786965162932 ], [ 91.069909828790671, 23.731786965162932 ], [ 91.066287333423517, 23.72342204098803 ], [ 91.076824973707403, 23.72342204098803 ], [ 91.07320373987109, 23.715057320818637 ], [ 91.094278182481276, 23.715057320818637 ], [ 91.090657791247622, 23.706692804565108 ], [ 91.101194593768284, 23.706692804565108 ], [ 91.097575463972376, 23.698328492137822 ], [ 91.118648231833561, 23.698328492137822 ], [ 91.122268198809635, 23.706692804565108 ], [ 91.153878606371677, 23.706692804565108 ], [ 91.146637841540539, 23.689964383447201 ], [ 91.167709772610124, 23.689964383447201 ], [ 91.153245056965588, 23.656509984260179 ], [ 91.16377935085869, 23.656509984260179 ], [ 91.152947187413602, 23.631421319718129 ], [ 91.163480229612276, 23.631421319718129 ], [ 91.156266339685928, 23.614696558609513 ], [ 91.166798548390688, 23.614696558609513 ], [ 91.159590530270691, 23.597972608868883 ], [ 91.170121906256171, 23.597972608868883 ], [ 91.166519994292599, 23.589610938038227 ], [ 91.177050954208767, 23.589610938038227 ], [ 91.173450301302381, 23.581249469781625 ], [ 91.183980845342717, 23.581249469781625 ], [ 91.176783731626699, 23.564527140633484 ], [ 91.187313444495587, 23.564527140633484 ], [ 91.183716983211127, 23.556166279563488 ], [ 91.194246280784256, 23.556166279563488 ], [ 91.19065107780078, 23.547805620710594 ], [ 91.201179960271375, 23.547805620710594 ], [ 91.193993743362526, 23.531084909299445 ], [ 91.204521796207516, 23.531084909299445 ], [ 91.193753768121113, 23.506005356582332 ], [ 91.204280577975453, 23.506005356582332 ], [ 91.197109419902446, 23.489286663331345 ], [ 91.207635402060774, 23.489286663331345 ], [ 91.204051914684669, 23.480927619006859 ], [ 91.225103051883679, 23.480927619006859 ], [ 91.221520407415269, 23.47256877609772 ], [ 91.232045562648622, 23.47256877609772 ], [ 91.22846417450819, 23.46421013451495 ], [ 91.249513658627833, 23.46421013451495 ], [ 91.245933113695983, 23.455851694169606 ], [ 91.256457442774831, 23.455851694169606 ], [ 91.252878154086829, 23.447493454972758 ], [ 91.263402070377225, 23.447493454972758 ], [ 91.259824037794957, 23.439135416835505 ], [ 91.270347541489343, 23.439135416835505 ], [ 91.263195656301534, 23.422419943384323 ], [ 91.273718335381005, 23.422419943384323 ], [ 91.270144482307813, 23.414062507892687 ], [ 91.280666749368265, 23.414062507892687 ], [ 91.277094151657749, 23.405705273105283 ], [ 91.26657229642413, 23.405705273105283 ], [ 91.259432924139574, 23.388991405288007 ], [ 91.269953956295922, 23.388991405288007 ], [ 91.266386357602485, 23.380634772080626 ], [ 91.287427599414016, 23.380634772080626 ], [ 91.276732327837976, 23.355566074199007 ], [ 91.287251716143587, 23.355566074199007 ], [ 91.283689544071208, 23.347210241856384 ], [ 91.304727499716307, 23.347210241856384 ], [ 91.290492164147494, 23.313788911545601 ], [ 91.301009501954425, 23.313788911545601 ], [ 91.297454415090613, 23.305434078289963 ], [ 91.307971343372486, 23.305434078289963 ], [ 91.297314823945953, 23.280370775479724 ], [ 91.307830524801048, 23.280370775479724 ], [ 91.304281264422045, 23.272016739900284 ], [ 91.31479655651745, 23.272016739900284 ], [ 91.311248547661506, 23.263662903518782 ], [ 91.321763431188415, 23.263662903518782 ], [ 91.314671575696579, 23.246955827995993 ], [ 91.325185642659818, 23.246955827995993 ], [ 91.318099607073137, 23.230249548204416 ], [ 91.328612858236752, 23.230249548204416 ], [ 91.31799501695437, 23.205191618967511 ], [ 91.328507045850074, 23.205191618967511 ], [ 91.317902894630464, 23.180135476152905 ], [ 91.328413702974686, 23.180135476152905 ], [ 91.317823231387976, 23.155081117379243 ], [ 91.328332820895554, 23.155081117379243 ], [ 91.324805566561921, 23.146730060496896 ], [ 91.335314750171435, 23.146730060496896 ], [ 91.328264390918889, 23.130028540266959 ], [ 91.338772763303083, 23.130028540266959 ], [ 91.335249657932209, 23.121678076743258 ], [ 91.303725756761736, 23.121678076743258 ], [ 91.300205519366656, 23.113327810829716 ], [ 91.289697957447046, 23.113327810829716 ], [ 91.282663246301297, 23.096627871481093 ], [ 91.272156494086033, 23.096627871481093 ], [ 91.261618016279826, 23.071579442335047 ], [ 91.272123555363081, 23.071579442335047 ], [ 91.26861362322235, 23.063230360235217 ], [ 91.279118758307888, 23.063230360235217 ], [ 91.27561007059775, 23.054881475130024 ], [ 91.296619533152835, 23.054881475130024 ], [ 91.300129028478992, 23.063230360235217 ], [ 91.321139298650081, 23.063230360235217 ], [ 91.310613335352656, 23.038184295552185 ], [ 91.321117259583104, 23.038184295552185 ], [ 91.314107383593353, 23.021487902899068 ], [ 91.324610501534877, 23.021487902899068 ], [ 91.321107631191509, 23.013140001449859 ], [ 91.342113061353942, 23.013140001449859 ], [ 91.338611032190343, 23.004792296468558 ], [ 91.296601782549232, 23.004792296468558 ], [ 91.29310300970613, 22.996444787867471 ], [ 91.282601099777494, 22.996444787867471 ], [ 91.279104374357658, 22.988097475558909 ], [ 91.268602866721409, 22.988097475558909 ], [ 91.261615152702475, 22.971403439468702 ], [ 91.272115856321463, 22.971403439468702 ], [ 91.268624062695181, 22.963056715511804 ], [ 91.300124968377204, 22.963056715511804 ], [ 91.30361796717844, 22.971403439468702 ], [ 91.314118670797441, 22.971403439468702 ], [ 91.324608739492049, 22.996444787867471 ], [ 91.335110649420699, 22.996444787867471 ], [ 91.331611912538946, 22.988097475558909 ], [ 91.342113420175224, 22.988097475558909 ], [ 91.335120078035459, 22.971403439468702 ], [ 91.345620781654446, 22.971403439468702 ], [ 91.342126175953226, 22.963056715511804 ], [ 91.35262647784721, 22.963056715511804 ], [ 91.349133114854965, 22.9547101874969 ], [ 91.37013291557102, 22.9547101874969 ], [ 91.366640393814123, 22.946363855336415 ], [ 91.377139892825127, 22.946363855336415 ], [ 91.373648613713044, 22.938017718942795 ], [ 91.38414771156593, 22.938017718942795 ], [ 91.38065767497234, 22.929671778228517 ], [ 91.391156371855971, 22.929671778228517 ], [ 91.387667577654696, 22.921326033106066 ], [ 91.408664169860913, 22.921326033106066 ], [ 91.405176217334187, 22.912980483487939 ], [ 91.4261720083569, 22.912980483487939 ], [ 91.422684897756184, 22.904635129286689 ], [ 91.454177383080932, 22.904635129286689 ], [ 91.443722304673429, 22.879600238309834 ], [ 91.454218599703808, 22.879600238309834 ], [ 91.450736457917898, 22.871255664901845 ], [ 91.461232353299266, 22.871255664901845 ], [ 91.457751453403745, 22.862911286473725 ], [ 91.44725595748298, 22.862911286473725 ], [ 91.443777097897481, 22.854567102938141 ], [ 91.43328200124904, 22.854567102938141 ], [ 91.429805181095674, 22.846223114207781 ], [ 91.419310483531277, 22.846223114207781 ], [ 91.408891055145844, 22.821192315975242 ], [ 91.398397553704555, 22.821192315975242 ], [ 91.391460255273856, 22.804506089579917 ], [ 91.370474845341519, 22.804506089579917 ], [ 91.37394187962839, 22.812849105593088 ], [ 91.363448776518652, 22.812849105593088 ], [ 91.36691704938066, 22.821192315975242 ], [ 91.356423547939357, 22.821192315975242 ], [ 91.359893059499811, 22.829535720813592 ], [ 91.328411359617149, 22.829535720813592 ], [ 91.324943043615463, 22.821192315975242 ], [ 91.31444954217416, 22.821192315975242 ], [ 91.310983260969948, 22.812849105593088 ], [ 91.289997054750458, 22.812849105593088 ], [ 91.28653320561223, 22.804506089579917 ], [ 91.276040500646076, 22.804506089579917 ], [ 91.272578684367843, 22.796163267848563 ], [ 91.241101763336331, 22.796163267848563 ], [ 91.23764277457974, 22.787820640311846 ], [ 91.227150865337038, 22.787820640311846 ], [ 91.230609456325823, 22.796163267848563 ], [ 91.209624842304819, 22.796163267848563 ], [ 91.213084270849095, 22.804506089579917 ], [ 91.181606155950604, 22.804506089579917 ], [ 91.178147921273307, 22.796163267848563 ], [ 91.167655614262799, 22.796163267848563 ], [ 91.178034023437291, 22.821192315975242 ], [ 91.167540521995988, 22.821192315975242 ], [ 91.171002860203799, 22.829535720813592 ], [ 91.160508960242922, 22.829535720813592 ], [ 91.163972533886948, 22.837879320195356 ], [ 91.153478235218373, 22.837879320195356 ], [ 91.156943044421155, 22.846223114207781 ], [ 91.177932439549949, 22.846223114207781 ], [ 91.181399681686372, 22.854567102938141 ], [ 91.191894778334813, 22.854567102938141 ], [ 91.198834968764899, 22.871255664901845 ], [ 91.188339073383531, 22.871255664901845 ], [ 91.19876043699297, 22.896289970414866 ], [ 91.188263342099219, 22.896289970414866 ], [ 91.202179827950914, 22.929671778228517 ], [ 91.191681131067313, 22.929671778228517 ], [ 91.195163950213882, 22.938017718942795 ], [ 91.153167558802323, 22.938017718942795 ], [ 91.149686343532835, 22.929671778228517 ], [ 91.139187646649248, 22.929671778228517 ], [ 91.132230934039058, 22.912980483487939 ], [ 91.121733038527708, 22.912980483487939 ], [ 91.118257539616906, 22.904635129286689 ], [ 91.107760044508666, 22.904635129286689 ], [ 91.100814757836758, 22.887945006785046 ], [ 91.111311452704598, 22.887945006785046 ], [ 91.10784086370127, 22.879600238309834 ], [ 91.118337158731649, 22.879600238309834 ], [ 91.111400088019039, 22.862911286473725 ], [ 91.121895583939775, 22.862911286473725 ], [ 91.118429101795698, 22.854567102938141 ], [ 91.128924198444139, 22.854567102938141 ], [ 91.121995339212646, 22.837879320195356 ], [ 91.132489637881221, 22.837879320195356 ], [ 91.125566516230791, 22.821192315975242 ], [ 91.115073014789502, 22.821192315975242 ], [ 91.101247954424551, 22.787820640311846 ], [ 91.090756045181834, 22.787820640311846 ], [ 91.09420946518928, 22.796163267848563 ], [ 91.083717158178786, 22.796163267848563 ], [ 91.087171811255146, 22.804506089579917 ], [ 91.06618640132281, 22.804506089579917 ], [ 91.069641889445904, 22.812849105593088 ], [ 91.059148786336138, 22.812849105593088 ], [ 91.079913600256788, 22.862911286473725 ], [ 91.069418104336037, 22.862911286473725 ], [ 91.072884224188414, 22.871255664901845 ], [ 91.062388328807032, 22.871255664901845 ], [ 91.065855683579727, 22.879600238309834 ], [ 91.023870503458213, 22.879600238309834 ], [ 91.020404747281532, 22.871255664901845 ], [ 91.00990885190015, 22.871255664901845 ], [ 90.999522580955073, 22.846223114207781 ], [ 90.978533185826279, 22.846223114207781 ], [ 90.981992845365923, 22.854567102938141 ], [ 90.971497748717482, 22.854567102938141 ], [ 90.974958641049312, 22.862911286473725 ], [ 90.964463145128548, 22.862911286473725 ], [ 90.967925270374664, 22.871255664901845 ], [ 90.957429374993282, 22.871255664901845 ], [ 90.960892733275941, 22.879600238309834 ], [ 90.950396438245562, 22.879600238309834 ], [ 90.953861029687232, 22.887945006785046 ], [ 90.943364334819435, 22.887945006785046 ], [ 90.946830159542714, 22.896289970414866 ], [ 90.936333064648949, 22.896289970414866 ], [ 90.943268814834738, 22.912980483487939 ], [ 90.932770919323389, 22.912980483487939 ], [ 90.936240845220553, 22.921326033106066 ], [ 90.915244253014308, 22.921326033106066 ], [ 90.911775128300675, 22.912980483487939 ], [ 90.901277232789326, 22.912980483487939 ], [ 90.904745956911185, 22.921326033106066 ], [ 90.894247660808077, 22.921326033106066 ], [ 90.897717618326126, 22.929671778228517 ], [ 90.887218921442511, 22.929671778228517 ], [ 90.890690112480044, 22.938017718942795 ], [ 90.869691916774258, 22.938017718942795 ], [ 90.866221527675279, 22.929671778228517 ], [ 90.855722830791663, 22.929671778228517 ], [ 90.852254476395601, 22.921326033106066 ], [ 90.841756180292478, 22.921326033106066 ], [ 90.838289859721215, 22.912980483487939 ], [ 90.827791964209894, 22.912980483487939 ], [ 90.831257884189355, 22.921326033106066 ], [ 90.778766403673757, 22.921326033106066 ], [ 90.782231952606367, 22.929671778228517 ], [ 90.771733255722765, 22.929671778228517 ], [ 90.782138495521394, 22.9547101874969 ], [ 90.771638595163353, 22.9547101874969 ], [ 90.778582786228611, 22.971403439468702 ], [ 90.768082082609624, 22.971403439468702 ], [ 90.771556227787059, 22.979750359455196 ], [ 90.761055122253993, 22.979750359455196 ], [ 90.764530500180996, 22.988097475558909 ], [ 90.733025977272234, 22.988097475558909 ], [ 90.736501783487981, 22.996444787867471 ], [ 90.704996053702033, 22.996444787867471 ], [ 90.708472287573642, 23.004792296468558 ], [ 90.687467662753093, 23.004792296468558 ], [ 90.683992233844734, 22.996444787867471 ], [ 90.662988413987463, 22.996444787867471 ], [ 90.66646303793253, 23.004792296468558 ], [ 90.655960725522263, 23.004792296468558 ], [ 90.659436581074758, 23.013140001449859 ], [ 90.648933865993541, 23.013140001449859 ], [ 90.652410953277467, 23.021487902899068 ], [ 90.641907835335942, 23.021487902899068 ], [ 90.638431150912325, 23.013140001449859 ], [ 90.627928435831095, 23.013140001449859 ], [ 90.634882633484168, 23.029836000903924 ], [ 90.645386154475432, 23.029836000903924 ], [ 90.648866108833928, 23.038184295552185 ], [ 90.63836218460348, 23.038184295552185 ], [ 90.648810653175133, 23.063230360235217 ], [ 90.638305518089609, 23.063230360235217 ], [ 90.648767507509874, 23.088278197870086 ], [ 90.638261159861798, 23.088278197870086 ], [ 90.645243201164206, 23.104977742438315 ], [ 90.634736044191783, 23.104977742438315 ], [ 90.638229118432136, 23.113327810829716 ], [ 90.659244242271313, 23.113327810829716 ], [ 90.662739766295346, 23.121678076743258 ], [ 90.683755700408994, 23.121678076743258 ], [ 90.687253675483831, 23.130028540266959 ], [ 90.697762047868025, 23.130028540266959 ], [ 90.70126206974399, 23.138379201488824 ], [ 90.711770847645724, 23.138379201488824 ], [ 90.715272917210896, 23.146730060496896 ], [ 90.746800468039382, 23.146730060496896 ], [ 90.75030539797848, 23.155081117379243 ], [ 90.760814987486071, 23.155081117379243 ], [ 90.767830591517892, 23.171783825119132 ], [ 90.757320189642996, 23.171783825119132 ], [ 90.76083005238651, 23.180135476152905 ], [ 90.750319244042302, 23.180135476152905 ], [ 90.753830345412766, 23.188487325413444 ], [ 90.743319130408651, 23.188487325413444 ], [ 90.746831470534758, 23.196839372988912 ], [ 90.725808226825606, 23.196839372988912 ], [ 90.729321398795108, 23.205191618967511 ], [ 90.708297341003714, 23.205191618967511 ], [ 90.711811344564225, 23.21354406343746 ], [ 90.722323780691767, 23.21354406343746 ], [ 90.725839837858729, 23.221896706487001 ], [ 90.736352681408889, 23.221896706487001 ], [ 90.739870793074857, 23.230249548204416 ], [ 90.750384044238473, 23.230249548204416 ], [ 90.75742602664512, 23.246955827995993 ], [ 90.746911959681881, 23.246955827995993 ], [ 90.750435015646687, 23.255309266246812 ], [ 90.729406065347604, 23.255309266246812 ], [ 90.732929953681605, 23.263662903518782 ], [ 90.743444837208528, 23.263662903518782 ], [ 90.746970783365441, 23.272016739900284 ], [ 90.768001367556266, 23.272016739900284 ], [ 90.771529781191148, 23.280370775479724 ], [ 90.782045482046257, 23.280370775479724 ], [ 90.785575955486479, 23.288725010345509 ], [ 90.796092065292513, 23.288725010345509 ], [ 90.810232117510495, 23.322143944441507 ], [ 90.820749865033932, 23.322143944441507 ], [ 90.827830631951016, 23.338854609508331 ], [ 90.817312064419824, 23.338854609508331 ], [ 90.824398630696464, 23.355566074199007 ], [ 90.86647618391892, 23.355566074199007 ], [ 90.870023593310478, 23.363922106624813 ], [ 90.880543392290946, 23.363922106624813 ], [ 90.887644004994556, 23.380634772080626 ], [ 90.877123384088776, 23.380634772080626 ], [ 90.880675766511132, 23.388991405288007 ], [ 90.870154734354784, 23.388991405288007 ], [ 90.873708364047644, 23.397348238933308 ], [ 90.831622589651872, 23.397348238933308 ], [ 90.835176231845693, 23.405705273105283 ], [ 90.81413252137844, 23.405705273105283 ], [ 90.817686998708638, 23.414062507892687 ], [ 90.807164731648186, 23.414062507892687 ], [ 90.810720455884024, 23.422419943384323 ], [ 90.82124313496351, 23.422419943384323 ], [ 90.828360386324746, 23.439135416835505 ], [ 90.81783688263036, 23.439135416835505 ], [ 90.821397586180282, 23.447493454972758 ], [ 90.810873669889887, 23.447493454972758 ], [ 90.817999234175261, 23.46421013451495 ], [ 90.828523976235076, 23.46421013451495 ], [ 90.832089663781446, 23.47256877609772 ], [ 90.853139974248137, 23.47256877609772 ], [ 90.856708150901113, 23.480927619006859 ], [ 90.867233719500618, 23.480927619006859 ], [ 90.874375890483023, 23.497645909160163 ], [ 90.863849494573074, 23.497645909160163 ], [ 90.86742266263667, 23.506005356582332 ], [ 90.85689585278233, 23.506005356582332 ], [ 90.864046355511292, 23.522724856562895 ], [ 90.853518717189473, 23.522724856562895 ], [ 90.857096052322618, 23.531084909299445 ], [ 90.836039946632638, 23.531084909299445 ], [ 90.83246344054588, 23.522724856562895 ], [ 90.790352887258635, 23.522724856562895 ], [ 90.786779703616091, 23.514365005686891 ], [ 90.776252479624489, 23.514365005686891 ], [ 90.761978033505585, 23.480927619006859 ], [ 90.74092689630659, 23.480927619006859 ], [ 90.744492187093599, 23.489286663331345 ], [ 90.733966204935257, 23.489286663331345 ], [ 90.737532743653844, 23.497645909160163 ], [ 90.727006347743895, 23.497645909160163 ], [ 90.730574134530286, 23.506005356582332 ], [ 90.720047324675946, 23.506005356582332 ], [ 90.723616359666451, 23.514365005686891 ], [ 90.692034687691645, 23.514365005686891 ], [ 90.695604142362384, 23.522724856562895 ], [ 90.632438312431546, 23.522724856562895 ], [ 90.643149189329961, 23.547805620710594 ], [ 90.632620306859366, 23.547805620710594 ], [ 90.63619350940894, 23.556166279563488 ], [ 90.615134914262697, 23.556166279563488 ], [ 90.618708949576089, 23.564527140633484 ], [ 90.597649523838342, 23.564527140633484 ], [ 90.594076319116468, 23.556166279563488 ], [ 90.573017723970239, 23.556166279563488 ], [ 90.569447012035823, 23.547805620710594 ], [ 90.558918129565228, 23.547805620710594 ], [ 90.551782519817706, 23.531084909299445 ], [ 90.520198361282723, 23.531084909299445 ], [ 90.523764091529273, 23.539445163985626 ], [ 90.502707156406785, 23.539445163985626 ], [ 90.49914225559273, 23.531084909299445 ], [ 90.488614202747726, 23.531084909299445 ], [ 90.481490207859494, 23.514365005686891 ], [ 90.492017431851096, 23.514365005686891 ], [ 90.48845750788054, 23.506005356582332 ], [ 90.49898431773488, 23.506005356582332 ], [ 90.49542563772529, 23.497645909160163 ], [ 90.505952033635239, 23.497645909160163 ], [ 90.502394597451655, 23.489286663331345 ], [ 90.512920579610011, 23.489286663331345 ], [ 90.498705749097084, 23.455851694169606 ], [ 90.509230078175932, 23.455851694169606 ], [ 90.495040083499731, 23.422419943384323 ], [ 90.484517404420259, 23.422419943384323 ], [ 90.488062009357606, 23.430777579668984 ], [ 90.477538918066841, 23.430777579668984 ], [ 90.481084764409715, 23.439135416835505 ], [ 90.438990749632126, 23.439135416835505 ], [ 90.44253659972577, 23.447493454972758 ], [ 90.432012683435374, 23.447493454972758 ], [ 90.43910852002179, 23.46421013451495 ], [ 90.428583777961975, 23.46421013451495 ], [ 90.432133764914283, 23.47256877609772 ], [ 90.411083454447578, 23.47256877609772 ], [ 90.407534293842332, 23.46421013451495 ], [ 90.397009551782517, 23.46421013451495 ], [ 90.393462458308505, 23.455851694169606 ], [ 90.361889471071947, 23.455851694169606 ], [ 90.365435325603059, 23.46421013451495 ], [ 90.375960067662888, 23.46421013451495 ], [ 90.383057563923529, 23.480927619006859 ], [ 90.372531995324024, 23.480927619006859 ], [ 90.376082811551527, 23.489286663331345 ], [ 90.355030847234829, 23.489286663331345 ], [ 90.365690743951831, 23.514365005686891 ], [ 90.376217967943447, 23.514365005686891 ], [ 90.38689401323316, 23.539445163985626 ], [ 90.376365545671916, 23.539445163985626 ], [ 90.379927127565153, 23.547805620710594 ], [ 90.358869362623963, 23.547805620710594 ], [ 90.365995840722988, 23.564527140633484 ], [ 90.355466127854115, 23.564527140633484 ], [ 90.35903143943365, 23.572888204009793 ], [ 90.348501311075722, 23.572888204009793 ], [ 90.352067866155508, 23.581249469781625 ], [ 90.341537322115173, 23.581249469781625 ], [ 90.345105120831249, 23.589610938038227 ], [ 90.334574160915068, 23.589610938038227 ], [ 90.338143203403646, 23.597972608868883 ], [ 90.327611827418167, 23.597972608868883 ], [ 90.331182113815558, 23.606334482362868 ], [ 90.310118529318942, 23.606334482362868 ], [ 90.313689643305253, 23.614696558609513 ], [ 90.282093017190959, 23.614696558609513 ], [ 90.278523152573982, 23.606334482362868 ], [ 90.267991360325652, 23.606334482362868 ], [ 90.275131916510588, 23.623058837698146 ], [ 90.285664541865458, 23.623058837698146 ], [ 90.299967251624764, 23.656509984260179 ], [ 90.289432957731663, 23.656509984260179 ], [ 90.293012372942144, 23.664873278899659 ], [ 90.271942949917332, 23.664873278899659 ], [ 90.282688667687083, 23.689964383447201 ], [ 90.272152702152269, 23.689964383447201 ], [ 90.275737517385537, 23.698328492137822 ], [ 90.24412836559371, 23.698328492137822 ], [ 90.247713589593488, 23.706692804565108 ], [ 90.226639984552136, 23.706692804565108 ], [ 90.237403131674924, 23.731786965162932 ], [ 90.226865072217763, 23.731786965162932 ], [ 90.230455699204597, 23.740152093433014 ], [ 90.209378741554701, 23.740152093433014 ], [ 90.216563315446322, 23.756882962617457 ], [ 90.258720588023664, 23.756882962617457 ], [ 90.255125788975405, 23.74851742588795 ], [ 90.276203585750039, 23.74851742588795 ], [ 90.279799224312299, 23.756882962617457 ], [ 90.290338542456638, 23.756882962617457 ], [ 90.297535663746828, 23.773614649259152 ], [ 90.308075821989362, 23.773614649259152 ], [ 90.315280460559194, 23.790347154076255 ], [ 90.325821459679247, 23.790347154076255 ], [ 90.347478008272972, 23.840549584767192 ], [ 90.358021534706424, 23.840549584767192 ], [ 90.36887366365859, 23.865653569948318 ], [ 90.358328870932397, 23.865653569948318 ], [ 90.361949175131656, 23.87402197595463 ], [ 90.351403959916908, 23.87402197595463 ], [ 90.358648750927159, 23.890759404926506 ], [ 90.348102690148565, 23.890759404926506 ], [ 90.358981183848798, 23.915867092134118 ], [ 90.348433853256537, 23.915867092134118 ], [ 90.362960312529836, 23.949346893864362 ], [ 90.352411286109984, 23.949346893864362 ], [ 90.359683745216216, 23.966088032976621 ], [ 90.349133869705994, 23.966088032976621 ], [ 90.35277219564739, 23.974458912410562 ], [ 90.342221895297598, 23.974458912410562 ], [ 90.34950274147144, 23.991201291485819 ], [ 90.338951590853497, 23.991201291485819 ], [ 90.342594111574641, 23.999572791307902 ], [ 90.353145687621307, 23.999572791307902 ], [ 90.356790316532312, 24.007944498106838 ], [ 90.367342318204223, 24.007944498106838 ], [ 90.374637478309609, 24.024688532997065 ], [ 90.364084624797414, 24.024688532997065 ], [ 90.36773430523229, 24.033060861269313 ], [ 90.357181025504943, 24.033060861269313 ], [ 90.360831964450497, 24.041433396880336 ], [ 90.350278258311221, 24.041433396880336 ], [ 90.357584339130739, 24.058179090480877 ], [ 90.347029779577056, 24.058179090480877 ], [ 90.350684921943724, 24.066552248651544 ], [ 90.340129935387409, 24.066552248651544 ], [ 90.347444425563467, 24.083299188186714 ], [ 90.336888584410829, 24.083299188186714 ], [ 90.340547932714273, 24.091672969732521 ], [ 90.32999166396776, 24.091672969732521 ], [ 90.333652272213243, 24.100046959251362 ], [ 90.354765665288426, 24.100046959251362 ], [ 90.358428817589967, 24.108421156833963 ], [ 90.368985942115927, 24.108421156833963 ], [ 90.376318170885526, 24.125170176553382 ], [ 90.365760189790805, 24.125170176553382 ], [ 90.369428410779022, 24.133544998871727 ], [ 90.37998682045432, 24.133544998871727 ], [ 90.383657160872403, 24.141920029616891 ], [ 90.39421599932578, 24.141920029616891 ], [ 90.412595230114547, 24.183798312924807 ], [ 90.402034244805577, 24.183798312924807 ], [ 90.405714741786554, 24.192174596139107 ], [ 90.395153326512983, 24.192174596139107 ], [ 90.402518544524938, 24.208927789848047 ], [ 90.39195626872818, 24.208927789848047 ], [ 90.395640990261299, 24.217304700524707 ], [ 90.385078283905813, 24.217304700524707 ], [ 90.388764270605861, 24.225681820537552 ], [ 90.357074859268721, 24.225681820537552 ], [ 90.368139118832914, 24.250814437503944 ], [ 90.3575746882602, 24.250814437503944 ], [ 90.361265737154909, 24.259192395772423 ], [ 90.371830599277828, 24.259192395772423 ], [ 90.379218654353423, 24.275948941775862 ], [ 90.368652928534587, 24.275948941775862 ], [ 90.372349072120912, 24.284327529693233 ], [ 90.361782914156223, 24.284327529693233 ], [ 90.365480324730498, 24.292706327676012 ], [ 90.354913734421245, 24.292706327676012 ], [ 90.358612412137603, 24.301085335815454 ], [ 90.348045389285048, 24.301085335815454 ], [ 90.37027057629335, 24.351363803056035 ], [ 90.380840198582987, 24.351363803056035 ], [ 90.377131312345554, 24.342983532058668 ] ], [ [ 90.679831506491041, 23.974458912410562 ], [ 90.648180605441667, 23.974458912410562 ], [ 90.644530383992759, 23.966088032976621 ], [ 90.633980508482495, 23.966088032976621 ], [ 90.626685973026383, 23.949346893864362 ], [ 90.63723499944625, 23.949346893864362 ], [ 90.633589835269291, 23.940976634005427 ], [ 90.644138437438215, 23.940976634005427 ], [ 90.636852314667536, 23.924236733230547 ], [ 90.626304560412365, 23.924236733230547 ], [ 90.622664448655186, 23.915867092134118 ], [ 90.612117118062926, 23.915867092134118 ], [ 90.604842789939099, 23.89912842807227 ], [ 90.615389273793127, 23.89912842807227 ], [ 90.60812082688463, 23.882390587583998 ], [ 90.597575188985786, 23.882390587583998 ], [ 90.590314310909108, 23.865653569948318 ], [ 90.5797695181829, 23.865653569948318 ], [ 90.568892063375515, 23.840549584767192 ], [ 90.57943558980898, 23.840549584767192 ], [ 90.575812706238708, 23.832182000352702 ], [ 90.596898915691909, 23.832182000352702 ], [ 90.600522642675884, 23.840549584767192 ], [ 90.611066169109336, 23.840549584767192 ], [ 90.618319502908804, 23.857285369474997 ], [ 90.628863873341999, 23.857285369474997 ], [ 90.632493481813967, 23.865653569948318 ], [ 90.643038274540174, 23.865653569948318 ], [ 90.650303378480018, 23.882390587583998 ], [ 90.639757740581175, 23.882390587583998 ], [ 90.643392391948979, 23.890759404926506 ], [ 90.653938452727573, 23.890759404926506 ], [ 90.661213648462251, 23.907497657111424 ], [ 90.65066674133702, 23.907497657111424 ], [ 90.654306440431938, 23.915867092134118 ], [ 90.664853771024198, 23.915867092134118 ], [ 90.686729886033703, 23.966088032976621 ], [ 90.676180010523467, 23.966088032976621 ], [ 90.679831506491041, 23.974458912410562 ] ], [ [ 90.751083499012992, 23.798713713525107 ], [ 90.74054207916177, 23.798713713525107 ], [ 90.704400994193037, 23.715057320818637 ], [ 90.693863772887951, 23.715057320818637 ], [ 90.686656490678942, 23.698328492137822 ], [ 90.665583722817757, 23.698328492137822 ], [ 90.669185690420548, 23.706692804565108 ], [ 90.648112085379211, 23.706692804565108 ], [ 90.644510954956544, 23.698328492137822 ], [ 90.612901803164746, 23.698328492137822 ], [ 90.616501677817155, 23.706692804565108 ], [ 90.627038480337845, 23.706692804565108 ], [ 90.630640445057423, 23.715057320818637 ], [ 90.641177666362509, 23.715057320818637 ], [ 90.651994852202506, 23.740152093433014 ], [ 90.641456373377565, 23.740152093433014 ], [ 90.645065029306096, 23.74851742588795 ], [ 90.602909435756843, 23.74851742588795 ], [ 90.606518086786465, 23.756882962617457 ], [ 90.574900132353477, 23.756882962617457 ], [ 90.57129274059487, 23.74851742588795 ], [ 90.560753842207575, 23.74851742588795 ], [ 90.546342674616739, 23.715057320818637 ], [ 90.556879895921796, 23.715057320818637 ], [ 90.5532808626931, 23.706692804565108 ], [ 90.574354467734466, 23.706692804565108 ], [ 90.577954338531981, 23.715057320818637 ], [ 90.588491559837081, 23.715057320818637 ], [ 90.584891270255142, 23.706692804565108 ], [ 90.595428072775832, 23.706692804565108 ], [ 90.591829035303547, 23.698328492137822 ], [ 90.602365419234161, 23.698328492137822 ], [ 90.598767633731029, 23.689964383447201 ], [ 90.6093035992658, 23.689964383447201 ], [ 90.605707065591417, 23.681600478403652 ], [ 90.626778160257842, 23.681600478403652 ], [ 90.630375530335414, 23.689964383447201 ], [ 90.640911495870213, 23.689964383447201 ], [ 90.637313707591048, 23.681600478403652 ], [ 90.647849254924253, 23.681600478403652 ], [ 90.637064656203862, 23.656509984260179 ], [ 90.647598950096963, 23.656509984260179 ], [ 90.651192564364408, 23.664873278899659 ], [ 90.68279669890164, 23.664873278899659 ], [ 90.679201831776254, 23.656509984260179 ], [ 90.689736125669342, 23.656509984260179 ], [ 90.686142510782645, 23.648146892909732 ], [ 90.738811893121351, 23.648146892909732 ], [ 90.742407595134821, 23.656509984260179 ], [ 90.752941889027923, 23.656509984260179 ], [ 90.760139141499522, 23.673236776917658 ], [ 90.749604012173748, 23.673236776917658 ], [ 90.753204728256335, 23.681600478403652 ], [ 90.74266918092313, 23.681600478403652 ], [ 90.746271151218195, 23.689964383447201 ], [ 90.756807116752995, 23.689964383447201 ], [ 90.760411178193152, 23.698328492137822 ], [ 90.781483946054365, 23.698328492137822 ], [ 90.785090518147996, 23.706692804565108 ], [ 90.774553715627306, 23.706692804565108 ], [ 90.77816154332865, 23.715057320818637 ], [ 90.767624322023565, 23.715057320818637 ], [ 90.771233405474462, 23.72342204098803 ], [ 90.739620484622776, 23.72342204098803 ], [ 90.743229985618683, 23.731786965162932 ], [ 90.722153866704346, 23.731786965162932 ], [ 90.751083499012992, 23.798713713525107 ] ], [ [ 90.738335490851696, 23.597972608868883 ], [ 90.706741362895272, 23.597972608868883 ], [ 90.70315775798106, 23.589610938038227 ], [ 90.692626798064879, 23.589610938038227 ], [ 90.678310699701413, 23.556166279563488 ], [ 90.688839997274528, 23.556166279563488 ], [ 90.685264719212341, 23.547805620710594 ], [ 90.716851366624127, 23.547805620710594 ], [ 90.7204278899939, 23.556166279563488 ], [ 90.730957187567029, 23.556166279563488 ], [ 90.745281597645743, 23.589610938038227 ], [ 90.734750637729576, 23.589610938038227 ], [ 90.738335490851696, 23.597972608868883 ] ], [ [ 90.453988339243864, 23.597972608868883 ], [ 90.432925587272919, 23.597972608868883 ], [ 90.429352800160615, 23.589610938038227 ], [ 90.418821840244448, 23.589610938038227 ], [ 90.411682081223319, 23.572888204009793 ], [ 90.422212209581275, 23.572888204009793 ], [ 90.418644405067397, 23.564527140633484 ], [ 90.439703830805144, 23.564527140633484 ], [ 90.436136855519678, 23.556166279563488 ], [ 90.446666153092806, 23.556166279563488 ], [ 90.44310042238871, 23.547805620710594 ], [ 90.4641581873299, 23.547805620710594 ], [ 90.467724748239036, 23.556166279563488 ], [ 90.478254045812164, 23.556166279563488 ], [ 90.485392979728871, 23.572888204009793 ], [ 90.474862851370943, 23.572888204009793 ], [ 90.478434394639635, 23.581249469781625 ], [ 90.467903850599299, 23.581249469781625 ], [ 90.471476639825298, 23.589610938038227 ], [ 90.450414719992949, 23.589610938038227 ], [ 90.453988339243864, 23.597972608868883 ] ], [ [ 91.031375807568764, 23.372278339222465 ], [ 90.999815178027262, 23.372278339222465 ], [ 90.996261181076122, 23.363922106624813 ], [ 90.964701784134704, 23.363922106624813 ], [ 90.961150678669469, 23.355566074199007 ], [ 90.950631290363859, 23.355566074199007 ], [ 90.947082253749684, 23.347210241856384 ], [ 90.936563275927128, 23.347210241856384 ], [ 90.925927340268501, 23.322143944441507 ], [ 90.894374097698119, 23.322143944441507 ], [ 90.89083332748416, 23.313788911545601 ], [ 90.880315989677243, 23.313788911545601 ], [ 90.873240232072504, 23.297079444586103 ], [ 90.883756751020783, 23.297079444586103 ], [ 90.880220943740781, 23.288725010345509 ], [ 90.890737053546815, 23.288725010345509 ], [ 90.883669580605755, 23.272016739900284 ], [ 90.89418487270116, 23.272016739900284 ], [ 90.890653206585228, 23.263662903518782 ], [ 90.901168090112151, 23.263662903518782 ], [ 90.897637667740199, 23.255309266246812 ], [ 90.887123192590664, 23.255309266246812 ], [ 90.883594830203933, 23.246955827995993 ], [ 90.873080763240708, 23.246955827995993 ], [ 90.862506804010778, 23.221896706487001 ], [ 90.851993960460604, 23.221896706487001 ], [ 90.841436067225914, 23.196839372988912 ], [ 90.85194768908049, 23.196839372988912 ], [ 90.848431280449674, 23.188487325413444 ], [ 90.858942495453775, 23.188487325413444 ], [ 90.855427327484549, 23.180135476152905 ], [ 90.844916519140327, 23.180135476152905 ], [ 90.834382114039158, 23.155081117379243 ], [ 90.84489170354675, 23.155081117379243 ], [ 90.834370888862381, 23.130028540266959 ], [ 90.823862516478187, 23.130028540266959 ], [ 90.816857671065264, 23.113327810829716 ], [ 90.806350109145654, 23.113327810829716 ], [ 90.799352644398695, 23.096627871481093 ], [ 90.809859396613959, 23.096627871481093 ], [ 90.806362722230844, 23.088278197870086 ], [ 90.82737541752698, 23.088278197870086 ], [ 90.830872901044529, 23.096627871481093 ], [ 90.841379653259793, 23.096627871481093 ], [ 90.858893738269799, 23.138379201488824 ], [ 90.84838496036808, 23.138379201488824 ], [ 90.851892304134395, 23.146730060496896 ], [ 90.872910671353395, 23.146730060496896 ], [ 90.876420472069483, 23.155081117379243 ], [ 90.886930061577075, 23.155081117379243 ], [ 90.883419854962895, 23.146730060496896 ], [ 90.893929038572409, 23.146730060496896 ], [ 90.890420071974944, 23.138379201488824 ], [ 90.900928849876664, 23.138379201488824 ], [ 90.893915041545512, 23.121678076743258 ], [ 90.914930975659175, 23.121678076743258 ], [ 90.918437867935836, 23.130028540266959 ], [ 90.928946240320002, 23.130028540266959 ], [ 90.932455183581823, 23.138379201488824 ], [ 90.963981517286982, 23.138379201488824 ], [ 90.953455976019995, 23.113327810829716 ], [ 90.963963537939605, 23.113327810829716 ], [ 90.960457910337155, 23.104977742438315 ], [ 90.991979381254438, 23.104977742438315 ], [ 90.988474184273628, 23.096627871481093 ], [ 90.998980936488906, 23.096627871481093 ], [ 90.995476979896026, 23.088278197870086 ], [ 91.016489675192162, 23.088278197870086 ], [ 91.019994440919461, 23.096627871481093 ], [ 91.030501193134739, 23.096627871481093 ], [ 91.034008009144159, 23.104977742438315 ], [ 91.044515166116597, 23.104977742438315 ], [ 91.051534547397907, 23.121678076743258 ], [ 91.041026580341097, 23.121678076743258 ], [ 91.044538336546012, 23.130028540266959 ], [ 91.065555081314358, 23.130028540266959 ], [ 91.069069296304178, 23.138379201488824 ], [ 91.079578074205912, 23.138379201488824 ], [ 91.083094343543408, 23.146730060496896 ], [ 91.093603527152908, 23.146730060496896 ], [ 91.079546719055159, 23.113327810829716 ], [ 91.090054280974755, 23.113327810829716 ], [ 91.086543794006332, 23.104977742438315 ], [ 91.076036637033894, 23.104977742438315 ], [ 91.06902141343248, 23.088278197870086 ], [ 91.079527761080556, 23.088278197870086 ], [ 91.076022214106516, 23.079928721517376 ], [ 91.097034100648003, 23.079928721517376 ], [ 91.100540456376677, 23.088278197870086 ], [ 91.121553151672813, 23.088278197870086 ], [ 91.125061963072199, 23.096627871481093 ], [ 91.135568715287476, 23.096627871481093 ], [ 91.132059499320889, 23.088278197870086 ], [ 91.142565846968949, 23.088278197870086 ], [ 91.139057873730991, 23.079928721517376 ], [ 91.160069760272478, 23.079928721517376 ], [ 91.163578542265071, 23.088278197870086 ], [ 91.174084889913132, 23.088278197870086 ], [ 91.181108206758196, 23.104977742438315 ], [ 91.170601049785773, 23.104977742438315 ], [ 91.181147177540353, 23.130028540266959 ], [ 91.191655549924533, 23.130028540266959 ], [ 91.198695363247921, 23.146730060496896 ], [ 91.188186179638421, 23.146730060496896 ], [ 91.191708157296972, 23.155081117379243 ], [ 91.160179388774239, 23.155081117379243 ], [ 91.167225862763573, 23.171783825119132 ], [ 91.177736264638469, 23.171783825119132 ], [ 91.181262386155538, 23.180135476152905 ], [ 91.191773194499746, 23.180135476152905 ], [ 91.212967095437094, 23.230249548204416 ], [ 91.202453844273492, 23.230249548204416 ], [ 91.205991546918185, 23.238602588677974 ], [ 91.195477887950233, 23.238602588677974 ], [ 91.202557447076742, 23.255309266246812 ], [ 91.192042971927208, 23.255309266246812 ], [ 91.199128343467976, 23.272016739900284 ], [ 91.188613051372556, 23.272016739900284 ], [ 91.192157815394992, 23.280370775479724 ], [ 91.160610712829723, 23.280370775479724 ], [ 91.157067175086354, 23.272016739900284 ], [ 91.146551882990934, 23.272016739900284 ], [ 91.139470596179521, 23.255309266246812 ], [ 91.149985071329056, 23.255309266246812 ], [ 91.142909593110517, 23.238602588677974 ], [ 91.132395934142565, 23.238602588677974 ], [ 91.125327892764716, 23.221896706487001 ], [ 91.104302205664396, 23.221896706487001 ], [ 91.125521298800109, 23.272016739900284 ], [ 91.115006006704704, 23.272016739900284 ], [ 91.122091469279539, 23.288725010345509 ], [ 91.14312368889162, 23.288725010345509 ], [ 91.146669724727744, 23.297079444586103 ], [ 91.157186243676023, 23.297079444586103 ], [ 91.164284110464337, 23.313788911545601 ], [ 91.153766772657406, 23.313788911545601 ], [ 91.1573177857845, 23.322143944441507 ], [ 91.146800038261034, 23.322143944441507 ], [ 91.15035230161115, 23.330499177066226 ], [ 91.139834144179616, 23.330499177066226 ], [ 91.143387657887146, 23.338854609508331 ], [ 91.12235052282476, 23.338854609508331 ], [ 91.118797829316563, 23.330499177066226 ], [ 91.108279671885029, 23.330499177066226 ], [ 91.101180083622765, 23.313788911545601 ], [ 91.090662745815834, 23.313788911545601 ], [ 91.0871158494528, 23.305434078289963 ], [ 91.076598921170898, 23.305434078289963 ], [ 91.069510920249385, 23.288725010345509 ], [ 91.080027030055419, 23.288725010345509 ], [ 91.076485105988937, 23.280370775479724 ], [ 91.065969405133842, 23.280370775479724 ], [ 91.055354794983231, 23.255309266246812 ], [ 91.023811369534627, 23.255309266246812 ], [ 91.03088366994146, 23.272016739900284 ], [ 91.041398962036865, 23.272016739900284 ], [ 91.048478700637318, 23.288725010345509 ], [ 91.037962590831285, 23.288725010345509 ], [ 91.041504535244954, 23.297079444586103 ], [ 91.02047149734841, 23.297079444586103 ], [ 91.02401427976146, 23.305434078289963 ], [ 91.034531208043347, 23.305434078289963 ], [ 91.048720550106324, 23.338854609508331 ], [ 91.038201982575117, 23.338854609508331 ], [ 91.045305785114408, 23.355566074199007 ], [ 91.034786396808798, 23.355566074199007 ], [ 91.038340376998022, 23.363922106624813 ], [ 91.02782057801754, 23.363922106624813 ], [ 91.031375807568764, 23.372278339222465 ] ], [ [ 91.009516963289215, 23.021487902899068 ], [ 90.98851072740618, 23.021487902899068 ], [ 90.985020748592532, 23.013140001449859 ], [ 90.974518033511302, 23.013140001449859 ], [ 90.971030097830607, 23.004792296468558 ], [ 90.960527785420325, 23.004792296468558 ], [ 90.953557637633651, 22.988097475558909 ], [ 90.964059145269914, 22.988097475558909 ], [ 90.960576127382168, 22.979750359455196 ], [ 90.971077232915235, 22.979750359455196 ], [ 90.967595451370556, 22.971403439468702 ], [ 90.988596858608545, 22.971403439468702 ], [ 90.985115911557031, 22.963056715511804 ], [ 91.006116515345042, 22.963056715511804 ], [ 91.009598265846535, 22.971403439468702 ], [ 91.020098969465536, 22.971403439468702 ], [ 91.030555261490022, 22.996444787867471 ], [ 91.020053351561373, 22.996444787867471 ], [ 91.023541659881985, 23.004792296468558 ], [ 91.013039347471718, 23.004792296468558 ], [ 91.016528893836181, 23.013140001449859 ], [ 91.006026178754965, 23.013140001449859 ], [ 91.009516963289215, 23.021487902899068 ] ], [ [ 90.876509286138088, 23.004792296468558 ], [ 90.813495411676428, 23.004792296468558 ], [ 90.81001515298847, 22.996444787867471 ], [ 90.799513243059849, 22.996444787867471 ], [ 90.792558438853192, 22.979750359455196 ], [ 90.803059544386244, 22.979750359455196 ], [ 90.7995841934666, 22.971403439468702 ], [ 90.82058560070459, 22.971403439468702 ], [ 90.817111081252946, 22.963056715511804 ], [ 90.827611383146959, 22.963056715511804 ], [ 90.824138096953504, 22.9547101874969 ], [ 90.845137897669574, 22.9547101874969 ], [ 90.841665443263594, 22.946363855336415 ], [ 90.862664441285617, 22.946363855336415 ], [ 90.866137698385629, 22.9547101874969 ], [ 90.876637598743642, 22.9547101874969 ], [ 90.883589822418571, 22.971403439468702 ], [ 90.873089118799584, 22.971403439468702 ], [ 90.883528522488987, 22.996444787867471 ], [ 90.873026612560338, 22.996444787867471 ], [ 90.876509286138088, 23.004792296468558 ] ] ] ] } }
]
}
