{
"type": "FeatureCollection",
"name": "ghsl_586",
"crs": { "type": "name", "properties": { "name": "urn:ogc:def:crs:OGC:1.3:CRS84" } },
"features": [
{ "type": "Feature", "properties": { "city_id": "ghsl_586", "city_name": "Saint Petersburg" }, "geometry": { "type": "MultiPolygon", "coordinates": [ [ [ [ 30.403872341027455, 60.075826277860521 ], [ 30.496519996713676, 60.075826277860521 ], [ 30.465679201503228, 60.023460610196885 ], [ 30.450253541148037, 60.023460610196885 ], [ 30.437955882407483, 60.00252275704306 ], [ 30.453375312945678, 60.00252275704306 ], [ 30.447230296255153, 59.992055630422492 ], [ 30.462646615392504, 59.992055630422492 ], [ 30.456503100855951, 59.981589702766932 ], [ 30.471916310927234, 59.981589702766932 ], [ 30.465774297840724, 59.971124973322887 ], [ 30.496594504515318, 59.971124973322887 ], [ 30.490450887770944, 59.960661441337663 ], [ 30.505857886703623, 59.960661441337663 ], [ 30.499715772329996, 59.950199106059323 ], [ 30.530523566039413, 59.950199106059323 ], [ 30.512106225459412, 59.918819272957634 ], [ 30.527500830013125, 59.918819272957634 ], [ 30.521367810880268, 59.908361717002727 ], [ 30.536759322635625, 59.908361717002727 ], [ 30.518378501594093, 59.876996203901349 ], [ 30.533760748822719, 59.876996203901349 ], [ 30.52152357915125, 59.856091816672468 ], [ 30.536899661558891, 59.856091816672468 ], [ 30.530784848078472, 59.8456414072744 ], [ 30.546157851526644, 59.8456414072744 ], [ 30.540044523512176, 59.835192186362249 ], [ 30.570784377083907, 59.835192186362249 ], [ 30.564669459480552, 59.824744153193159 ], [ 30.533935754644467, 59.824744153193159 ], [ 30.527831539653498, 59.814297307025114 ], [ 30.48174019862735, 59.814297307025114 ], [ 30.48783519739035, 59.824744153193159 ], [ 30.472468344972313, 59.824744153193159 ], [ 30.478564816368717, 59.835192186362249 ], [ 30.447824962796989, 59.835192186362249 ], [ 30.441734640136229, 59.824744153193159 ], [ 30.426367787718196, 59.824744153193159 ], [ 30.408133248879523, 59.793407172727584 ], [ 30.362060319714558, 59.793407172727584 ], [ 30.368124767725323, 59.803851647116765 ], [ 30.352764057170077, 59.803851647116765 ], [ 30.358829955890947, 59.814297307025114 ], [ 30.328102395206848, 59.814297307025114 ], [ 30.322042636059575, 59.803851647116765 ], [ 30.291321214949079, 59.803851647116765 ], [ 30.297374834522742, 59.814297307025114 ], [ 30.282011054180696, 59.814297307025114 ], [ 30.288066115955839, 59.824744153193159 ], [ 30.241965558701718, 59.824744153193159 ], [ 30.235919713154548, 59.814297307025114 ], [ 30.220555932812502, 59.814297307025114 ], [ 30.208483889164661, 59.793407172727584 ], [ 30.223841532219645, 59.793407172727584 ], [ 30.211781330188302, 59.772521777548235 ], [ 30.104320725863449, 59.772521777548235 ], [ 30.110327141564547, 59.78296388311778 ], [ 30.125681719403186, 59.78296388311778 ], [ 30.131695673889713, 59.793407172727584 ], [ 30.147053316944699, 59.793407172727584 ], [ 30.15910081144429, 59.814297307025114 ], [ 30.143737031102244, 59.814297307025114 ], [ 30.149764444193483, 59.824744153193159 ], [ 30.119030739357399, 59.824744153193159 ], [ 30.113009470418145, 59.814297307025114 ], [ 30.066918129391993, 59.814297307025114 ], [ 30.078946719936248, 59.835192186362249 ], [ 30.094316646722117, 59.835192186362249 ], [ 30.112402459779087, 59.866543415299994 ], [ 30.143160787112869, 59.866543415299994 ], [ 30.161305689558901, 59.897905354006497 ], [ 30.176694110829086, 59.897905354006497 ], [ 30.170638200270933, 59.88745018322156 ], [ 30.186023533366424, 59.88745018322156 ], [ 30.210286748473656, 59.929278022619336 ], [ 30.179491349137805, 59.929278022619336 ], [ 30.185562317362521, 59.939737966736672 ], [ 30.170161520261829, 59.939737966736672 ], [ 30.182310909117376, 59.960661441337663 ], [ 30.197717908050052, 59.960661441337663 ], [ 30.203802541106629, 59.971124973322887 ], [ 30.172982334432032, 59.971124973322887 ], [ 30.179065319572853, 59.981589702766932 ], [ 30.163652109501562, 59.981589702766932 ], [ 30.169736551782954, 59.992055630422492 ], [ 30.185152870920305, 59.992055630422492 ], [ 30.215659307328959, 60.044403268271644 ], [ 30.261955005961234, 60.044403268271644 ], [ 30.268079435961504, 60.054876401046279 ], [ 30.283514458621351, 60.054876401046279 ], [ 30.289646624785966, 60.06535073732293 ], [ 30.305084772912767, 60.06535073732293 ], [ 30.311224685341237, 60.075826277860521 ], [ 30.326665961288942, 60.075826277860521 ], [ 30.332813630097895, 60.086303023418722 ], [ 30.410035660724411, 60.086303023418722 ], [ 30.403872341027455, 60.075826277860521 ] ] ] ] } }
]
}
