{
"type": "FeatureCollection",
"name": "ghsl_7963",
"crs": { "type": "name", "properties": { "name": "urn:ogc:def:crs:OGC:1.3:CRS84" } },
"features": [
{ "type": "Feature", "properties": { "city_id": "ghsl_7963", "city_name": "Delhi" }, "geometry": { "type": "MultiPolygon", "coordinates": [ [ [ [ 77.607671692974421, 28.858949383528419 ], [ 77.618503189372589, 28.858949383528419 ], [ 77.610614509814454, 28.841936595713879 ], [ 77.621444905364257, 28.841936595713879 ], [ 77.617502602974739, 28.833430596861664 ], [ 77.606672757488056, 28.833430596861664 ], [ 77.598794424409405, 28.816419388732712 ], [ 77.609623170491531, 28.816419388732712 ], [ 77.605686039066612, 28.807914179242264 ], [ 77.57320144884514, 28.807914179242264 ], [ 77.569267687048523, 28.799409232658714 ], [ 77.558440039409334, 28.799409232658714 ], [ 77.55450854741305, 28.790904548875282 ], [ 77.543681448634956, 28.790904548875282 ], [ 77.539752225295004, 28.782400127785237 ], [ 77.528925675137899, 28.782400127785237 ], [ 77.517149961683842, 28.756888439608357 ], [ 77.52797486741791, 28.756888439608357 ], [ 77.516212963854031, 28.731379111832165 ], [ 77.505389700385194, 28.731379111832165 ], [ 77.493644873402758, 28.705872141579988 ], [ 77.504466496761694, 28.705872141579988 ], [ 77.500554434979477, 28.697370341560006 ], [ 77.522196589247841, 28.697370341560006 ], [ 77.518285148020695, 28.688868803061425 ], [ 77.539926210317745, 28.688868803061425 ], [ 77.543838743516204, 28.697370341560006 ], [ 77.576301974918721, 28.697370341560006 ], [ 77.580217860274303, 28.705872141579988 ], [ 77.612682730351139, 28.705872141579988 ], [ 77.616601969957969, 28.714374203227731 ], [ 77.627424139780885, 28.714374203227731 ], [ 77.631345642327801, 28.722876526609635 ], [ 77.642168358853979, 28.722876526609635 ], [ 77.646092125480138, 28.731379111832165 ], [ 77.656915388948988, 28.731379111832165 ], [ 77.66084142079427, 28.739881959001778 ], [ 77.67166523144526, 28.739881959001778 ], [ 77.667738652417839, 28.731379111832165 ], [ 77.678561915886689, 28.731379111832165 ], [ 77.674636508432542, 28.722876526609635 ], [ 77.68545922495872, 28.722876526609635 ], [ 77.681534988895464, 28.714374203227731 ], [ 77.703179328541282, 28.714374203227731 ], [ 77.699255717222698, 28.705872141579988 ], [ 77.677612470504812, 28.705872141579988 ], [ 77.673691669126327, 28.697370341560006 ], [ 77.662870591992146, 28.697370341560006 ], [ 77.655035229364486, 28.680367525977893 ], [ 77.644215243962591, 28.680367525977893 ], [ 77.648131521802981, 28.688868803061425 ], [ 77.604849397208881, 28.688868803061425 ], [ 77.600935302355026, 28.680367525977893 ], [ 77.590115316953145, 28.680367525977893 ], [ 77.582293358163867, 28.663365755630782 ], [ 77.593112252789197, 28.663365755630782 ], [ 77.58139051893086, 28.637865058066453 ], [ 77.570573258680028, 28.637865058066453 ], [ 77.574478247557252, 28.646365029668647 ], [ 77.56366044275353, 28.646365029668647 ], [ 77.56756659757113, 28.654865262154701 ], [ 77.535111548785537, 28.654865262154701 ], [ 77.539017779662601, 28.663365755630782 ], [ 77.52819888503727, 28.663365755630782 ], [ 77.532106281736063, 28.671866510203099 ], [ 77.510467401947679, 28.671866510203099 ], [ 77.506561095786637, 28.663365755630782 ], [ 77.49574220116132, 28.663365755630782 ], [ 77.484035176673416, 28.637865058066453 ], [ 77.494852436924248, 28.637865058066453 ], [ 77.490952968323739, 28.62936534724199 ], [ 77.50176968426014, 28.62936534724199 ], [ 77.497871379334896, 28.620865897089146 ], [ 77.53031989491592, 28.620865897089146 ], [ 77.514737220257786, 28.586870701073103 ], [ 77.525551218195872, 28.586870701073103 ], [ 77.521659271865431, 28.578372552688023 ], [ 77.48921890670772, 28.578372552688023 ], [ 77.485330293339885, 28.569874664338645 ], [ 77.474517380935012, 28.569874664338645 ], [ 77.466746349091764, 28.552879667323598 ], [ 77.477558176914386, 28.552879667323598 ], [ 77.469792869893809, 28.535885709181461 ], [ 77.480603614084416, 28.535885709181461 ], [ 77.472844028582088, 28.518892789066236 ], [ 77.462034367073997, 28.518892789066236 ], [ 77.465912768283786, 28.52738911942334 ], [ 77.444292362822367, 28.52738911942334 ], [ 77.440415044057787, 28.518892789066236 ], [ 77.429605382549667, 28.518892789066236 ], [ 77.421856923934797, 28.50190090613247 ], [ 77.41104834416042, 28.50190090613247 ], [ 77.407177202301895, 28.493405353344574 ], [ 77.363945045249508, 28.493405353344574 ], [ 77.360077761346076, 28.484910059535238 ], [ 77.349270262357336, 28.484910059535238 ], [ 77.333820231641965, 28.450931471973433 ], [ 77.344625571900679, 28.450931471973433 ], [ 77.340766757852577, 28.442437471474616 ], [ 77.351571559020201, 28.442437471474616 ], [ 77.347713898152705, 28.43394372932169 ], [ 77.369322422778538, 28.43394372932169 ], [ 77.361610021280654, 28.416957019632171 ], [ 77.37241320659291, 28.416957019632171 ], [ 77.368559004238207, 28.408464051885019 ], [ 77.390164298570582, 28.408464051885019 ], [ 77.386310710800956, 28.399971342062621 ], [ 77.364706492288718, 28.399971342062621 ], [ 77.360855670101671, 28.391478890059787 ], [ 77.350054098519706, 28.391478890059787 ], [ 77.338513375719643, 28.366003079917153 ], [ 77.349313335693893, 28.366003079917153 ], [ 77.337786186049897, 28.34052958636661 ], [ 77.348584536536649, 28.34052958636661 ], [ 77.337070947002857, 28.315058406573204 ], [ 77.326274203885873, 28.315058406573204 ], [ 77.322440244066769, 28.306568526987384 ], [ 77.311644036269499, 28.306568526987384 ], [ 77.30781229425601, 28.298078904066127 ], [ 77.286220948830987, 28.298078904066127 ], [ 77.293883974534907, 28.315058406573204 ], [ 77.283087231417909, 28.315058406573204 ], [ 77.286920732376785, 28.323548542928435 ], [ 77.27612345370504, 28.323548542928435 ], [ 77.279958101930674, 28.332038936157939 ], [ 77.269160287469035, 28.332038936157939 ], [ 77.272996083129456, 28.34052958636661 ], [ 77.240601031669229, 28.34052958636661 ], [ 77.24443690241182, 28.349020493659392 ], [ 77.233638015664667, 28.349020493659392 ], [ 77.245154123034567, 28.374494759092173 ], [ 77.234353626093423, 28.374494759092173 ], [ 77.24203838269996, 28.391478890059787 ], [ 77.252839954281924, 28.391478890059787 ], [ 77.256685399727587, 28.399971342062621 ], [ 77.267487508983692, 28.399971342062621 ], [ 77.286742752014462, 28.442437471474616 ], [ 77.275937950846838, 28.442437471474616 ], [ 77.279793530348371, 28.450931471973433 ], [ 77.268988190089644, 28.450931471973433 ], [ 77.272844921524765, 28.459425730923492 ], [ 77.251233162352207, 28.459425730923492 ], [ 77.258949542144876, 28.476415024598946 ], [ 77.248142583193669, 28.476415024598946 ], [ 77.252002771458763, 28.484910059535238 ], [ 77.230387773481283, 28.484910059535238 ], [ 77.226528665291255, 28.476415024598946 ], [ 77.215721706340062, 28.476415024598946 ], [ 77.200304342673476, 28.442437471474616 ], [ 77.211109143841099, 28.442437471474616 ], [ 77.203409520884136, 28.425450245409305 ], [ 77.149390902411639, 28.425450245409305 ], [ 77.14554631503492, 28.416957019632171 ], [ 77.134743129722622, 28.416957019632171 ], [ 77.130900766582073, 28.408464051885019 ], [ 77.120098119415871, 28.408464051885019 ], [ 77.11241952371627, 28.391478890059787 ], [ 77.101617952134305, 28.391478890059787 ], [ 77.105455870141995, 28.399971342062621 ], [ 77.083851651629772, 28.399971342062621 ], [ 77.080014808970347, 28.391478890059787 ], [ 77.069213237388368, 28.391478890059787 ], [ 77.065378615155396, 28.382986695771351 ], [ 77.032975512724363, 28.382986695771351 ], [ 77.036808522642445, 28.391478890059787 ], [ 77.026006951060481, 28.391478890059787 ], [ 77.029841105349192, 28.399971342062621 ], [ 76.99743477758085, 28.399971342062621 ], [ 76.993602236314544, 28.391478890059787 ], [ 76.982800664732565, 28.391478890059787 ], [ 76.967489452633629, 28.357511658141235 ], [ 76.978288875876601, 28.357511658141235 ], [ 76.974464733732916, 28.349020493659392 ], [ 76.963665846985748, 28.349020493659392 ], [ 76.95984391901392, 28.34052958636661 ], [ 76.927448867553707, 28.34052958636661 ], [ 76.931269186744288, 28.349020493659392 ], [ 76.88807363975566, 28.349020493659392 ], [ 76.891893489932869, 28.357511658141235 ], [ 76.881094066689897, 28.357511658141235 ], [ 76.884915056800466, 28.366003079917153 ], [ 76.874115096826202, 28.366003079917153 ], [ 76.881761034712838, 28.382986695771351 ], [ 76.89256206885652, 28.382986695771351 ], [ 76.900215794275823, 28.399971342062621 ], [ 76.932622122044165, 28.399971342062621 ], [ 76.936453117590688, 28.408464051885019 ], [ 76.958058411923062, 28.408464051885019 ], [ 76.961892164726052, 28.416957019632171 ], [ 76.972695350038336, 28.416957019632171 ], [ 76.980368979513628, 28.43394372932169 ], [ 76.969564717200711, 28.43394372932169 ], [ 76.977244003104289, 28.450931471973433 ], [ 76.966438662845562, 28.450931471973433 ], [ 76.970280293108786, 28.459425730923492 ], [ 76.981086172695072, 28.459425730923492 ], [ 76.996471710304206, 28.493405353344574 ], [ 76.98566367104111, 28.493405353344574 ], [ 76.997218922225514, 28.518892789066236 ], [ 77.008028583733619, 28.518892789066236 ], [ 77.02732384383917, 28.561377035919108 ], [ 77.016511473844247, 28.561377035919108 ], [ 77.020375059930231, 28.569874664338645 ], [ 77.009562147525344, 28.569874664338645 ], [ 77.01342688439469, 28.578372552688023 ], [ 76.991799974289563, 28.578372552688023 ], [ 76.995665319229289, 28.586870701073103 ], [ 76.963223325415001, 28.586870701073103 ], [ 76.967088734998498, 28.595369109599815 ], [ 76.934645111813865, 28.595369109599815 ], [ 76.942377752593359, 28.612366707501849 ], [ 76.953193380615943, 28.612366707501849 ], [ 76.960933887440447, 28.62936534724199 ], [ 76.950117171504075, 28.62936534724199 ], [ 76.953989424382911, 28.637865058066453 ], [ 76.943172164132079, 28.637865058066453 ], [ 76.950920670644834, 28.654865262154701 ], [ 76.940102321049636, 28.654865262154701 ], [ 76.943978575270037, 28.663365755630782 ], [ 76.900702996768771, 28.663365755630782 ], [ 76.904578767873275, 28.671866510203099 ], [ 76.893759327979083, 28.671866510203099 ], [ 76.897636251232186, 28.680367525977893 ], [ 76.886816265830291, 28.680367525977893 ], [ 76.890694341406345, 28.688868803061425 ], [ 76.87987381025782, 28.688868803061425 ], [ 76.883753038331363, 28.697370341560006 ], [ 76.872931961197182, 28.697370341560006 ], [ 76.876812341942895, 28.705872141579988 ], [ 76.865990718583959, 28.705872141579988 ], [ 76.869872252176705, 28.714374203227731 ], [ 76.859050082353804, 28.714374203227731 ], [ 76.866817155723453, 28.731379111832165 ], [ 76.877640419192289, 28.731379111832165 ], [ 76.873755485494812, 28.722876526609635 ], [ 76.895400918547182, 28.722876526609635 ], [ 76.891516591822551, 28.714374203227731 ], [ 76.956449610760046, 28.714374203227731 ], [ 76.952563705455518, 28.705872141579988 ], [ 76.974206952173404, 28.705872141579988 ], [ 76.978093950405892, 28.714374203227731 ], [ 76.988916120228808, 28.714374203227731 ], [ 76.996696317349574, 28.731379111832165 ], [ 76.985873053880738, 28.731379111832165 ], [ 76.989765160433421, 28.739881959001778 ], [ 77.000588971084397, 28.739881959001778 ], [ 77.008379392182505, 28.756888439608357 ], [ 77.019204297916559, 28.756888439608357 ], [ 77.015307687215937, 28.748385068224991 ], [ 77.026132045288634, 28.748385068224991 ], [ 77.022236592386349, 28.739881959001778 ], [ 77.054708024339305, 28.739881959001778 ], [ 77.058605119506723, 28.748385068224991 ], [ 77.069429477579419, 28.748385068224991 ], [ 77.073328826586931, 28.756888439608357 ], [ 77.094978638055053, 28.756888439608357 ], [ 77.098880789940623, 28.765392073258425 ], [ 77.109706243575829, 28.765392073258425 ], [ 77.125334133842358, 28.799409232658714 ], [ 77.114506486203169, 28.799409232658714 ], [ 77.118417185744704, 28.807914179242264 ], [ 77.129245382485195, 28.807914179242264 ], [ 77.140989401561171, 28.833430596861664 ], [ 77.162649092534522, 28.833430596861664 ], [ 77.16656829227297, 28.841936595713879 ], [ 77.177398687822759, 28.841936595713879 ], [ 77.181320152743154, 28.850442857900482 ], [ 77.192151098596725, 28.850442857900482 ], [ 77.180390198340092, 28.824924861236905 ], [ 77.19121949400423, 28.824924861236905 ], [ 77.187302073289175, 28.816419388732712 ], [ 77.176473327207063, 28.816419388732712 ], [ 77.164732991402047, 28.790904548875282 ], [ 77.175560090180127, 28.790904548875282 ], [ 77.171649519952922, 28.782400127785237 ], [ 77.182476070110056, 28.782400127785237 ], [ 77.178566662472861, 28.773895969281842 ], [ 77.211044667801445, 28.773895969281842 ], [ 77.214955720581429, 28.782400127785237 ], [ 77.225782270738534, 28.782400127785237 ], [ 77.229695584070541, 28.790904548875282 ], [ 77.251349781626715, 28.790904548875282 ], [ 77.255265905512445, 28.799409232658714 ], [ 77.298576496069145, 28.799409232658714 ], [ 77.294658176739048, 28.790904548875282 ], [ 77.305485275517128, 28.790904548875282 ], [ 77.301568121838372, 28.782400127785237 ], [ 77.312394671995492, 28.782400127785237 ], [ 77.308478683787158, 28.773895969281842 ], [ 77.319304685563353, 28.773895969281842 ], [ 77.315389862644764, 28.765392073258425 ], [ 77.326215316279956, 28.765392073258425 ], [ 77.322301658470565, 28.756888439608357 ], [ 77.333126564204647, 28.756888439608357 ], [ 77.32921407132406, 28.748385068224991 ], [ 77.340038429396742, 28.748385068224991 ], [ 77.336127101264836, 28.739881959001778 ], [ 77.368598533217778, 28.739881959001778 ], [ 77.364687275290237, 28.731379111832165 ], [ 77.353864011821386, 28.731379111832165 ], [ 77.346047724385045, 28.714374203227731 ], [ 77.356869894207975, 28.714374203227731 ], [ 77.352963769736462, 28.705872141579988 ], [ 77.363785393095412, 28.705872141579988 ], [ 77.359880432235187, 28.697370341560006 ], [ 77.392343663637703, 28.697370341560006 ], [ 77.396250263172249, 28.705872141579988 ], [ 77.407071886531199, 28.705872141579988 ], [ 77.410980743322554, 28.714374203227731 ], [ 77.42180291314547, 28.714374203227731 ], [ 77.425714028330276, 28.722876526609635 ], [ 77.447359461382646, 28.722876526609635 ], [ 77.45127338304097, 28.731379111832165 ], [ 77.462096646509821, 28.731379111832165 ], [ 77.489545954744543, 28.790904548875282 ], [ 77.511200152300717, 28.790904548875282 ], [ 77.515129448852647, 28.799409232658714 ], [ 77.525957096491823, 28.799409232658714 ], [ 77.529888661883206, 28.807914179242264 ], [ 77.540716858623682, 28.807914179242264 ], [ 77.54858625092092, 28.824924861236905 ], [ 77.537756955256782, 28.824924861236905 ], [ 77.541693684568031, 28.833430596861664 ], [ 77.5525235300547, 28.833430596861664 ], [ 77.560403257619086, 28.850442857900482 ], [ 77.57123420347267, 28.850442857900482 ], [ 77.579121929203623, 28.867456172704681 ], [ 77.589953976387264, 28.867456172704681 ], [ 77.593900978621235, 28.875963225536303 ], [ 77.604733576831293, 28.875963225536303 ], [ 77.612633864821362, 28.892978122593842 ], [ 77.62346756580753, 28.892978122593842 ], [ 77.607671692974421, 28.858949383528419 ] ] ] ] } }
]
}
