{
"type": "FeatureCollection",
"name": "ghsl_178",
"crs": { "type": "name", "properties": { "name": "urn:ogc:def:crs:OGC:1.3:CRS84" } },
"features": [
{ "type": "Feature", "properties": { "city_id": "ghsl_178", "city_name": "Singapore" }, "geometry": { "type": "MultiPolygon", "coordinates": [ [ [ [ 103.75889619319193, 1.431576268033568 ], [ 103.748916497491919, 1.431576268033568 ], [ 103.7484674699366, 1.415398996848906 ], [ 103.758447122444267, 1.415398996848906 ], [ 103.758003160504984, 1.399221768904464 ], [ 103.767982770311718, 1.399221768904464 ], [ 103.767762683917439, 1.391133170992759 ], [ 103.77774227255793, 1.391133170992759 ], [ 103.77752344237166, 1.383044583705631 ], [ 103.787503009968788, 1.383044583705631 ], [ 103.787069139903792, 1.366867440757813 ], [ 103.817007717540292, 1.366867440757813 ], [ 103.8174417127601, 1.383044583705631 ], [ 103.827421280357214, 1.383044583705631 ], [ 103.827640215760439, 1.391133170992759 ], [ 103.837619804400944, 1.391133170992759 ], [ 103.837840038958774, 1.399221768904464 ], [ 103.867778868378949, 1.399221768904464 ], [ 103.868000444939568, 1.407310377502571 ], [ 103.877980076035342, 1.407310377502571 ], [ 103.87820295253654, 1.415398996848906 ], [ 103.888182605044236, 1.415398996848906 ], [ 103.888632237292285, 1.431576268033568 ], [ 103.898611932992324, 1.431576268033568 ], [ 103.8983864557988, 1.423487627005296 ], [ 103.918345803883668, 1.423487627005296 ], [ 103.917898600418511, 1.407310377502571 ], [ 103.937857862610059, 1.407310377502571 ], [ 103.937415690805935, 1.391133170992759 ], [ 103.97733404536794, 1.391133170992759 ], [ 103.976896823066554, 1.374956006981256 ], [ 103.986876369743101, 1.374956006981256 ], [ 103.98665965748053, 1.366867440757813 ], [ 103.976680131601697, 1.366867440757813 ], [ 103.975615870180476, 1.326424764990811 ], [ 103.965636446447846, 1.326424764990811 ], [ 103.965219739526944, 1.310247766026822 ], [ 103.945260972059188, 1.310247766026822 ], [ 103.945054577448147, 1.302159281585305 ], [ 103.925095849610699, 1.302159281585305 ], [ 103.924890773587592, 1.294070807088353 ], [ 103.894952740908437, 1.294070807088353 ], [ 103.894749002528854, 1.285982342474151 ], [ 103.884769677872001, 1.285982342474151 ], [ 103.884567237483125, 1.277893887680888 ], [ 103.864608627062864, 1.277893887680888 ], [ 103.864407503720543, 1.26980544264675 ], [ 103.854428217834311, 1.26980544264675 ], [ 103.854029843799566, 1.253628581608605 ], [ 103.814112853372436, 1.253628581608605 ], [ 103.814311325083565, 1.261717007309925 ], [ 103.794352791713379, 1.261717007309925 ], [ 103.794154358158877, 1.253628581608605 ], [ 103.774195862945305, 1.253628581608605 ], [ 103.774593930744601, 1.26980544264675 ], [ 103.764614644858369, 1.26980544264675 ], [ 103.764815574961517, 1.277893887680888 ], [ 103.74485696454127, 1.277893887680888 ], [ 103.745059132676019, 1.285982342474151 ], [ 103.755038457332873, 1.285982342474151 ], [ 103.755241921739014, 1.294070807088353 ], [ 103.725303889059859, 1.294070807088353 ], [ 103.725100483362311, 1.285982342474151 ], [ 103.695162509391736, 1.285982342474151 ], [ 103.695365856380704, 1.294070807088353 ], [ 103.675407167927943, 1.294070807088353 ], [ 103.675203860078028, 1.285982342474151 ], [ 103.665224535421174, 1.285982342474151 ], [ 103.665427823701549, 1.294070807088353 ], [ 103.615531102569605, 1.294070807088353 ], [ 103.615735568130191, 1.302159281585305 ], [ 103.625714932048922, 1.302159281585305 ], [ 103.626545626022093, 1.334513279636914 ], [ 103.636525069938315, 1.334513279636914 ], [ 103.636735952093332, 1.342601804474848 ], [ 103.646715416315985, 1.342601804474848 ], [ 103.646504513854538, 1.334513279636914 ], [ 103.666463401686968, 1.334513279636914 ], [ 103.666674344761262, 1.342601804474848 ], [ 103.6766538089839, 1.342601804474848 ], [ 103.676866048367359, 1.350690339566428 ], [ 103.696825017671102, 1.350690339566428 ], [ 103.697038574184916, 1.358778884973477 ], [ 103.716997584592818, 1.358778884973477 ], [ 103.717212458751931, 1.366867440757813 ], [ 103.727191984630778, 1.366867440757813 ], [ 103.727625604386105, 1.383044583705631 ], [ 103.737605171983219, 1.383044583705631 ], [ 103.73916320947005, 1.439664919995551 ], [ 103.759122644430988, 1.439664919995551 ], [ 103.75889619319193, 1.431576268033568 ] ] ] ] } }
]
}
