{
"type": "FeatureCollection",
"name": "ghsl_7599",
"crs": { "type": "name", "properties": { "name": "urn:ogc:def:crs:OGC:1.3:CRS84" } },
"features": [
{ "type": "Feature", "properties": { "city_id": "ghsl_7599", "city_name": "Mumbai" }, "geometry": { "type": "MultiPolygon", "coordinates": [ [ [ [ 73.080656732085956, 19.308297584251527 ], [ 73.09099784666526, 19.308297584251527 ], [ 73.088711458797306, 19.300029066500379 ], [ 73.09905224989221, 19.300029066500379 ], [ 73.096766718045799, 19.291760708023677 ], [ 73.117447653600493, 19.291760708023677 ], [ 73.115162654653517, 19.283492508742331 ], [ 73.104822510026921, 19.283492508742331 ], [ 73.102539013293537, 19.27522446857725 ], [ 73.071519548365686, 19.27522446857725 ], [ 73.069238198842214, 19.266956587449382 ], [ 73.05889870001684, 19.266956587449382 ], [ 73.049786368021373, 19.233886651729414 ], [ 73.039448158798606, 19.233886651729414 ], [ 73.037173339972412, 19.22561956460229 ], [ 73.026835452733906, 19.22561956460229 ], [ 73.022289986553673, 19.209085865958688 ], [ 73.032627230323001, 19.209085865958688 ], [ 73.023549114558662, 19.176020368904236 ], [ 73.033885073385932, 19.176020368904236 ], [ 73.031618160097537, 19.167754390062253 ], [ 73.041953798104913, 19.167754390062253 ], [ 73.039687738314115, 19.159488569231204 ], [ 73.050023055667765, 19.159488569231204 ], [ 73.04549381702293, 19.14295740128663 ], [ 73.035159140478356, 19.14295740128663 ], [ 73.028375043570435, 19.118161832481615 ], [ 73.038708760146562, 19.118161832481615 ], [ 73.029678433714054, 19.085103279242684 ], [ 73.040010872654875, 19.085103279242684 ], [ 73.028747727259884, 19.043783624630908 ], [ 73.039078572885458, 19.043783624630908 ], [ 73.036829137270828, 19.035520164513692 ], [ 73.047159664730131, 19.035520164513692 ], [ 73.044911081126273, 19.027256861148128 ], [ 73.055241290584789, 19.027256861148128 ], [ 73.048501604841022, 19.002467890775776 ], [ 73.027843091943723, 19.002467890775776 ], [ 73.025599503403612, 18.994205213631318 ], [ 73.004941625184827, 18.994205213631318 ], [ 73.00718457904641, 19.002467890775776 ], [ 72.996855322597781, 19.002467890775776 ], [ 73.005837554892921, 19.035520164513692 ], [ 72.995507027433618, 19.035520164513692 ], [ 73.000004522980845, 19.052047241578347 ], [ 72.989673359023442, 19.052047241578347 ], [ 72.991923543070769, 19.060311015434632 ], [ 72.971260578161179, 19.060311015434632 ], [ 72.975763181812681, 19.076839034188161 ], [ 72.986095301759136, 19.076839034188161 ], [ 72.99060322495508, 19.093367681520611 ], [ 72.980270466854151, 19.093367681520611 ], [ 72.984782435682121, 19.109896958061373 ], [ 72.974449038763566, 19.109896958061373 ], [ 72.983485757755503, 19.14295740128663 ], [ 72.973151081210943, 19.14295740128663 ], [ 72.966372744113599, 19.118161832481615 ], [ 72.945705310961316, 19.118161832481615 ], [ 72.943448848007947, 19.109896958061373 ], [ 72.933115451089407, 19.109896958061373 ], [ 72.924102582080408, 19.076839034188161 ], [ 72.934434702026863, 19.076839034188161 ], [ 72.932184090491674, 19.06857494627835 ], [ 72.942515891609474, 19.06857494627835 ], [ 72.940266130796829, 19.060311015434632 ], [ 72.950597613251617, 19.060311015434632 ], [ 72.948348703193844, 19.052047241578347 ], [ 72.958679867151233, 19.052047241578347 ], [ 72.956431807880776, 19.043783624630908 ], [ 72.96676265350635, 19.043783624630908 ], [ 72.962269405458187, 19.027256861148128 ], [ 72.951939195999671, 19.027256861148128 ], [ 72.949694642792423, 19.018993714455657 ], [ 72.939364751169265, 19.018993714455657 ], [ 72.937121683723433, 19.01073072435771 ], [ 72.92679210977019, 19.01073072435771 ], [ 72.922310112309702, 18.994205213631318 ], [ 72.911981173200303, 18.994205213631318 ], [ 72.90974224209485, 18.98594269284585 ], [ 72.899413620159436, 18.98594269284585 ], [ 72.901652234090918, 18.994205213631318 ], [ 72.880994355872119, 18.994205213631318 ], [ 72.885473813957276, 19.01073072435771 ], [ 72.875144240004076, 19.01073072435771 ], [ 72.848341215623378, 18.911587028986126 ], [ 72.838015440823142, 18.911587028986126 ], [ 72.835789738058253, 18.903326067476481 ], [ 72.825464278781524, 18.903326067476481 ], [ 72.821016991376055, 18.886804610868516 ], [ 72.800367333927767, 18.886804610868516 ], [ 72.802589766161333, 18.895065261463387 ], [ 72.79226462224328, 18.895065261463387 ], [ 72.79893794455063, 18.919848146070631 ], [ 72.80926403503922, 18.919848146070631 ], [ 72.815948768374042, 18.944632431556798 ], [ 72.805621729830804, 18.944632431556798 ], [ 72.803392638359739, 18.936370847277605 ], [ 72.782739193639657, 18.936370847277605 ], [ 72.793893123201769, 18.977680328340867 ], [ 72.804221428128429, 18.977680328340867 ], [ 72.813166796284719, 19.01073072435771 ], [ 72.80283722233149, 19.01073072435771 ], [ 72.825279095340235, 19.093367681520611 ], [ 72.814946337239306, 19.093367681520611 ], [ 72.81944808498541, 19.109896958061373 ], [ 72.809114688066856, 19.109896958061373 ], [ 72.813620471902439, 19.126426864440074 ], [ 72.772284326303861, 19.126426864440074 ], [ 72.792606726354038, 19.200819254284337 ], [ 72.802943648638376, 19.200819254284337 ], [ 72.809739820725511, 19.22561956460229 ], [ 72.820077707963989, 19.22561956460229 ], [ 72.822345765120659, 19.233886651729414 ], [ 72.832683974343411, 19.233886651729414 ], [ 72.839496151426872, 19.258688865279687 ], [ 72.849835327601667, 19.258688865279687 ], [ 72.856659038988624, 19.283492508742331 ], [ 72.846318894362028, 19.283492508742331 ], [ 72.848595491389531, 19.291760708023677 ], [ 72.817574088057512, 19.291760708023677 ], [ 72.822128867602842, 19.308297584251527 ], [ 72.832469982182175, 19.308297584251527 ], [ 72.834749458411579, 19.316566261356215 ], [ 72.845090896642205, 19.316566261356215 ], [ 72.84737187246607, 19.324835097893597 ], [ 72.868055396563875, 19.324835097893597 ], [ 72.865773773103498, 19.316566261356215 ], [ 72.876115211334138, 19.316566261356215 ], [ 72.873834440499465, 19.308297584251527 ], [ 72.884175555078784, 19.308297584251527 ], [ 72.881895636899188, 19.300029066500379 ], [ 72.912918010183901, 19.300029066500379 ], [ 72.910638298053613, 19.291760708023677 ], [ 72.920978765830952, 19.291760708023677 ], [ 72.918699906748202, 19.283492508742331 ], [ 72.929040051374798, 19.283492508742331 ], [ 72.92448521528712, 19.266956587449382 ], [ 72.903806217636387, 19.266956587449382 ], [ 72.901531208475646, 19.258688865279687 ], [ 72.89119203230085, 19.258688865279687 ], [ 72.888918520607248, 19.250421301989128 ], [ 72.878579666916409, 19.250421301989128 ], [ 72.871767144156479, 19.22561956460229 ], [ 72.882105031394957, 19.22561956460229 ], [ 72.879836215937686, 19.217352636038363 ], [ 72.890173781358399, 19.217352636038363 ], [ 72.881108963927218, 19.184286505835999 ], [ 72.891445243740577, 19.184286505835999 ], [ 72.886919227994312, 19.167754390062253 ], [ 72.897254866001688, 19.167754390062253 ], [ 72.894993295362866, 19.159488569231204 ], [ 72.905328612716531, 19.159488569231204 ], [ 72.900808345398943, 19.14295740128663 ], [ 72.911143021943516, 19.14295740128663 ], [ 72.920189526286123, 19.176020368904236 ], [ 72.930525485113364, 19.176020368904236 ], [ 72.946404275793768, 19.233886651729414 ], [ 72.956742485016534, 19.233886651729414 ], [ 72.961290496443311, 19.250421301989128 ], [ 72.950951642752457, 19.250421301989128 ], [ 72.9555037117632, 19.266956587449382 ], [ 72.945164212937854, 19.266956587449382 ], [ 72.949720340627991, 19.283492508742331 ], [ 72.939380196001395, 19.283492508742331 ], [ 72.941659701385632, 19.291760708023677 ], [ 72.962340636940311, 19.291760708023677 ], [ 72.960060485254587, 19.283492508742331 ], [ 72.970400629881183, 19.283492508742331 ], [ 72.968121331939528, 19.27522446857725 ], [ 72.978461153582145, 19.27522446857725 ], [ 72.976182709413919, 19.266956587449382 ], [ 72.996861707064667, 19.266956587449382 ], [ 72.994583794048808, 19.258688865279687 ], [ 73.015262146398385, 19.258688865279687 ], [ 73.017540704715373, 19.266956587449382 ], [ 73.027880203540747, 19.266956587449382 ], [ 73.041578223024402, 19.316566261356215 ], [ 73.051919661255042, 19.316566261356215 ], [ 73.054207113444107, 19.324835097893597 ], [ 73.085232399590822, 19.324835097893597 ], [ 73.080656732085956, 19.308297584251527 ] ], [ [ 72.830218588084762, 19.035520164513692 ], [ 72.819888060625473, 19.035520164513692 ], [ 72.817646473039062, 19.027256861148128 ], [ 72.82797668249755, 19.027256861148128 ], [ 72.830218588084762, 19.035520164513692 ] ] ] ] } }
]
}
