{
"type": "FeatureCollection",
"name": "ghsl_3700",
"crs": { "type": "name", "properties": { "name": "urn:ogc:def:crs:OGC:1.3:CRS84" } },
"features": [
{ "type": "Feature", "properties": { "city_id": "ghsl_3700", "city_name": "Montreal" }, "geometry": { "type": "MultiPolygon", "coordinates": [ [ [ [ -73.923640544416273, 45.709149979752411 ], [ -73.898683204597091, 45.709149979752411 ], [ -73.875613359214526, 45.681370263458668 ], [ -73.863138584922169, 45.681370263458668 ], [ -73.855457571468946, 45.672111496762049 ], [ -73.842984094425972, 45.672111496762049 ], [ -73.835308191520014, 45.66285329902216 ], [ -73.822836011082259, 45.66285329902216 ], [ -73.815165214864678, 45.653595669992932 ], [ -73.79022344591219, 45.653595669992932 ], [ -73.797891650206751, 45.66285329902216 ], [ -73.785419469768982, 45.66285329902216 ], [ -73.800764713460495, 45.681370263458668 ], [ -73.788289939168166, 45.681370263458668 ], [ -73.803647839602377, 45.699889504707386 ], [ -73.791170468877169, 45.699889504707386 ], [ -73.783490909587684, 45.690629599358324 ], [ -73.746062693028875, 45.690629599358324 ], [ -73.730722801039178, 45.672111496762049 ], [ -73.75566975512514, 45.672111496762049 ], [ -73.748002928455705, 45.66285329902216 ], [ -73.760475108893473, 45.66285329902216 ], [ -73.737493569996076, 45.635082117082625 ], [ -73.725025275513474, 45.635082117082625 ], [ -73.717373658344755, 45.625826192710051 ], [ -73.679972656996043, 45.625826192710051 ], [ -73.672328715974388, 45.616570836065087 ], [ -73.64739730185731, 45.616570836065087 ], [ -73.655038656096892, 45.625826192710051 ], [ -73.642571655647302, 45.625826192710051 ], [ -73.657863156266188, 45.644338609428345 ], [ -73.645393567108187, 45.644338609428345 ], [ -73.637747214135402, 45.635082117082625 ], [ -73.612810625170241, 45.635082117082625 ], [ -73.620454388792211, 45.644338609428345 ], [ -73.60798479963421, 45.644338609428345 ], [ -73.615631063244834, 45.653595669992932 ], [ -73.590689294292346, 45.653595669992932 ], [ -73.598336763202639, 45.66285329902216 ], [ -73.58586458276487, 45.66285329902216 ], [ -73.601168324783117, 45.681370263458668 ], [ -73.576218776198459, 45.681370263458668 ], [ -73.568567599480474, 45.672111496762049 ], [ -73.50620021426559, 45.672111496762049 ], [ -73.513844904736771, 45.681370263458668 ], [ -73.488895356152085, 45.681370263458668 ], [ -73.473614958825067, 45.66285329902216 ], [ -73.486087139262821, 45.66285329902216 ], [ -73.470819318896289, 45.644338609428345 ], [ -73.483288908054291, 45.644338609428345 ], [ -73.475659385861817, 45.635082117082625 ], [ -73.488127680344405, 45.635082117082625 ], [ -73.472877403037742, 45.616570836065087 ], [ -73.447945988920665, 45.616570836065087 ], [ -73.440329108883887, 45.607316046902341 ], [ -73.427864694574836, 45.607316046902341 ], [ -73.412644847743081, 45.58880817004254 ], [ -73.425106678476013, 45.58880817004254 ], [ -73.40230131894522, 45.561050604742476 ], [ -73.414759279114762, 45.561050604742476 ], [ -73.407163736512047, 45.551799215327435 ], [ -73.432077079032496, 45.551799215327435 ], [ -73.424482722718167, 45.542548391680754 ], [ -73.436938105707611, 45.542548391680754 ], [ -73.41417373515641, 45.514799312908799 ], [ -73.401722213152482, 45.514799312908799 ], [ -73.386567314368065, 45.496302751428075 ], [ -73.399016265566431, 45.496302751428075 ], [ -73.383873794433597, 45.477808447166829 ], [ -73.408766560306887, 45.477808447166829 ], [ -73.401198376524064, 45.468562140885041 ], [ -73.413643476282729, 45.468562140885041 ], [ -73.406077753306988, 45.45931639817821 ], [ -73.430965387737672, 45.45931639817821 ], [ -73.4234008424216, 45.450071218803366 ], [ -73.435843377727906, 45.450071218803366 ], [ -73.428281291377274, 45.440826602517618 ], [ -73.453163799439409, 45.440826602517618 ], [ -73.445602890176033, 45.431582549078257 ], [ -73.458042863565296, 45.431582549078257 ], [ -73.450484411428704, 45.42233905824267 ], [ -73.462923104809121, 45.42233905824267 ], [ -73.455367108564886, 45.413096129768434 ], [ -73.467804522569054, 45.413096129768434 ], [ -73.460250980983886, 45.403853763413203 ], [ -73.472687116243918, 45.403853763413203 ], [ -73.465136028085681, 45.39461195893486 ], [ -73.490005742380902, 45.39461195893486 ], [ -73.482455828937518, 45.385370716091316 ], [ -73.49488940860401, 45.385370716091316 ], [ -73.479798211499272, 45.3668899143413 ], [ -73.492229238095689, 45.3668899143413 ], [ -73.499774249573946, 45.37613003464071 ], [ -73.549503460838892, 45.37613003464071 ], [ -73.541953344481414, 45.3668899143413 ], [ -73.566815397674276, 45.3668899143413 ], [ -73.559266457387309, 45.357650354951424 ], [ -73.571696208393973, 45.357650354951424 ], [ -73.586800369287587, 45.37613003464071 ], [ -73.59923267210381, 45.37613003464071 ], [ -73.614354313857007, 45.39461195893486 ], [ -73.626789171004617, 45.39461195893486 ], [ -73.641928318627279, 45.413096129768434 ], [ -73.654365732631433, 45.413096129768434 ], [ -73.661942198895986, 45.42233905824267 ], [ -73.686819585656835, 45.42233905824267 ], [ -73.694402357961167, 45.431582549078257 ], [ -73.731722278128956, 45.431582549078257 ], [ -73.724135665798116, 45.42233905824267 ], [ -73.749013052558979, 45.42233905824267 ], [ -73.756602224907454, 45.431582549078257 ], [ -73.769042198296731, 45.431582549078257 ], [ -73.776636404247242, 45.440826602517618 ], [ -73.801518912309376, 45.440826602517618 ], [ -73.793922145075243, 45.431582549078257 ], [ -73.818802091853755, 45.431582549078257 ], [ -73.811206519461109, 45.42233905824267 ], [ -73.848522599602418, 45.42233905824267 ], [ -73.840926942693841, 45.413096129768434 ], [ -73.890676598710456, 45.413096129768434 ], [ -73.898277373124117, 45.42233905824267 ], [ -73.885838679743699, 45.42233905824267 ], [ -73.908659719366952, 45.450071218803366 ], [ -73.89621718406066, 45.450071218803366 ], [ -73.911447466628758, 45.468562140885041 ], [ -73.886557267111471, 45.468562140885041 ], [ -73.894175494835864, 45.477808447166829 ], [ -73.881729111899233, 45.477808447166829 ], [ -73.896974313501076, 45.496302751428075 ], [ -73.909423264699441, 45.496302751428075 ], [ -73.924686137317451, 45.514799312908799 ], [ -73.949589181325294, 45.514799312908799 ], [ -73.964872323679728, 45.533298133558148 ], [ -73.952418228322983, 45.533298133558148 ], [ -73.960064191263868, 45.542548391680754 ], [ -73.935153425284994, 45.542548391680754 ], [ -73.942800600701759, 45.551799215327435 ], [ -73.93034392944152, 45.551799215327435 ], [ -73.937993606235565, 45.561050604742476 ], [ -73.925535646066024, 45.561050604742476 ], [ -73.948503569259458, 45.58880817004254 ], [ -73.923579907793567, 45.58880817004254 ], [ -73.91592271924344, 45.579555081855403 ], [ -73.853620019716089, 45.579555081855403 ], [ -73.861270754128881, 45.58880817004254 ], [ -73.84880892339595, 45.58880817004254 ], [ -73.871780028911033, 45.616570836065087 ], [ -73.859314321852494, 45.616570836065087 ], [ -73.882315761110078, 45.644338609428345 ], [ -73.869846171952076, 45.644338609428345 ], [ -73.885196913271031, 45.66285329902216 ], [ -73.897669093708799, 45.66285329902216 ], [ -73.920727703636629, 45.690629599358324 ], [ -73.933203775822889, 45.690629599358324 ], [ -73.948597884235454, 45.709149979752411 ], [ -73.936119214325871, 45.709149979752411 ], [ -73.943820708634291, 45.718411024740092 ], [ -73.931340738894434, 45.718411024740092 ], [ -73.923640544416273, 45.709149979752411 ] ], [ [ -73.472877403037742, 45.616570836065087 ], [ -73.485343110096281, 45.616570836065087 ], [ -73.477722351811025, 45.607316046902341 ], [ -73.465257937501974, 45.607316046902341 ], [ -73.472877403037742, 45.616570836065087 ] ], [ [ -73.482568495052078, 45.598061824976526 ], [ -73.495031617252735, 45.598061824976526 ], [ -73.487415832140712, 45.58880817004254 ], [ -73.474954001407781, 45.58880817004254 ], [ -73.482568495052078, 45.598061824976526 ] ], [ [ -73.513204274351935, 45.468562140885041 ], [ -73.525649374110586, 45.468562140885041 ], [ -73.518072108245065, 45.45931639817821 ], [ -73.530515925460406, 45.45931639817821 ], [ -73.522941124871934, 45.450071218803366 ], [ -73.535383660178226, 45.450071218803366 ], [ -73.527811323625826, 45.440826602517618 ], [ -73.577576339750124, 45.440826602517618 ], [ -73.570002624068607, 45.431582549078257 ], [ -73.582442597457856, 45.431582549078257 ], [ -73.574871345232978, 45.42233905824267 ], [ -73.599748731993841, 45.42233905824267 ], [ -73.59217866261065, 45.413096129768434 ], [ -73.567303834602313, 45.413096129768434 ], [ -73.559740063064112, 45.403853763413203 ], [ -73.522431657284017, 45.403853763413203 ], [ -73.529991592589838, 45.413096129768434 ], [ -73.50511676458153, 45.413096129768434 ], [ -73.512677878330848, 45.42233905824267 ], [ -73.500239184950416, 45.42233905824267 ], [ -73.50780275712232, 45.431582549078257 ], [ -73.495362783733057, 45.431582549078257 ], [ -73.510498589565643, 45.450071218803366 ], [ -73.498056054259351, 45.450071218803366 ], [ -73.513204274351935, 45.468562140885041 ] ] ] ] } }
]
}
