{
"type": "FeatureCollection",
"name": "ghsl_358",
"crs": { "type": "name", "properties": { "name": "urn:ogc:def:crs:OGC:1.3:CRS84" } },
"features": [
{ "type": "Feature", "properties": { "city_id": "ghsl_358", "city_name": "Vancouver" }, "geometry": { "type": "MultiPolygon", "coordinates": [ [ [ [ -123.076641311695937, 49.35727567296798 ], [ -123.024490192496074, 49.35727567296798 ], [ -122.994527048976664, 49.338271671514164 ], [ -122.981492444584021, 49.338271671514164 ], [ -122.966524535155102, 49.32877068730695 ], [ -122.95349151718635, 49.32877068730695 ], [ -122.908640767770862, 49.300271797002686 ], [ -122.895612503962525, 49.300271797002686 ], [ -122.880679889918085, 49.290773519963487 ], [ -122.854626528338514, 49.290773519963487 ], [ -122.869555976345879, 49.300271797002686 ], [ -122.830471184920881, 49.300271797002686 ], [ -122.845403901053317, 49.309770750364372 ], [ -122.793284510344321, 49.309770750364372 ], [ -122.8082189109045, 49.319270380361438 ], [ -122.79518747850733, 49.319270380361438 ], [ -122.720603528629127, 49.271778993602112 ], [ -122.733627045930248, 49.271778993602112 ], [ -122.718732683713256, 49.262282743655213 ], [ -122.744776557372774, 49.262282743655213 ], [ -122.729887025258549, 49.252787168781417 ], [ -122.755927739670895, 49.252787168781417 ], [ -122.741043034957329, 49.24329226866881 ], [ -122.767080591816679, 49.24329226866881 ], [ -122.75220071180452, 49.23379804300582 ], [ -122.778235112803813, 49.23379804300582 ], [ -122.763360054796507, 49.224304491480986 ], [ -122.776375678212005, 49.224304491480986 ], [ -122.761507015754788, 49.214811613783084 ], [ -122.774521062931257, 49.214811613783084 ], [ -122.729958127048775, 49.186337020541814 ], [ -122.76898609762128, 49.186337020541814 ], [ -122.754142973611337, 49.176846835043506 ], [ -122.76715072427082, 49.176846835043506 ], [ -122.752313973957939, 49.167357321819068 ], [ -122.76532015259474, 49.167357321819068 ], [ -122.735667325979321, 49.148380310952021 ], [ -122.761673400208807, 49.148380310952021 ], [ -122.746855744866522, 49.138892812690003 ], [ -122.75985721248064, 49.138892812690003 ], [ -122.774676437323507, 49.148380310952021 ], [ -122.813685548667735, 49.148380310952021 ], [ -122.798861615322977, 49.138892812690003 ], [ -122.811863082937123, 49.138892812690003 ], [ -122.782235858699721, 49.119919828962125 ], [ -122.808232520960686, 49.119919828962125 ], [ -122.793427653569424, 49.110434342878044 ], [ -122.806424417715633, 49.110434342878044 ], [ -122.791625896973784, 49.100949526902134 ], [ -122.882592282970066, 49.100949526902134 ], [ -122.927044498778201, 49.129405985463102 ], [ -122.914044599825289, 49.129405985463102 ], [ -122.943715919815062, 49.148380310952021 ], [ -122.956718956929805, 49.148380310952021 ], [ -122.97156809836433, 49.157868480558477 ], [ -122.98457270581973, 49.157868480558477 ], [ -122.999431368056818, 49.167357321819068 ], [ -122.973419010783246, 49.167357321819068 ], [ -122.988282485482159, 49.176846835043506 ], [ -122.975274734822662, 49.176846835043506 ], [ -123.005022426331749, 49.195827878624208 ], [ -123.01803332356323, 49.195827878624208 ], [ -123.032920699066707, 49.20531940960111 ], [ -123.058945642630775, 49.20531940960111 ], [ -123.044055118026165, 49.195827878624208 ], [ -123.083087809720595, 49.195827878624208 ], [ -123.068200538677246, 49.186337020541814 ], [ -123.081209862201433, 49.186337020541814 ], [ -123.0663289894391, 49.176846835043506 ], [ -123.118359992077089, 49.176846835043506 ], [ -123.103480797151093, 49.167357321819068 ], [ -123.116486975787865, 49.167357321819068 ], [ -123.101614172918403, 49.157868480558477 ], [ -123.114618780373846, 49.157868480558477 ], [ -123.084893902833542, 49.138892812690003 ], [ -123.097895370447645, 49.138892812690003 ], [ -123.083043286213211, 49.129405985463102 ], [ -123.096043185166124, 49.129405985463102 ], [ -123.081197474701199, 49.119919828962125 ], [ -123.094195805831689, 49.119919828962125 ], [ -123.109043084119037, 49.129405985463102 ], [ -123.161042679930702, 49.129405985463102 ], [ -123.146189130353704, 49.119919828962125 ], [ -123.159187461484194, 49.119919828962125 ], [ -123.144340285517586, 49.110434342878044 ], [ -123.157337049663823, 49.110434342878044 ], [ -123.172185792614698, 49.119919828962125 ], [ -123.198182454875692, 49.119919828962125 ], [ -123.213042275742367, 49.129405985463102 ], [ -123.200042376789455, 49.129405985463102 ], [ -123.214908578974701, 49.138892812690003 ], [ -123.201907111360583, 49.138892812690003 ], [ -123.216779699224489, 49.148380310952021 ], [ -123.203776662109775, 49.148380310952021 ], [ -123.218655640017133, 49.157868480558477 ], [ -123.192646425106304, 49.157868480558477 ], [ -123.207530226245353, 49.167357321819068 ], [ -123.194524047608553, 49.167357321819068 ], [ -123.209414246693512, 49.176846835043506 ], [ -123.131367742736543, 49.176846835043506 ], [ -123.146256479822299, 49.186337020541814 ], [ -123.13324715629814, 49.186337020541814 ], [ -123.148142295877946, 49.195827878624208 ], [ -123.135131398646479, 49.195827878624208 ], [ -123.17986000409185, 49.224304491480986 ], [ -123.19287562750732, 49.224304491480986 ], [ -123.207802729292652, 49.23379804300582 ], [ -123.194785528792977, 49.23379804300582 ], [ -123.209719058425577, 49.24329226866881 ], [ -123.196700279995881, 49.24329226866881 ], [ -123.211640241886471, 49.252787168781417 ], [ -123.198619884680298, 49.252787168781417 ], [ -123.243483151189707, 49.281275918934128 ], [ -123.139282362222318, 49.281275918934128 ], [ -123.169206043937422, 49.300271797002686 ], [ -123.156177780129099, 49.300271797002686 ], [ -123.171150092984391, 49.309770750364372 ], [ -123.158120245307146, 49.309770750364372 ], [ -123.173099018025184, 49.319270380361438 ], [ -123.160067585628013, 49.319270380361438 ], [ -123.205047468423601, 49.347773333296622 ], [ -123.152902701745603, 49.347773333296622 ], [ -123.137907697295745, 49.338271671514164 ], [ -123.111838488510443, 49.338271671514164 ], [ -123.126830318406604, 49.347773333296622 ], [ -123.100757935067605, 49.347773333296622 ], [ -123.115754651095827, 49.35727567296798 ], [ -123.102716871295854, 49.35727567296798 ], [ -123.117720065195485, 49.366778690842175 ], [ -123.091641327626093, 49.366778690842175 ], [ -123.076641311695937, 49.35727567296798 ] ], [ [ -122.973782086812506, 49.300271797002686 ], [ -122.986810350620829, 49.300271797002686 ], [ -122.971866655446476, 49.290773519963487 ], [ -122.958839974656712, 49.290773519963487 ], [ -122.973782086812506, 49.300271797002686 ] ], [ [ -123.078008197279132, 49.300271797002686 ], [ -123.104064724895778, 49.300271797002686 ], [ -123.08910678255441, 49.290773519963487 ], [ -123.063053420974896, 49.290773519963487 ], [ -123.078008197279132, 49.300271797002686 ] ] ] ] } }
]
}
