{
"type": "FeatureCollection",
"name": "ghsl_9558",
"crs": { "type": "name", "properties": { "name": "urn:ogc:def:crs:OGC:1.3:CRS84" } },
"features": [
{ "type": "Feature", "properties": { "city_id": "ghsl_9558", "city_name": "Bengaluru" }, "geometry": { "type": "MultiPolygon", "coordinates": [ [ [ [ 77.653555080589413, 13.203498990026988 ], [ 77.643410919246435, 13.203498990026988 ], [ 77.640203353940166, 13.187157150517873 ], [ 77.650347096212698, 13.187157150517873 ], [ 77.648744732623868, 13.178986387334204 ], [ 77.658888265573907, 13.178986387334204 ], [ 77.65728677827947, 13.17081572843867 ], [ 77.687716749587565, 13.17081572843867 ], [ 77.686115720599958, 13.162645173761925 ], [ 77.675972605869504, 13.162645173761925 ], [ 77.672774222320811, 13.146304376787494 ], [ 77.682916919398693, 13.146304376787494 ], [ 77.681319146799026, 13.138134134351182 ], [ 77.701604123727293, 13.138134134351182 ], [ 77.703202313554428, 13.146304376787494 ], [ 77.71334501063231, 13.146304376787494 ], [ 77.710149299252478, 13.129963995856405 ], [ 77.679722459276249, 13.129963995856405 ], [ 77.678126856637803, 13.12179396123387 ], [ 77.667984784976127, 13.12179396123387 ], [ 77.666390475218265, 13.113624030414302 ], [ 77.656248611745397, 13.113624030414302 ], [ 77.654655594392651, 13.105454203328431 ], [ 77.644513938966981, 13.105454203328431 ], [ 77.641331571811818, 13.089114860080741 ], [ 77.651472811567785, 13.089114860080741 ], [ 77.648294363304814, 13.072775930936849 ], [ 77.658435187957195, 13.072775930936849 ], [ 77.653675017919866, 13.048268312454223 ], [ 77.663815220977824, 13.048268312454223 ], [ 77.662230456621671, 13.040099312745397 ], [ 77.712930437334961, 13.040099312745397 ], [ 77.711345721884626, 13.031930416147281 ], [ 77.721485511253348, 13.031930416147281 ], [ 77.719901672461873, 13.023761622590706 ], [ 77.730041255198003, 13.023761622590706 ], [ 77.72845829315726, 13.015592932006513 ], [ 77.738597669402125, 13.015592932006513 ], [ 77.737015584204045, 13.007424344325552 ], [ 77.747154754098943, 13.007424344325552 ], [ 77.745573545835583, 12.999255859478675 ], [ 77.796268364266624, 12.999255859478675 ], [ 77.791528148387584, 12.974751021251304 ], [ 77.771251456572557, 12.974751021251304 ], [ 77.769673962613595, 12.966582947049558 ], [ 77.759535822349918, 12.966582947049558 ], [ 77.757959616651178, 12.958414975336334 ], [ 77.727545812368263, 12.958414975336334 ], [ 77.725971305180906, 12.950247106042552 ], [ 77.715833575781517, 12.950247106042552 ], [ 77.714260355628412, 12.942079339099143 ], [ 77.704122831449482, 12.942079339099143 ], [ 77.697841583251204, 12.909409293448061 ], [ 77.707978287958738, 12.909409293448061 ], [ 77.706410473332312, 12.901242037220728 ], [ 77.696273973140109, 12.901242037220728 ], [ 77.69470744342712, 12.893074882929527 ], [ 77.684571147609319, 12.893074882929527 ], [ 77.679878651253304, 12.868574030982717 ], [ 77.690014334793403, 12.868574030982717 ], [ 77.68689099424482, 12.852240638100657 ], [ 77.697026270304093, 12.852240638100657 ], [ 77.695466015499377, 12.84407409397747 ], [ 77.705601088029439, 12.84407409397747 ], [ 77.700926188462603, 12.819575070051938 ], [ 77.711060651249682, 12.819575070051938 ], [ 77.709504306281985, 12.811408931328343 ], [ 77.71963856610283, 12.811408931328343 ], [ 77.714975394934257, 12.786911121947572 ], [ 77.694708091401878, 12.786911121947572 ], [ 77.696260998117495, 12.795076957345056 ], [ 77.675993289496617, 12.795076957345056 ], [ 77.6744407878695, 12.786911121947572 ], [ 77.664307136103304, 12.786911121947572 ], [ 77.659656703911324, 12.762414221305237 ], [ 77.619124524003226, 12.762414221305237 ], [ 77.622222117203791, 12.77874538752102 ], [ 77.612088667841221, 12.77874538752102 ], [ 77.615190163633997, 12.795076957345056 ], [ 77.645591726565314, 12.795076957345056 ], [ 77.647144698098458, 12.803242893782347 ], [ 77.657278755093742, 12.803242893782347 ], [ 77.660388337314316, 12.819575070051938 ], [ 77.650253874527266, 12.819575070051938 ], [ 77.651810079796419, 12.827741310022045 ], [ 77.641675413902433, 12.827741310022045 ], [ 77.647910205873259, 12.860407283746085 ], [ 77.637774726144002, 12.860407283746085 ], [ 77.63933591709295, 12.868574030982717 ], [ 77.619064550012766, 12.868574030982717 ], [ 77.617503766685473, 12.860407283746085 ], [ 77.607368286956202, 12.860407283746085 ], [ 77.604250362728763, 12.84407409397747 ], [ 77.583980217668639, 12.84407409397747 ], [ 77.585538233652215, 12.852240638100657 ], [ 77.575402957592942, 12.852240638100657 ], [ 77.576961847768416, 12.860407283746085 ], [ 77.556690888309888, 12.860407283746085 ], [ 77.558250448772213, 12.868574030982717 ], [ 77.527843398151958, 12.868574030982717 ], [ 77.529403424573545, 12.876740879879513 ], [ 77.539539312065315, 12.876740879879513 ], [ 77.54266300616014, 12.893074882929527 ], [ 77.532526710342339, 12.893074882929527 ], [ 77.534089970065082, 12.901242037220728 ], [ 77.503680469488486, 12.901242037220728 ], [ 77.505244193808053, 12.909409293448061 ], [ 77.484970784392985, 12.909409293448061 ], [ 77.483407469104122, 12.901242037220728 ], [ 77.473270968911933, 12.901242037220728 ], [ 77.479529877669592, 12.933911674437038 ], [ 77.469392558570078, 12.933911674437038 ], [ 77.470959775334236, 12.942079339099143 ], [ 77.460822251155307, 12.942079339099143 ], [ 77.462390340796574, 12.950247106042552 ], [ 77.452252611397171, 12.950247106042552 ], [ 77.45382157382204, 12.958414975336334 ], [ 77.433545704300101, 12.958414975336334 ], [ 77.436686041624455, 12.974751021251304 ], [ 77.426547695716934, 12.974751021251304 ], [ 77.428119275932531, 12.982919198010668 ], [ 77.417980724239996, 12.982919198010668 ], [ 77.421126707876951, 12.999255859478675 ], [ 77.431265671563168, 12.999255859478675 ], [ 77.435993355850144, 13.023761622590706 ], [ 77.446132938586288, 13.023761622590706 ], [ 77.449290537625842, 13.040099312745397 ], [ 77.439150541483187, 13.040099312745397 ], [ 77.440730753702539, 13.048268312454223 ], [ 77.430590550644567, 13.048268312454223 ], [ 77.432171635662897, 13.05643741534295 ], [ 77.391609995204206, 13.05643741534295 ], [ 77.396357242376041, 13.080945343780437 ], [ 77.386216210242608, 13.080945343780437 ], [ 77.387800577912216, 13.089114860080741 ], [ 77.36751809840024, 13.089114860080741 ], [ 77.372276434505125, 13.113624030414302 ], [ 77.362134571032243, 13.113624030414302 ], [ 77.363722635126393, 13.12179396123387 ], [ 77.394148850111378, 13.12179396123387 ], [ 77.392560161450845, 13.113624030414302 ], [ 77.402702024923727, 13.113624030414302 ], [ 77.401114208750784, 13.105454203328431 ], [ 77.421397519602124, 13.105454203328431 ], [ 77.422985751869433, 13.113624030414302 ], [ 77.443269478815182, 13.113624030414302 ], [ 77.444859208419672, 13.12179396123387 ], [ 77.455001280081319, 13.12179396123387 ], [ 77.458184400588081, 13.138134134351182 ], [ 77.448041912123955, 13.138134134351182 ], [ 77.449634886607697, 13.146304376787494 ], [ 77.469920280763446, 13.146304376787494 ], [ 77.471514754768663, 13.154474723234639 ], [ 77.481657660601954, 13.154474723234639 ], [ 77.4800629778413, 13.146304376787494 ], [ 77.490205674919167, 13.146304376787494 ], [ 77.488611865980474, 13.138134134351182 ], [ 77.508896842908754, 13.138134134351182 ], [ 77.510491069074916, 13.146304376787494 ], [ 77.520633766152798, 13.146304376787494 ], [ 77.517445979403107, 13.129963995856405 ], [ 77.527588259395188, 13.129963995856405 ], [ 77.525995781712922, 13.12179396123387 ], [ 77.546279925036245, 13.12179396123387 ], [ 77.547872819379322, 13.129963995856405 ], [ 77.558015099371403, 13.129963995856405 ], [ 77.561204554464268, 13.146304376787494 ], [ 77.551061857386401, 13.146304376787494 ], [ 77.552658001435077, 13.154474723234639 ], [ 77.522229283935175, 13.154474723234639 ], [ 77.525423569277677, 13.17081572843867 ], [ 77.515280245508308, 13.17081572843867 ], [ 77.518478446669803, 13.187157150517873 ], [ 77.548909673487401, 13.187157150517873 ], [ 77.550511028101653, 13.19532801805901 ], [ 77.560654979838489, 13.19532801805901 ], [ 77.559053415759919, 13.187157150517873 ], [ 77.569197158032466, 13.187157150517873 ], [ 77.567596469023471, 13.178986387334204 ], [ 77.598027067873616, 13.178986387334204 ], [ 77.59962838485005, 13.187157150517873 ], [ 77.609772127122568, 13.187157150517873 ], [ 77.61137473852267, 13.19532801805901 ], [ 77.621518690259521, 13.19532801805901 ], [ 77.624727588491552, 13.211670066491173 ], [ 77.655160701764615, 13.211670066491173 ], [ 77.653555080589413, 13.203498990026988 ] ] ] ] } }
]
}
