{
"type": "FeatureCollection",
"name": "ghsl_498",
"crs": { "type": "name", "properties": { "name": "urn:ogc:def:crs:OGC:1.3:CRS84" } },
"features": [
{ "type": "Feature", "properties": { "city_id": "ghsl_498", "city_name": "Perth" }, "geometry": { "type": "MultiPolygon", "coordinates": [ [ [ [ 115.818099278811729, -31.698355138481919 ], [ 115.807071084250794, -31.698355138481919 ], [ 115.820438100173931, -31.715556289603743 ], [ 115.809408632685091, -31.715556289603743 ], [ 115.816095849360309, -31.724157317135759 ], [ 115.805065744993712, -31.724157317135759 ], [ 115.831841058178298, -31.758564443201827 ], [ 115.820808403538962, -31.758564443201827 ], [ 115.840918451260677, -31.784372957846166 ], [ 115.851953021507498, -31.784372957846166 ], [ 115.858662821330256, -31.792976400529014 ], [ 115.869698030666527, -31.792976400529014 ], [ 115.876411377953815, -31.801580145646199 ], [ 115.865375529251139, -31.801580145646199 ], [ 115.885531114070119, -31.827393196806579 ], [ 115.896568882535135, -31.827393196806579 ], [ 115.9100217836735, -31.844603411957674 ], [ 115.921060833367193, -31.844603411957674 ], [ 115.927792298142563, -31.853208974207753 ], [ 115.971951061040642, -31.853208974207753 ], [ 115.985427875615855, -31.870421008659523 ], [ 115.952304954756571, -31.870421008659523 ], [ 115.959045817346762, -31.879027481102376 ], [ 115.948004201862332, -31.879027481102376 ], [ 115.974994308906631, -31.913456408469013 ], [ 115.963950123180624, -31.913456408469013 ], [ 115.97070431900525, -31.92206440031325 ], [ 115.948614661039727, -31.92206440031325 ], [ 115.955370496959716, -31.930672696400155 ], [ 115.94432502444144, -31.930672696400155 ], [ 115.964608172176284, -31.95649941132616 ], [ 115.953560767377581, -31.95649941132616 ], [ 115.994202371994817, -32.008161072066073 ], [ 115.983151095091998, -32.008161072066073 ], [ 115.989934327548511, -32.016772417236602 ], [ 115.978882404315769, -32.016772417236602 ], [ 115.992456396026668, -32.033996024424056 ], [ 116.003509612759657, -32.033996024424056 ], [ 116.017096666835982, -32.051220854882821 ], [ 116.006042155481367, -32.051220854882821 ], [ 116.012839451291214, -32.05983372914266 ], [ 116.00178429220496, -32.05983372914266 ], [ 116.015386426049176, -32.077060396331021 ], [ 116.00432997065738, -32.077060396331021 ], [ 116.011134810397891, -32.085674189502811 ], [ 116.000077706431966, -32.085674189502811 ], [ 116.006884846331786, -32.094288289221893 ], [ 115.951596082226203, -32.094288289221893 ], [ 115.9584029264539, -32.102902695610034 ], [ 115.947344524496387, -32.102902695610034 ], [ 115.954153669186866, -32.111517408788977 ], [ 115.943094617811667, -32.111517408788977 ], [ 115.936286122538888, -32.102902695610034 ], [ 115.914169318623863, -32.102902695610034 ], [ 115.900563770738728, -32.085674189502811 ], [ 115.889506666772803, -32.085674189502811 ], [ 115.882708961347703, -32.077060396331021 ], [ 115.860596050564112, -32.077060396331021 ], [ 115.867392458840982, -32.085674189502811 ], [ 115.856335354875071, -32.085674189502811 ], [ 115.849539595172345, -32.077060396331021 ], [ 115.816370228996959, -32.077060396331021 ], [ 115.823164042977325, -32.085674189502811 ], [ 115.8121069390114, -32.085674189502811 ], [ 115.825702102963788, -32.102902695610034 ], [ 115.814643701006275, -32.102902695610034 ], [ 115.828249351861629, -32.120132428880581 ], [ 115.81718965078727, -32.120132428880581 ], [ 115.830805796505899, -32.137363390289217 ], [ 115.786561791236039, -32.137363390289217 ], [ 115.77975484453998, -32.128747756006682 ], [ 115.768694493484915, -32.128747756006682 ], [ 115.761891145415419, -32.120132428880581 ], [ 115.750831444341046, -32.120132428880581 ], [ 115.744031693057693, -32.111517408788977 ], [ 115.755090744432891, -32.111517408788977 ], [ 115.741498778625029, -32.094288289221893 ], [ 115.752556531446118, -32.094288289221893 ], [ 115.738975041254434, -32.077060396331021 ], [ 115.75003149664623, -32.077060396331021 ], [ 115.743244515387715, -32.068446909584857 ], [ 115.732188708289129, -32.068446909584857 ], [ 115.711847342657521, -32.042608286683794 ], [ 115.733955070464674, -32.042608286683794 ], [ 115.727179194434825, -32.033996024424056 ], [ 115.738232411167814, -32.033996024424056 ], [ 115.731458823455185, -32.025384067982131 ], [ 115.74251139329796, -32.025384067982131 ], [ 115.735740093195602, -32.016772417236602 ], [ 115.746792016428344, -32.016772417236602 ], [ 115.740023003229965, -32.008161072066073 ], [ 115.751074280132769, -32.008161072066073 ], [ 115.737543757395215, -31.990939297964744 ], [ 115.748593742478036, -31.990939297964744 ], [ 115.741832231249163, -31.982328868791388 ], [ 115.752881570841652, -31.982328868791388 ], [ 115.746122343417227, -31.973718744707931 ], [ 115.779268426562538, -31.973718744707931 ], [ 115.772510192376615, -31.965108925593228 ], [ 115.794606291277731, -31.965108925593228 ], [ 115.787849695396744, -31.95649941132616 ], [ 115.798897100195475, -31.95649941132616 ], [ 115.771897397315527, -31.92206440031325 ], [ 115.760852568332766, -31.92206440031325 ], [ 115.740635407075899, -31.896241337025216 ], [ 115.751678307124308, -31.896241337025216 ], [ 115.744944448828278, -31.887634257184043 ], [ 115.755986706455545, -31.887634257184043 ], [ 115.735800703717757, -31.861814839734851 ], [ 115.746841035750933, -31.861814839734851 ], [ 115.740117555825805, -31.853208974207753 ], [ 115.751157246550306, -31.853208974207753 ], [ 115.72428987863654, -31.818788543664663 ], [ 115.735327006903461, -31.818788543664663 ], [ 115.715205099958951, -31.792976400529014 ], [ 115.726240309295193, -31.792976400529014 ], [ 115.719538178545506, -31.784372957846166 ], [ 115.730572748792341, -31.784372957846166 ], [ 115.717175919292259, -31.767166979302722 ], [ 115.728209212190748, -31.767166979302722 ], [ 115.721514511785131, -31.758564443201827 ], [ 115.732547166424453, -31.758564443201827 ], [ 115.705794805694254, -31.724157317135759 ], [ 115.727855014427476, -31.724157317135759 ], [ 115.721172892774476, -31.715556289603743 ], [ 115.743231827752126, -31.715556289603743 ], [ 115.749915223160684, -31.724157317135759 ], [ 115.771975431893907, -31.724157317135759 ], [ 115.765290762729791, -31.715556289603743 ], [ 115.776320230218602, -31.715556289603743 ], [ 115.769637820546535, -31.706955563425748 ], [ 115.791695482320463, -31.706955563425748 ], [ 115.78501469512895, -31.698355138481919 ], [ 115.796042889689886, -31.698355138481919 ], [ 115.789364360895789, -31.689755014652501 ], [ 115.811419477916928, -31.689755014652501 ], [ 115.818099278811729, -31.698355138481919 ] ], [ [ 115.841276287581508, -31.982328868791388 ], [ 115.830226947989033, -31.982328868791388 ], [ 115.836993623140543, -31.990939297964744 ], [ 115.825943638057751, -31.990939297964744 ], [ 115.832712599955613, -31.999550032349227 ], [ 115.854813861661384, -31.999550032349227 ], [ 115.841276287581508, -31.982328868791388 ] ], [ [ 115.817381941549698, -32.008161072066073 ], [ 115.795279387744074, -32.008161072066073 ], [ 115.802051632592011, -32.016772417236602 ], [ 115.824155479057481, -32.016772417236602 ], [ 115.817381941549698, -32.008161072066073 ] ] ] ] } }
]
}
