{
"type": "FeatureCollection",
"name": "ghsl_1693",
"crs": { "type": "name", "properties": { "name": "urn:ogc:def:crs:OGC:1.3:CRS84" } },
"features": [
{ "type": "Feature", "properties": { "city_id": "ghsl_1693", "city_name": "Stockholm" }, "geometry": { "type": "MultiPolygon", "coordinates": [ [ [ [ 17.824468101190149, 59.459805553761498 ], [ 17.839728775934319, 59.459805553761498 ], [ 17.836229374713675, 59.449399790897786 ], [ 17.851487055958081, 59.449399790897786 ], [ 17.844489982635107, 59.428591746791916 ], [ 17.859741683474969, 59.428591746791916 ], [ 17.856244012120673, 59.418189464120481 ], [ 17.901990153910905, 59.418189464120481 ], [ 17.905496785994544, 59.428591746791916 ], [ 17.920748486834402, 59.428591746791916 ], [ 17.927775462180126, 59.449399790897786 ], [ 17.943033143424532, 59.449399790897786 ], [ 17.946553499143505, 59.459805553761498 ], [ 17.961814173887678, 59.459805553761498 ], [ 17.958290824668943, 59.449399790897786 ], [ 17.973548505913353, 59.449399790897786 ], [ 17.97002475380183, 59.438995188812918 ], [ 17.985279443745629, 59.438995188812918 ], [ 17.981755290193838, 59.428591746791916 ], [ 17.9970069910337, 59.428591746791916 ], [ 17.986441085996173, 59.397388373972902 ], [ 18.00168383267922, 59.397388373972902 ], [ 17.998164048520437, 59.386989565071715 ], [ 18.01340381486127, 59.386989565071715 ], [ 18.009883632114764, 59.376591912670143 ], [ 18.025120420297604, 59.376591912670143 ], [ 18.021599840404235, 59.366195416057458 ], [ 18.036833652610831, 59.366195416057458 ], [ 18.033312677008716, 59.355800074523607 ], [ 18.094236030647259, 59.355800074523607 ], [ 18.09776890143722, 59.366195416057458 ], [ 18.113002713643816, 59.366195416057458 ], [ 18.116541149394635, 59.376591912670143 ], [ 18.177488302125983, 59.376591912670143 ], [ 18.166845079858767, 59.34540588735932 ], [ 18.182072946648255, 59.34540588735932 ], [ 18.178527428365626, 59.335012853855964 ], [ 18.285101709771453, 59.335012853855964 ], [ 18.277976923340724, 59.314230245001021 ], [ 18.293195888306041, 59.314230245001021 ], [ 18.289634437448658, 59.30384066823575 ], [ 18.167906421226039, 59.30384066823575 ], [ 18.164371258326636, 59.293452242303943 ], [ 18.149158217071754, 59.293452242303943 ], [ 18.135055173271947, 59.251910032819751 ], [ 18.119853953512287, 59.251910032819751 ], [ 18.112823747628266, 59.2311458147786 ], [ 18.082433103756404, 59.2311458147786 ], [ 18.085941029663029, 59.241527350492547 ], [ 18.070742759890205, 59.241527350492547 ], [ 18.074250294233316, 59.251910032819751 ], [ 18.043847854713999, 59.251910032819751 ], [ 18.040346220344553, 59.241527350492547 ], [ 18.025147950571725, 59.241527350492547 ], [ 18.021651816012685, 59.2311458147786 ], [ 18.006456494076755, 59.2311458147786 ], [ 18.002965852160305, 59.220765424976939 ], [ 17.957388723420657, 59.220765424976939 ], [ 17.960870528268966, 59.2311458147786 ], [ 17.945675206333036, 59.2311458147786 ], [ 17.952640536156046, 59.251910032819751 ], [ 17.937439316396393, 59.251910032819751 ], [ 17.940922840642362, 59.262293862461789 ], [ 17.880106153046963, 59.262293862461789 ], [ 17.883580402766281, 59.27267884012106 ], [ 17.868373276573454, 59.27267884012106 ], [ 17.871847106731437, 59.28306496650054 ], [ 17.90226727201949, 59.28306496650054 ], [ 17.90574955699368, 59.293452242303943 ], [ 17.920962598248554, 59.293452242303943 ], [ 17.927940729138534, 59.314230245001021 ], [ 17.912721764173217, 59.314230245001021 ], [ 17.916211692134855, 59.324620973305578 ], [ 17.900989762065073, 59.324620973305578 ], [ 17.90447927617921, 59.335012853855964 ], [ 17.874029481491831, 59.335012853855964 ], [ 17.877515610858502, 59.34540588735932 ], [ 17.862287744069015, 59.34540588735932 ], [ 17.865773454502722, 59.355800074523607 ], [ 17.804850100864179, 59.355800074523607 ], [ 17.808326469511879, 59.366195416057458 ], [ 17.793092657305277, 59.366195416057458 ], [ 17.79656859755503, 59.376591912670143 ], [ 17.78133180937219, 59.376591912670143 ], [ 17.788285379116552, 59.397388373972902 ], [ 17.773042632433505, 59.397388373972902 ], [ 17.776520261156019, 59.407788340085084 ], [ 17.791765990367985, 59.407788340085084 ], [ 17.798734880115529, 59.428591746791916 ], [ 17.78348317927567, 59.428591746791916 ], [ 17.790456330980447, 59.449399790897786 ], [ 17.775198649736041, 59.449399790897786 ], [ 17.778686076957637, 59.459805553761498 ], [ 17.79394675170181, 59.459805553761498 ], [ 17.797439739558222, 59.470212478119699 ], [ 17.827967080449401, 59.470212478119699 ], [ 17.824468101190149, 59.459805553761498 ] ] ] ] } }
]
}
