{
"type": "FeatureCollection",
"name": "ghsl_7168",
"crs": { "type": "name", "properties": { "name": "urn:ogc:def:crs:OGC:1.3:CRS84" } },
"features": [
{ "type": "Feature", "properties": { "city_id": "ghsl_7168", "city_name": "Miami" }, "geometry": { "type": "MultiPolygon", "coordinates": [ [ [ [ -80.071523792154892, 26.875382641765963 ], [ -80.050105703672301, 26.875382641765963 ], [ -80.031561434024326, 26.833146402593357 ], [ -80.042267997426876, 26.833146402593357 ], [ -80.020066251492494, 26.782470798447886 ], [ -80.030769845159099, 26.782470798447886 ], [ -80.023381431456116, 26.765580837953056 ], [ -80.034084036970569, 26.765580837953056 ], [ -80.023012255449501, 26.740247682814321 ], [ -80.033713380383375, 26.740247682814321 ], [ -80.018972009013766, 26.706473471593998 ], [ -80.029671162912535, 26.706473471593998 ], [ -80.022309330231352, 26.689587790900749 ], [ -80.033007499927905, 26.689587790900749 ], [ -80.021975561232992, 26.66426104878126 ], [ -80.032672256268583, 26.66426104878126 ], [ -80.025324832731684, 26.647377738828677 ], [ -80.036020545753971, 26.647377738828677 ], [ -80.025010205456141, 26.622054549114978 ], [ -80.035704447097928, 26.622054549114978 ], [ -80.024707345047176, 26.59673348729093 ], [ -80.035400117273952, 26.59673348729093 ], [ -80.024416241709105, 26.571414550694033 ], [ -80.035107546484198, 26.571414550694033 ], [ -80.027792142217592, 26.554536438997438 ], [ -80.038482469781329, 26.554536438997438 ], [ -80.031172609964045, 26.537659269876286 ], [ -80.041861961187493, 26.537659269876286 ], [ -80.034557642933834, 26.520783042543425 ], [ -80.045246018687436, 26.520783042543425 ], [ -80.03794723911615, 26.50390775621219 ], [ -80.048634640269711, 26.50390775621219 ], [ -80.041341396503952, 26.487033410096327 ], [ -80.052027823926736, 26.487033410096327 ], [ -80.044740113094036, 26.470160003410083 ], [ -80.055425567654567, 26.470160003410083 ], [ -80.048143386886906, 26.453287535368144 ], [ -80.058827869453225, 26.453287535368144 ], [ -80.051551215886889, 26.436416005185656 ], [ -80.062234727326341, 26.436416005185656 ], [ -80.051330467856829, 26.411110466682686 ], [ -80.06201252423098, 26.411110466682686 ], [ -80.054750160648737, 26.394241277718152 ], [ -80.065431248061756, 26.394241277718152 ], [ -80.054548408582534, 26.368939247369386 ], [ -80.065228044175996, 26.368939247369386 ], [ -80.057979950613685, 26.352072394727511 ], [ -80.068658619407941, 26.352072394727511 ], [ -80.06141603509306, 26.33520647524562 ], [ -80.072093737951846, 26.33520647524562 ], [ -80.061240546810097, 26.309909343988025 ], [ -80.07191680238374, 26.309909343988025 ], [ -80.0646884606942, 26.293045753987371 ], [ -80.075363752488968, 26.293045753987371 ], [ -80.068140909721293, 26.276183094412925 ], [ -80.078815238598736, 26.276183094412925 ], [ -80.06799163932061, 26.250890847894127 ], [ -80.078664525436224, 26.250890847894127 ], [ -80.075059405386227, 26.242460563422856 ], [ -80.085731811011343, 26.242460563422856 ], [ -80.078525448124282, 26.225600690448466 ], [ -80.089196893413217, 26.225600690448466 ], [ -80.07839799719595, 26.200312619447445 ], [ -80.089068003591322, 26.200312619447445 ], [ -80.081875833749663, 26.183455063285678 ], [ -80.092544881955604, 26.183455063285678 ], [ -80.08535819237332, 26.166598432487802 ], [ -80.096026283247483, 26.166598432487802 ], [ -80.088845071135751, 26.149742726276703 ], [ -80.09951220553522, 26.149742726276703 ], [ -80.092336468109565, 26.132887943875684 ], [ -80.103002646890772, 26.132887943875684 ], [ -80.092249657530246, 26.107607500720199 ], [ -80.102914404488644, 26.107607500720199 ], [ -80.095752818364033, 26.090755024449386 ], [ -80.106416611842718, 26.090755024449386 ], [ -80.102837749080237, 26.082329131773122 ], [ -80.145491017317227, 26.082329131773122 ], [ -80.141911853678323, 26.073903469273809 ], [ -80.152574694531666, 26.073903469273809 ], [ -80.14542022764951, 26.057052834418823 ], [ -80.13475833856775, 26.057052834418823 ], [ -80.127611235956252, 26.040203119110192 ], [ -80.116950297792883, 26.040203119110192 ], [ -80.102677211498957, 26.006506444037392 ], [ -80.113336250382702, 26.006506444037392 ], [ -80.10620835851185, 25.989659482726996 ], [ -80.116866449033225, 25.989659482726996 ], [ -80.106185178918452, 25.964390758871271 ], [ -80.116841848491276, 25.964390758871271 ], [ -80.106173534309193, 25.939124094431897 ], [ -80.116828784845822, 25.939124094431897 ], [ -80.109723610199836, 25.922280794307042 ], [ -80.120377915773744, 25.922280794307042 ], [ -80.116827248878181, 25.913859486805993 ], [ -80.138134915699666, 25.913859486805993 ], [ -80.134584899437741, 25.905438407550797 ], [ -80.123931537978109, 25.905438407550797 ], [ -80.109749297176762, 25.871756371063629 ], [ -80.120400772950873, 25.871756371063629 ], [ -80.106242121714075, 25.838077978813828 ], [ -80.116891715189453, 25.838077978813828 ], [ -80.106288014220297, 25.812821572457661 ], [ -80.11693619819134, 25.812821572457661 ], [ -80.1134043396588, 25.80440322465186 ], [ -80.124052054217515, 25.80440322465186 ], [ -80.113464598854506, 25.779149542830158 ], [ -80.124110906442397, 25.779149542830158 ], [ -80.117059600862689, 25.762314888653343 ], [ -80.127704971524508, 25.762314888653343 ], [ -80.124181229740898, 25.753897901388747 ], [ -80.145471034770722, 25.753897901388747 ], [ -80.148995712848134, 25.762314888653343 ], [ -80.180931824833607, 25.762314888653343 ], [ -80.177405742315457, 25.753897901388747 ], [ -80.188050644830355, 25.753897901388747 ], [ -80.184525681014094, 25.745481140545667 ], [ -80.205814550171425, 25.745481140545667 ], [ -80.202290237206611, 25.737064606028341 ], [ -80.212934204059607, 25.737064606028341 ], [ -80.209411009757858, 25.728648297741053 ], [ -80.230698008433492, 25.728648297741053 ], [ -80.227175465365619, 25.720232215588123 ], [ -80.237818497398678, 25.720232215588123 ], [ -80.234297072955357, 25.711816359473875 ], [ -80.244939637894078, 25.711816359473875 ], [ -80.237900611058066, 25.694985324978926 ], [ -80.248542242438845, 25.694985324978926 ], [ -80.245024639587911, 25.686570146407039 ], [ -80.255665804504972, 25.686570146407039 ], [ -80.252149319572325, 25.678155193491449 ], [ -80.262790018235762, 25.678155193491449 ], [ -80.259274651097797, 25.669740466136638 ], [ -80.269914883717604, 25.669740466136638 ], [ -80.259376884290006, 25.644497636482001 ], [ -80.28065455578637, 25.644497636482001 ], [ -80.27714412379845, 25.636083810415553 ], [ -80.287782494342295, 25.636083810415553 ], [ -80.284273179323648, 25.627670209432651 ], [ -80.294911084872794, 25.627670209432651 ], [ -80.29140288670078, 25.619256833437923 ], [ -80.302040327464795, 25.619256833437923 ], [ -80.298533246016916, 25.610843682336036 ], [ -80.309170222205282, 25.610843682336036 ], [ -80.298657069035912, 25.5856055774344 ], [ -80.309292652753655, 25.5856055774344 ], [ -80.302290855385621, 25.568781296884151 ], [ -80.3129255118358, 25.568781296884151 ], [ -80.305929102778009, 25.551957913619404 ], [ -80.359097752872543, 25.551957913619404 ], [ -80.35559960082621, 25.543546558231224 ], [ -80.366232867942898, 25.543546558231224 ], [ -80.362735831525072, 25.535135426879048 ], [ -80.37336863594841, 25.535135426879048 ], [ -80.380365212910363, 25.551957913619404 ], [ -80.390998942929258, 25.551957913619404 ], [ -80.394500063169772, 25.560369493138669 ], [ -80.405134256299817, 25.560369493138669 ], [ -80.415648489931201, 25.5856055774344 ], [ -80.426284073648944, 25.5856055774344 ], [ -80.429792445133444, 25.594018054429544 ], [ -80.440428492798759, 25.594018054429544 ], [ -80.457996423043696, 25.636083810415553 ], [ -80.447358052499865, 25.636083810415553 ], [ -80.450875927757295, 25.644497636482001 ], [ -80.440237092009113, 25.644497636482001 ], [ -80.447276669614368, 25.661325964247109 ], [ -80.457916436400453, 25.661325964247109 ], [ -80.464963292840878, 25.678155193491449 ], [ -80.4756039915043, 25.678155193491449 ], [ -80.479130267763338, 25.686570146407039 ], [ -80.468489102846291, 25.686570146407039 ], [ -80.472016501435178, 25.694985324978926 ], [ -80.461374870054399, 25.694985324978926 ], [ -80.471965202126484, 25.720232215588123 ], [ -80.461322170093396, 25.720232215588123 ], [ -80.464854993865373, 25.728648297741053 ], [ -80.454211494527556, 25.728648297741053 ], [ -80.457745441678156, 25.737064606028341 ], [ -80.447101474825175, 25.737064606028341 ], [ -80.457711462040933, 25.762314888653343 ], [ -80.425775350055488, 25.762314888653343 ], [ -80.429313791983631, 25.770732102435208 ], [ -80.418667952964157, 25.770732102435208 ], [ -80.425748677759515, 25.787567209934011 ], [ -80.415101901392319, 25.787567209934011 ], [ -80.418644184724485, 25.795985103842622 ], [ -80.386702448652173, 25.795985103842622 ], [ -80.400881891308018, 25.829658949442667 ], [ -80.390232767878715, 25.829658949442667 ], [ -80.400882688573262, 25.854916719793561 ], [ -80.39023215437156, 25.854916719793561 ], [ -80.400895033714434, 25.880176538297793 ], [ -80.39024308683662, 25.880176538297793 ], [ -80.393800104416329, 25.888596933392922 ], [ -80.404452522609574, 25.888596933392922 ], [ -80.408011610316464, 25.897017556445181 ], [ -80.386705830875457, 25.897017556445181 ], [ -80.390265574469183, 25.905438407550797 ], [ -80.35830549009026, 25.905438407550797 ], [ -80.365426943973588, 25.922280794307042 ], [ -80.35477263839968, 25.922280794307042 ], [ -80.358335292639296, 25.930702330150236 ], [ -80.347680514690126, 25.930702330150236 ], [ -80.354809679264463, 25.947546087248366 ], [ -80.36546540260079, 25.947546087248366 ], [ -80.369032859432608, 25.955968308696018 ], [ -80.401001448477714, 25.955968308696018 ], [ -80.41171769397755, 25.981236345790283 ], [ -80.40106007731832, 25.981236345790283 ], [ -80.408211313527275, 25.998082848777184 ], [ -80.418869878123431, 25.998082848777184 ], [ -80.422448378011907, 26.006506444037392 ], [ -80.433107416895695, 26.006506444037392 ], [ -80.436687997238906, 26.014930268604182 ], [ -80.415368970470496, 26.014930268604182 ], [ -80.41895020811252, 26.023354322574164 ], [ -80.408290220014933, 26.023354322574164 ], [ -80.411872589589024, 26.031778606043947 ], [ -80.36923073749324, 26.031778606043947 ], [ -80.372812813713963, 26.040203119110192 ], [ -80.362151875550595, 26.040203119110192 ], [ -80.365735083329923, 26.048627861869587 ], [ -80.355073669813962, 26.048627861869587 ], [ -80.358658009284881, 26.057052834418823 ], [ -80.347996120203106, 26.057052834418823 ], [ -80.344412256298, 26.048627861869587 ], [ -80.3124280157501, 26.048627861869587 ], [ -80.316010452957798, 26.057052834418823 ], [ -80.284024785712504, 26.057052834418823 ], [ -80.287607402333606, 26.065478036854643 ], [ -80.276945037472743, 26.065478036854643 ], [ -80.287701100980286, 26.090755024449386 ], [ -80.298364894458956, 26.090755024449386 ], [ -80.301953941122406, 26.099181147399452 ], [ -80.365939561792615, 26.099181147399452 ], [ -80.362347655331035, 26.090755024449386 ], [ -80.394339035767075, 26.090755024449386 ], [ -80.390747309679952, 26.082329131773122 ], [ -80.401410626739207, 26.082329131773122 ], [ -80.408596642239431, 26.099181147399452 ], [ -80.419260912351135, 26.099181147399452 ], [ -80.430053451056196, 26.124460898861368 ], [ -80.419387749763132, 26.124460898861368 ], [ -80.426589884190946, 26.141315219648458 ], [ -80.394589914741019, 26.141315219648458 ], [ -80.390989473983453, 26.132887943875684 ], [ -80.337658580077402, 26.132887943875684 ], [ -80.341256632324445, 26.141315219648458 ], [ -80.330589975841121, 26.141315219648458 ], [ -80.334189162323298, 26.149742726276703 ], [ -80.323522027923829, 26.149742726276703 ], [ -80.327122348776385, 26.158170463857466 ], [ -80.316454736246655, 26.158170463857466 ], [ -80.320056191604991, 26.166598432487802 ], [ -80.309388100730814, 26.166598432487802 ], [ -80.312990690730473, 26.175026632264835 ], [ -80.302322121297607, 26.175026632264835 ], [ -80.305925846074317, 26.183455063285678 ], [ -80.295256797868376, 26.183455063285678 ], [ -80.298861657558035, 26.191883725647489 ], [ -80.288192130364621, 26.191883725647489 ], [ -80.302625799191787, 26.225600690448466 ], [ -80.291954353902867, 26.225600690448466 ], [ -80.299179923514046, 26.242460563422856 ], [ -80.288507517888902, 26.242460563422856 ], [ -80.299356560748592, 26.267752113291742 ], [ -80.288682713006892, 26.267752113291742 ], [ -80.2995448801789, 26.293045753987371 ], [ -80.288869588384159, 26.293045753987371 ], [ -80.296118169430429, 26.309909343988025 ], [ -80.27476565828313, 26.309909343988025 ], [ -80.27839141577951, 26.318341488142064 ], [ -80.257037940206743, 26.318341488142064 ], [ -80.253413147135817, 26.309909343988025 ], [ -80.232060635988518, 26.309909343988025 ], [ -80.235684464633991, 26.318341488142064 ], [ -80.225007726847608, 26.318341488142064 ], [ -80.232259280833475, 26.33520647524562 ], [ -80.24293698369226, 26.33520647524562 ], [ -80.25382792525734, 26.360505704354583 ], [ -80.232469621085599, 26.360505704354583 ], [ -80.236102213671359, 26.368939247369386 ], [ -80.225422578077897, 26.368939247369386 ], [ -80.229056310334059, 26.377373023869705 ], [ -80.21837619101693, 26.377373023869705 ], [ -80.229285680110607, 26.402675755261971 ], [ -80.218604108325209, 26.402675755261971 ], [ -80.222243369843184, 26.411110466682686 ], [ -80.200879257094897, 26.411110466682686 ], [ -80.204519174613054, 26.419545412078239 ], [ -80.193836633433691, 26.419545412078239 ], [ -80.201120376039356, 26.436416005185656 ], [ -80.169069841720955, 26.436416005185656 ], [ -80.172712696397426, 26.444851653093501 ], [ -80.162028699502926, 26.444851653093501 ], [ -80.1766144460628, 26.478596589373588 ], [ -80.165928505179664, 26.478596589373588 ], [ -80.173230175029104, 26.495470465676458 ], [ -80.183917089208663, 26.495470465676458 ], [ -80.191226251749953, 26.51234528180176 ], [ -80.201914140094829, 26.51234528180176 ], [ -80.205571654991388, 26.520783042543425 ], [ -80.173506527730595, 26.520783042543425 ], [ -80.177164211548501, 26.529221038535496 ], [ -80.166475348168731, 26.529221038535496 ], [ -80.173794635656279, 26.54609773666413 ], [ -80.184484474941016, 26.54609773666413 ], [ -80.188147055673809, 26.554536438997438 ], [ -80.198837383237574, 26.554536438997438 ], [ -80.206168422885995, 26.571414550694033 ], [ -80.184785813335765, 26.571414550694033 ], [ -80.188452807268035, 26.579853960254241 ], [ -80.177761013560399, 26.579853960254241 ], [ -80.181429153329333, 26.588293605753702 ], [ -80.17073687047116, 26.588293605753702 ], [ -80.178077077685984, 26.605173604964499 ], [ -80.167383815872483, 26.605173604964499 ], [ -80.171055883827137, 26.613613958872982 ], [ -80.160362132208647, 26.613613958872982 ], [ -80.167710198413431, 26.630495375789149 ], [ -80.157015466529955, 26.630495375789149 ], [ -80.160691465290199, 26.638936438994147 ], [ -80.149996242946585, 26.638936438994147 ], [ -80.161032596695634, 26.66426104878126 ], [ -80.139639206624452, 26.66426104878126 ], [ -80.14332028676705, 26.672703059096861 ], [ -80.132623100396714, 26.672703059096861 ], [ -80.147361855799176, 26.706473471593998 ], [ -80.136662701900391, 26.706473471593998 ], [ -80.147732527081885, 26.731803773532551 ], [ -80.12633126338973, 26.731803773532551 ], [ -80.13002350478817, 26.740247682814321 ], [ -80.119322379854282, 26.740247682814321 ], [ -80.130407486600504, 26.765580837953056 ], [ -80.119704881086065, 26.765580837953056 ], [ -80.123402711933664, 26.774025699094139 ], [ -80.112699612453056, 26.774025699094139 ], [ -80.127505417446187, 26.807807526777225 ], [ -80.138210494990247, 26.807807526777225 ], [ -80.141916558619954, 26.816253579973885 ], [ -80.152622131229975, 26.816253579973885 ], [ -80.156330338473055, 26.824699871879481 ], [ -80.102799998992325, 26.824699871879481 ], [ -80.106507377842149, 26.833146402593357 ], [ -80.095800814439599, 26.833146402593357 ], [ -80.114359969120059, 26.875382641765963 ], [ -80.082232836396187, 26.875382641765963 ], [ -80.085948128582928, 26.883830607417352 ], [ -80.075238587511976, 26.883830607417352 ], [ -80.071523792154892, 26.875382641765963 ] ], [ [ -80.14524830864697, 25.880176538297793 ], [ -80.155900255524799, 25.880176538297793 ], [ -80.152355200273249, 25.871756371063629 ], [ -80.141703724499123, 25.871756371063629 ], [ -80.14524830864697, 25.880176538297793 ] ], [ [ -80.152355200273249, 25.871756371063629 ], [ -80.163006676047374, 25.871756371063629 ], [ -80.159462742741496, 25.863336431594263 ], [ -80.148811737859376, 25.863336431594263 ], [ -80.152355200273249, 25.871756371063629 ] ], [ [ -80.155995197893603, 25.80440322465186 ], [ -80.177290627011004, 25.80440322465186 ], [ -80.17375754150342, 25.795985103842622 ], [ -80.15246305078854, 25.795985103842622 ], [ -80.155995197893603, 25.80440322465186 ] ] ] ] } }
]
}
