{
"type": "FeatureCollection",
"name": "ghsl_5483",
"crs": { "type": "name", "properties": { "name": "urn:ogc:def:crs:OGC:1.3:CRS84" } },
"features": [
{ "type": "Feature", "properties": { "city_id": "ghsl_5483", "city_name": "Berlin" }, "geometry": { "type": "MultiPolygon", "coordinates": [ [ [ [ 13.50549596067162, 52.610063561675709 ], [ 13.491867811367211, 52.610063561675709 ], [ 13.488068648898089, 52.590562536219679 ], [ 13.50169296066465, 52.590562536219679 ], [ 13.499793128926097, 52.58081321907909 ], [ 13.52703791828821, 52.58081321907909 ], [ 13.525135365522065, 52.571064698466706 ], [ 13.565996801671677, 52.571064698466706 ], [ 13.567905102331377, 52.58081321907909 ], [ 13.581527497012431, 52.58081321907909 ], [ 13.577708180430671, 52.561316973985292 ], [ 13.591326744302719, 52.561316973985292 ], [ 13.589416846326895, 52.551570045237924 ], [ 13.616650146620135, 52.551570045237924 ], [ 13.614737539296558, 52.54182391182799 ], [ 13.655581751914449, 52.54182391182799 ], [ 13.653664527263365, 52.532078573359158 ], [ 13.667277353312482, 52.532078573359158 ], [ 13.665359337820103, 52.522334029435441 ], [ 13.651748422144982, 52.522334029435441 ], [ 13.647919566665101, 52.50284732364058 ], [ 13.634312468393253, 52.50284732364058 ], [ 13.626675771092655, 52.463883429199313 ], [ 13.640275247910111, 52.463883429199313 ], [ 13.636459769349724, 52.444406234242372 ], [ 13.622864096598629, 52.444406234242372 ], [ 13.62095992455952, 52.434668823451666 ], [ 13.607366152179718, 52.434668823451666 ], [ 13.605464988277928, 52.424932203261967 ], [ 13.591873115162764, 52.424932203261967 ], [ 13.584287104302932, 52.385993620661225 ], [ 13.557118530094328, 52.385993620661225 ], [ 13.559009587848678, 52.39572708237214 ], [ 13.504664860041668, 52.39572708237214 ], [ 13.502781381677114, 52.385993620661225 ], [ 13.489197094572814, 52.385993620661225 ], [ 13.491078678089917, 52.39572708237214 ], [ 13.477492496138165, 52.39572708237214 ], [ 13.479373278866611, 52.405461333114559 ], [ 13.452197123062444, 52.405461333114559 ], [ 13.45032013223466, 52.39572708237214 ], [ 13.436733950282907, 52.39572708237214 ], [ 13.4348599461556, 52.385993620661225 ], [ 13.4212756590513, 52.385993620661225 ], [ 13.419404638488492, 52.376260947590211 ], [ 13.392239851770903, 52.376260947590211 ], [ 13.394107084842693, 52.385993620661225 ], [ 13.38052279773839, 52.385993620661225 ], [ 13.382389222475901, 52.39572708237214 ], [ 13.368803040524147, 52.39572708237214 ], [ 13.370668655649943, 52.405461333114559 ], [ 13.31631634404161, 52.405461333114559 ], [ 13.314458312717138, 52.39572708237214 ], [ 13.300872130765386, 52.39572708237214 ], [ 13.299017075112571, 52.385993620661225 ], [ 13.271848500903964, 52.385993620661225 ], [ 13.273699766861881, 52.39572708237214 ], [ 13.232941221006627, 52.39572708237214 ], [ 13.231095639591057, 52.385993620661225 ], [ 13.217511352486754, 52.385993620661225 ], [ 13.215668738106579, 52.376260947590211 ], [ 13.188503951388993, 52.376260947590211 ], [ 13.197708794823047, 52.424932203261967 ], [ 13.184116921707883, 52.424932203261967 ], [ 13.185959208405922, 52.434668823451666 ], [ 13.199552980785722, 52.434668823451666 ], [ 13.201398241314639, 52.444406234242372 ], [ 13.242185259567929, 52.444406234242372 ], [ 13.244037300019579, 52.454144436027107 ], [ 13.257634874249577, 52.454144436027107 ], [ 13.265061459647352, 52.493105160978878 ], [ 13.251456268406688, 52.493105160978878 ], [ 13.253313716781465, 52.50284732364058 ], [ 13.171671127150368, 52.50284732364058 ], [ 13.173518211026465, 52.512590279661055 ], [ 13.159909204610114, 52.512590279661055 ], [ 13.161755457840677, 52.522334029435441 ], [ 13.120922710815316, 52.522334029435441 ], [ 13.128295572653126, 52.561316973985292 ], [ 13.196388392013359, 52.561316973985292 ], [ 13.198243876325154, 52.571064698466706 ], [ 13.211864355041692, 52.571064698466706 ], [ 13.215582413566814, 52.590562536219679 ], [ 13.256455348866506, 52.590562536219679 ], [ 13.258321764728253, 52.60031265028595 ], [ 13.27194799470228, 52.60031265028595 ], [ 13.275687944958117, 52.619815270787079 ], [ 13.262057875199432, 52.619815270787079 ], [ 13.265798363613504, 52.639321083768543 ], [ 13.29306619169904, 52.639321083768543 ], [ 13.294941927657241, 52.649075188436335 ], [ 13.322213603406283, 52.649075188436335 ], [ 13.320334019784575, 52.639321083768543 ], [ 13.333967933827344, 52.639321083768543 ], [ 13.332087528381148, 52.629567778018455 ], [ 13.345719519718962, 52.629567778018455 ], [ 13.343838293751537, 52.619815270787079 ], [ 13.357468363510218, 52.619815270787079 ], [ 13.355586318323097, 52.610063561675709 ], [ 13.410098915540743, 52.610063561675709 ], [ 13.411988642544953, 52.619815270787079 ], [ 13.480138991338373, 52.619815270787079 ], [ 13.482039433097091, 52.629567778018455 ], [ 13.495671424434905, 52.629567778018455 ], [ 13.499479495775047, 52.649075188436335 ], [ 13.513115333649566, 52.649075188436335 ], [ 13.50549596067162, 52.610063561675709 ] ] ] ] } }
]
}
