{
"type": "FeatureCollection",
"name": "ghsl_5929",
"crs": { "type": "name", "properties": { "name": "urn:ogc:def:crs:OGC:1.3:CRS84" } },
"features": [
{ "type": "Feature", "properties": { "city_id": "ghsl_5929", "city_name": "Tokyo" }, "geometry": { "type": "MultiPolygon", "coordinates": [ [ [ [ 139.757381380423027, 36.205381100279681 ], [ 139.768779910834922, 36.205381100279681 ], [ 139.749234344518442, 36.187834293588601 ], [ 139.760631280935399, 36.187834293588601 ], [ 139.750864136544578, 36.179061444538668 ], [ 139.76226027648886, 36.179061444538668 ], [ 139.752496623650927, 36.170288964824074 ], [ 139.741101279829678, 36.170288964824074 ], [ 139.711838414514546, 36.14397374023067 ], [ 139.723231372062827, 36.14397374023067 ], [ 139.713484850107648, 36.135202736396032 ], [ 139.724877012929738, 36.135202736396032 ], [ 139.715133974021256, 36.126432101166316 ], [ 139.703742605576593, 36.126432101166316 ], [ 139.684270940326911, 36.108891935938061 ], [ 139.69566072106241, 36.108891935938061 ], [ 139.685930502785993, 36.10012240564793 ], [ 139.697319490189386, 36.10012240564793 ], [ 139.687592748249614, 36.091353243379451 ], [ 139.721757331507803, 36.091353243379451 ], [ 139.73148645239965, 36.10012240564793 ], [ 139.742875439803043, 36.10012240564793 ], [ 139.733145525927199, 36.091353243379451 ], [ 139.744533720346567, 36.091353243379451 ], [ 139.734807282785965, 36.082584448986985 ], [ 139.746194684569275, 36.082584448986985 ], [ 139.717038590785478, 36.056280271609964 ], [ 139.728423616746284, 36.056280271609964 ], [ 139.718712652823626, 36.047512947266149 ], [ 139.730096887538281, 36.047512947266149 ], [ 139.720389392184643, 36.038745990070964 ], [ 139.754539723631325, 36.038745990070964 ], [ 139.744834114335731, 36.029979399879075 ], [ 139.756216767599113, 36.029979399879075 ], [ 139.746514624753786, 36.021213176545295 ], [ 139.757896487811678, 36.021213176545295 ], [ 139.748197810011817, 36.012447319924419 ], [ 139.77095995640974, 36.012447319924419 ], [ 139.761263952739114, 36.003681829871333 ], [ 139.772644236425492, 36.003681829871333 ], [ 139.76295169534032, 35.994916706240993 ], [ 139.83122866246066, 35.994916706240993 ], [ 139.840925938543933, 36.003681829871333 ], [ 139.852306222230339, 36.003681829871333 ], [ 139.842608156980702, 35.994916706240993 ], [ 139.865367146020844, 35.994916706240993 ], [ 139.855671755556983, 35.986151948888384 ], [ 139.878429166956465, 35.986151948888384 ], [ 139.868736450568406, 35.977387557668592 ], [ 139.880114367793681, 35.977387557668592 ], [ 139.870425112900847, 35.968623532436744 ], [ 139.904556500190466, 35.968623532436744 ], [ 139.885186006287967, 35.951096579357639 ], [ 139.896561560163434, 35.951096579357639 ], [ 139.88688189426918, 35.942333651220956 ], [ 139.921006194617433, 35.942333651220956 ], [ 139.930688221789751, 35.951096579357639 ], [ 139.94206377566519, 35.951096579357639 ], [ 139.961442145673175, 35.968623532436744 ], [ 139.950065016576644, 35.968623532436744 ], [ 139.959759788370775, 35.977387557668592 ], [ 139.937003953920197, 35.977387557668592 ], [ 139.94670140115494, 35.986151948888384 ], [ 139.969458812554421, 35.986151948888384 ], [ 139.979162091221411, 35.994916706240993 ], [ 139.990541585741454, 35.994916706240993 ], [ 139.980837518254162, 35.986151948888384 ], [ 139.992216223953903, 35.986151948888384 ], [ 139.982515622821353, 35.977387557668592 ], [ 139.993893540046656, 35.977387557668592 ], [ 139.984196403866264, 35.968623532436744 ], [ 139.995573532962823, 35.968623532436744 ], [ 139.985879860333114, 35.959859873047996 ], [ 140.008632542959731, 35.959859873047996 ], [ 139.998941545042385, 35.951096579357639 ], [ 140.010317098917824, 35.951096579357639 ], [ 140.000629562096691, 35.942333651220956 ], [ 140.023379095662193, 35.942333651220956 ], [ 140.013694231791277, 35.933571088493309 ], [ 140.0478161718965, 35.933571088493309 ], [ 140.038133193865434, 35.924808891030111 ], [ 140.060879581129939, 35.924808891030111 ], [ 140.051199274979268, 35.916047058686885 ], [ 140.085316497701569, 35.916047058686885 ], [ 140.075638077011234, 35.907285591319145 ], [ 140.09838132073213, 35.907285591319145 ], [ 140.079034061133569, 35.889763750932666 ], [ 140.090404112599572, 35.889763750932666 ], [ 140.080736056274191, 35.881003377625312 ], [ 140.092105323059059, 35.881003377625312 ], [ 140.082440718737388, 35.872243368716234 ], [ 140.127914648527565, 35.872243368716234 ], [ 140.118251142838204, 35.863483724061282 ], [ 140.163721936653815, 35.863483724061282 ], [ 140.144401357085314, 35.845965526937448 ], [ 140.121669094091459, 35.845965526937448 ], [ 140.131325700660824, 35.854724443516368 ], [ 140.063124211838328, 35.854724443516368 ], [ 140.053472305109892, 35.845965526937448 ], [ 140.042106173612979, 35.845965526937448 ], [ 140.022816608816981, 35.828448785101742 ], [ 140.034181174729554, 35.828448785101742 ], [ 140.02454194693621, 35.819690959557207 ], [ 140.03590573057096, 35.819690959557207 ], [ 140.026269943015365, 35.810933497403113 ], [ 140.048995946414351, 35.810933497403113 ], [ 140.039362816122036, 35.802176398495703 ], [ 140.084811696549195, 35.802176398495703 ], [ 140.0751796603233, 35.793419662691363 ], [ 140.086541099179698, 35.793419662691363 ], [ 140.076912500418274, 35.784663289846414 ], [ 140.088273158366377, 35.784663289846414 ], [ 140.078647995690261, 35.775907279817332 ], [ 140.112727627835824, 35.775907279817332 ], [ 140.103104339418024, 35.767151632460589 ], [ 140.137181630890268, 35.767151632460589 ], [ 140.127560216720497, 35.758396347632768 ], [ 140.138918533995081, 35.758396347632768 ], [ 140.129300553145811, 35.749641425190461 ], [ 140.140658090879072, 35.749641425190461 ], [ 140.131043541974776, 35.740886864990365 ], [ 140.210540851707663, 35.740886864990365 ], [ 140.200925060220953, 35.732132666889221 ], [ 140.257704958592996, 35.732132666889221 ], [ 140.267324644373986, 35.740886864990365 ], [ 140.290038161440492, 35.740886864990365 ], [ 140.280416917941778, 35.732132666889221 ], [ 140.29177289761617, 35.732132666889221 ], [ 140.282155087747668, 35.723378830743791 ], [ 140.270799886591135, 35.723378830743791 ], [ 140.232373841575026, 35.688367102857406 ], [ 140.221021751083526, 35.688367102857406 ], [ 140.173087602583479, 35.644610569843316 ], [ 140.184435812395861, 35.644610569843316 ], [ 140.174860789711886, 35.635860345391905 ], [ 140.208903093797488, 35.635860345391905 ], [ 140.199329936399408, 35.627110481324841 ], [ 140.210676596316546, 35.627110481324841 ], [ 140.191541296739217, 35.609611833773855 ], [ 140.202886408117081, 35.609611833773855 ], [ 140.193324262880537, 35.600863050005096 ], [ 140.204668600496888, 35.600863050005096 ], [ 140.176004936409186, 35.574618857018073 ], [ 140.187346954771215, 35.574618857018073 ], [ 140.177799985196685, 35.565871511654777 ], [ 140.211823723057194, 35.565871511654777 ], [ 140.202278612991165, 35.557124525537482 ], [ 140.236300034639527, 35.557124525537482 ], [ 140.217217707215354, 35.539631630472783 ], [ 140.205878776461105, 35.539631630472783 ], [ 140.186814677489451, 35.522140170688388 ], [ 140.164139899539208, 35.522140170688388 ], [ 140.154615642760575, 35.513394978671705 ], [ 140.143279024169402, 35.513394978671705 ], [ 140.124244542126576, 35.495905669680603 ], [ 140.135579620960272, 35.495905669680603 ], [ 140.126067851903599, 35.487161552422904 ], [ 140.092064923524077, 35.487161552422904 ], [ 140.08255962012143, 35.478417793134966 ], [ 140.071226079699073, 35.478417793134966 ], [ 140.052229474506646, 35.460931347902452 ], [ 140.040897471150856, 35.460931347902452 ], [ 140.031406164331656, 35.452188661674995 ], [ 140.020074929005204, 35.452188661674995 ], [ 140.001106294865139, 35.434704361291068 ], [ 139.98977659459041, 35.434704361291068 ], [ 139.980299262251492, 35.425962746852065 ], [ 139.968970328999433, 35.425962746852065 ], [ 139.959497905480049, 35.417221489393462 ], [ 139.948169738915453, 35.417221489393462 ], [ 139.957641395747402, 35.425962746852065 ], [ 139.946312462495342, 35.425962746852065 ], [ 139.955787493766195, 35.434704361291068 ], [ 139.944457793491495, 35.434704361291068 ], [ 139.953936200533292, 35.443446332851643 ], [ 139.942605732900489, 35.443446332851643 ], [ 139.952087517046465, 35.452188661674995 ], [ 139.940756281720013, 35.452188661674995 ], [ 139.969224215898009, 35.478417793134966 ], [ 140.00322483716505, 35.478417793134966 ], [ 140.01272475730525, 35.487161552422904 ], [ 140.001390447845438, 35.487161552422904 ], [ 140.048948566272259, 35.530885721241482 ], [ 140.037610406576164, 35.530885721241482 ], [ 140.056661251834385, 35.548377898524137 ], [ 140.068000953984154, 35.548377898524137 ], [ 140.08707001756872, 35.565871511654777 ], [ 140.064387525661743, 35.565871511654777 ], [ 140.073926771150838, 35.574618857018073 ], [ 140.062584752788808, 35.574618857018073 ], [ 140.081674223072127, 35.592114626051043 ], [ 140.058987094685534, 35.592114626051043 ], [ 140.068536549100656, 35.600863050005096 ], [ 140.057192211484335, 35.600863050005096 ], [ 140.066745071582261, 35.609611833773855 ], [ 140.044054848826448, 35.609611833773855 ], [ 140.053610341862452, 35.618360977499627 ], [ 140.030918570906181, 35.618360977499627 ], [ 140.0404766975592, 35.627110481324841 ], [ 140.029130037642034, 35.627110481324841 ], [ 140.03869157336959, 35.635860345391905 ], [ 140.015996703979198, 35.635860345391905 ], [ 140.025560875022478, 35.644610569843316 ], [ 140.002864455397685, 35.644610569843316 ], [ 140.012431262437531, 35.65336115482166 ], [ 139.978384306630829, 35.65336115482166 ], [ 139.987952974552684, 35.662112100469528 ], [ 139.953903691357937, 35.662112100469528 ], [ 139.963474220164443, 35.670863406929612 ], [ 139.952123682963872, 35.670863406929612 ], [ 139.942553930293059, 35.662112100469528 ], [ 139.931204169228153, 35.662112100469528 ], [ 139.921639380286337, 35.65336115482166 ], [ 139.944337350824128, 35.65336115482166 ], [ 139.93477519652339, 35.644610569843316 ], [ 139.946123406335772, 35.644610569843316 ], [ 139.927010098387626, 35.627110481324841 ], [ 139.91566343847046, 35.627110481324841 ], [ 139.896568400913708, 35.609611833773855 ], [ 139.885223289535844, 35.609611833773855 ], [ 139.894767945168809, 35.618360977499627 ], [ 139.860730288734487, 35.618360977499627 ], [ 139.870276798801825, 35.627110481324841 ], [ 139.858930138884659, 35.627110481324841 ], [ 139.868480052941692, 35.635860345391905 ], [ 139.845785183551328, 35.635860345391905 ], [ 139.836236819050356, 35.627110481324841 ], [ 139.847583478967522, 35.627110481324841 ], [ 139.838038517778216, 35.618360977499627 ], [ 139.81534674682203, 35.618360977499627 ], [ 139.82489015913319, 35.627110481324841 ], [ 139.813543499216053, 35.627110481324841 ], [ 139.794462398512593, 35.609611833773855 ], [ 139.817152621268406, 35.609611833773855 ], [ 139.788557622186005, 35.583366561769452 ], [ 139.799900413294608, 35.583366561769452 ], [ 139.790376312099937, 35.574618857018073 ], [ 139.801718330461966, 35.574618857018073 ], [ 139.792197622777877, 35.565871511654777 ], [ 139.803538868731351, 35.565871511654777 ], [ 139.794021553210541, 35.557124525537482 ], [ 139.816702500976163, 35.557124525537482 ], [ 139.788170893261878, 35.530885721241482 ], [ 139.799509052957973, 35.530885721241482 ], [ 139.790006063359897, 35.522140170688388 ], [ 139.812680841310168, 35.522140170688388 ], [ 139.784192177115756, 35.495905669680603 ], [ 139.77285709828206, 35.495905669680603 ], [ 139.763369949188956, 35.487161552422904 ], [ 139.752035639729115, 35.487161552422904 ], [ 139.742553407451226, 35.478417793134966 ], [ 139.753886947873582, 35.478417793134966 ], [ 139.74440809232749, 35.469674391675298 ], [ 139.733075320606446, 35.469674391675298 ], [ 139.723601377188061, 35.460931347902452 ], [ 139.712269373832243, 35.460931347902452 ], [ 139.693335444978544, 35.443446332851643 ], [ 139.704665912611347, 35.443446332851643 ], [ 139.685746997698345, 35.425962746852065 ], [ 139.697075930950376, 35.425962746852065 ], [ 139.687621907929952, 35.417221489393462 ], [ 139.710278241059115, 35.417221489393462 ], [ 139.681936358431301, 35.390999857489319 ], [ 139.670610489919284, 35.390999857489319 ], [ 139.661172216594679, 35.382260026541843 ], [ 139.67249731975852, 35.382260026541843 ], [ 139.663062405533026, 35.373520551869802 ], [ 139.674386743683158, 35.373520551869802 ], [ 139.655527751589517, 35.356042670788796 ], [ 139.666850560714806, 35.356042670788796 ], [ 139.657426479872697, 35.347304264098369 ], [ 139.668748524986569, 35.347304264098369 ], [ 139.649911185784617, 35.329828517714411 ], [ 139.672552221969084, 35.329828517714411 ], [ 139.65372828550818, 35.312354193055981 ], [ 139.665047277912578, 35.312354193055981 ], [ 139.655640713678252, 35.303617563522693 ], [ 139.689595403859073, 35.303617563522693 ], [ 139.680190662178632, 35.294881288999498 ], [ 139.69150813022776, 35.294881288999498 ], [ 139.682106734477287, 35.286145369346109 ], [ 139.704740147218843, 35.286145369346109 ], [ 139.695341334741471, 35.277409804422263 ], [ 139.706657279766574, 35.277409804422263 ], [ 139.697261810930286, 35.268674594087777 ], [ 139.753837730989773, 35.268674594087777 ], [ 139.744442561761872, 35.259939738202497 ], [ 139.755756985092916, 35.259939738202497 ], [ 139.727593805678367, 35.233737295841479 ], [ 139.738905948959257, 35.233737295841479 ], [ 139.729525660003389, 35.225003856352849 ], [ 139.74083704393118, 35.225003856352849 ], [ 139.722087232797804, 35.207538038483953 ], [ 139.688157634149746, 35.207538038483953 ], [ 139.660070423940141, 35.181341962355404 ], [ 139.648762831808, 35.181341962355404 ], [ 139.639409358400798, 35.172610643267284 ], [ 139.628102523634936, 35.172610643267284 ], [ 139.656172926756909, 35.198805659824146 ], [ 139.644863818899864, 35.198805659824146 ], [ 139.65422803550166, 35.207538038483953 ], [ 139.631608303069612, 35.207538038483953 ], [ 139.622245603185775, 35.198805659824146 ], [ 139.610936495328701, 35.198805659824146 ], [ 139.601578640746794, 35.190073634494503 ], [ 139.590270290917658, 35.190073634494503 ], [ 139.599627387471656, 35.198805659824146 ], [ 139.588318279614612, 35.198805659824146 ], [ 139.607043217470732, 35.216270770613605 ], [ 139.584421967658301, 35.216270770613605 ], [ 139.59378905286988, 35.225003856352849 ], [ 139.582477668942118, 35.225003856352849 ], [ 139.601222596814097, 35.24247108921935 ], [ 139.612535499779796, 35.24247108921935 ], [ 139.631298328451379, 35.259939738202497 ], [ 139.619983905120364, 35.259939738202497 ], [ 139.629370706858879, 35.268674594087777 ], [ 139.606740338835067, 35.268674594087777 ], [ 139.597355058458248, 35.259939738202497 ], [ 139.586040635127205, 35.259939738202497 ], [ 139.576660213481688, 35.251205236626376 ], [ 139.565346550499328, 35.251205236626376 ], [ 139.574726211796161, 35.259939738202497 ], [ 139.552097365134074, 35.259939738202497 ], [ 139.570865939465477, 35.277409804422263 ], [ 139.548234049415299, 35.277409804422263 ], [ 139.557622964398774, 35.286145369346109 ], [ 139.534989551657219, 35.286145369346109 ], [ 139.544381045589262, 35.294881288999498 ], [ 139.533063577540162, 35.294881288999498 ], [ 139.542458413075565, 35.303617563522693 ], [ 139.531140183015282, 35.303617563522693 ], [ 139.521746109491033, 35.294881288999498 ], [ 139.499111173392805, 35.294881288999498 ], [ 139.508503722894744, 35.303617563522693 ], [ 139.497185492834461, 35.303617563522693 ], [ 139.487793705343677, 35.294881288999498 ], [ 139.465158769245448, 35.294881288999498 ], [ 139.474549032713924, 35.303617563522693 ], [ 139.463230802653669, 35.303617563522693 ], [ 139.472624407037756, 35.312354193055981 ], [ 139.370753475398118, 35.312354193055981 ], [ 139.361366732111208, 35.303617563522693 ], [ 139.350048502050925, 35.303617563522693 ], [ 139.35943448299372, 35.312354193055981 ], [ 139.336796498184952, 35.312354193055981 ], [ 139.327412041930415, 35.303617563522693 ], [ 139.304775581809878, 35.303617563522693 ], [ 139.29539674850875, 35.294881288999498 ], [ 139.261444344361394, 35.294881288999498 ], [ 139.252071892387846, 35.286145369346109 ], [ 139.240755186017083, 35.286145369346109 ], [ 139.231387588712749, 35.277409804422263 ], [ 139.220071643687675, 35.277409804422263 ], [ 139.210708898418517, 35.268674594087777 ], [ 139.199393714406625, 35.268674594087777 ], [ 139.180682009098803, 35.251205236626376 ], [ 139.169368346116414, 35.251205236626376 ], [ 139.150674498352458, 35.233737295841479 ], [ 139.13936235507154, 35.233737295841479 ], [ 139.148706478185829, 35.24247108921935 ], [ 139.126080672254432, 35.24247108921935 ], [ 139.144778125216391, 35.259939738202497 ], [ 139.133463701885347, 35.259939738202497 ], [ 139.142817794347138, 35.268674594087777 ], [ 139.131502610335218, 35.268674594087777 ], [ 139.140860028512037, 35.277409804422263 ], [ 139.129544083486934, 35.277409804422263 ], [ 139.138904828680069, 35.286145369346109 ], [ 139.116271415938542, 35.286145369346109 ], [ 139.125634727772024, 35.294881288999498 ], [ 139.114317259722895, 35.294881288999498 ], [ 139.123683900845549, 35.303617563522693 ], [ 139.101047440725011, 35.303617563522693 ], [ 139.11041665009688, 35.312354193055981 ], [ 139.087778665288084, 35.312354193055981 ], [ 139.097150443548287, 35.32109117773976 ], [ 139.085830688466643, 35.32109117773976 ], [ 139.104585007253178, 35.33856621312043 ], [ 139.115906288689416, 35.33856621312043 ], [ 139.12529035951971, 35.347304264098369 ], [ 139.159256494861381, 35.347304264098369 ], [ 139.149870132998188, 35.33856621312043 ], [ 139.161191414434455, 35.33856621312043 ], [ 139.151808389726398, 35.329828517714411 ], [ 139.174449425910836, 35.329828517714411 ], [ 139.16506897403832, 35.32109117773976 ], [ 139.176388729119992, 35.32109117773976 ], [ 139.167011612118898, 35.312354193055981 ], [ 139.178330604523296, 35.312354193055981 ], [ 139.168956821086624, 35.303617563522693 ], [ 139.214229741327699, 35.303617563522693 ], [ 139.223606574140916, 35.312354193055981 ], [ 139.234925566545314, 35.312354193055981 ], [ 139.244307259609997, 35.32109117773976 ], [ 139.255627014691669, 35.32109117773976 ], [ 139.265013570648705, 35.329828517714411 ], [ 139.276334088740924, 35.329828517714411 ], [ 139.295121036228096, 35.347304264098369 ], [ 139.283798991114224, 35.347304264098369 ], [ 139.29319785957955, 35.356042670788796 ], [ 139.23658381395299, 35.356042670788796 ], [ 139.227188765544753, 35.347304264098369 ], [ 139.215866720430853, 35.347304264098369 ], [ 139.225261004827672, 35.356042670788796 ], [ 139.202615386577065, 35.356042670788796 ], [ 139.212012248408371, 35.364781433332361 ], [ 139.166717954525723, 35.364781433332361 ], [ 139.17611586507752, 35.373520551869802 ], [ 139.16479152692736, 35.373520551869802 ], [ 139.174192780549134, 35.382260026541843 ], [ 139.162867677385293, 35.382260026541843 ], [ 139.19109380753838, 35.408480588774168 ], [ 139.202421207750575, 35.408480588774168 ], [ 139.193007618975258, 35.399740044853118 ], [ 139.21566088736472, 35.399740044853118 ], [ 139.206249880927516, 35.390999857489319 ], [ 139.251553354975471, 35.390999857489319 ], [ 139.260967424143615, 35.399740044853118 ], [ 139.272294058338332, 35.399740044853118 ], [ 139.300563267128865, 35.425962746852065 ], [ 139.289234333876834, 35.425962746852065 ], [ 139.298664877831726, 35.434704361291068 ], [ 139.287335177556997, 35.434704361291068 ], [ 139.325095538648469, 35.469674391675298 ], [ 139.313762766927425, 35.469674391675298 ], [ 139.323212411824642, 35.478417793134966 ], [ 139.311878871402314, 35.478417793134966 ], [ 139.321331880255514, 35.487161552422904 ], [ 139.309997570795673, 35.487161552422904 ], [ 139.328914455399257, 35.504650145049666 ], [ 139.317578606855164, 35.504650145049666 ], [ 139.327042485604409, 35.513394978671705 ], [ 139.315705867013236, 35.513394978671705 ], [ 139.325173115379528, 35.522140170688388 ], [ 139.313835726404392, 35.522140170688388 ], [ 139.323306345721619, 35.530885721241482 ], [ 139.311968186025524, 35.530885721241482 ], [ 139.330920314248971, 35.548377898524137 ], [ 139.319580612099202, 35.548377898524137 ], [ 139.329062124015962, 35.557124525537482 ], [ 139.317721650133166, 35.557124525537482 ], [ 139.327206538684578, 35.565871511654777 ], [ 139.304524046777573, 35.565871511654777 ], [ 139.314011540894398, 35.574618857018073 ], [ 139.279985485808282, 35.574618857018073 ], [ 139.270500308917093, 35.565871511654777 ], [ 139.247817817010116, 35.565871511654777 ], [ 139.257301449084224, 35.574618857018073 ], [ 139.245959430722195, 35.574618857018073 ], [ 139.255446440082551, 35.583366561769452 ], [ 139.221418066756826, 35.583366561769452 ], [ 139.230906908574553, 35.592114626051043 ], [ 139.264937601154458, 35.592114626051043 ], [ 139.274432915956027, 35.600863050005096 ], [ 139.285777253572377, 35.600863050005096 ], [ 139.304781900306779, 35.618360977499627 ], [ 139.293436014828671, 35.618360977499627 ], [ 139.302943802943958, 35.627110481324841 ], [ 139.268903823192488, 35.627110481324841 ], [ 139.278413448791696, 35.635860345391905 ], [ 139.267066014096514, 35.635860345391905 ], [ 139.276579027405035, 35.644610569843316 ], [ 139.265230817592652, 35.644610569843316 ], [ 139.274747219958954, 35.65336115482166 ], [ 139.263398234690044, 35.65336115482166 ], [ 139.272918027463589, 35.662112100469528 ], [ 139.261568266398683, 35.662112100469528 ], [ 139.271091450930015, 35.670863406929612 ], [ 139.248390376528874, 35.670863406929612 ], [ 139.28651861495274, 35.705872243747635 ], [ 139.275164969809708, 35.705872243747635 ], [ 139.284706689098698, 35.714625356410956 ], [ 139.250643420160316, 35.714625356410956 ], [ 139.260186983660134, 35.723378830743791 ], [ 139.203410977877468, 35.723378830743791 ], [ 139.212954828547595, 35.732132666889221 ], [ 139.224310808221986, 35.732132666889221 ], [ 139.233859617846718, 35.740886864990365 ], [ 139.24521637638, 35.740886864990365 ], [ 139.254770147683644, 35.749641425190461 ], [ 139.266127685416905, 35.749641425190461 ], [ 139.285249344084946, 35.767151632460589 ], [ 139.27389024692755, 35.767151632460589 ], [ 139.283456578960198, 35.775907279817332 ], [ 139.226657192050908, 35.775907279817332 ], [ 139.245794623807484, 35.793419662691363 ], [ 139.268517501520279, 35.793419662691363 ], [ 139.278094068967448, 35.802176398495703 ], [ 139.289456289074224, 35.802176398495703 ], [ 139.299037834246946, 35.810933497403113 ], [ 139.310400835946439, 35.810933497403113 ], [ 139.329578088150015, 35.828448785101742 ], [ 139.318213522237414, 35.828448785101742 ], [ 139.32780766916909, 35.837206974180546 ], [ 139.293711623569351, 35.837206974180546 ], [ 139.303307626312858, 35.845965526937448 ], [ 139.291941494815944, 35.845965526937448 ], [ 139.311144552610926, 35.863483724061282 ], [ 139.322512251064808, 35.863483724061282 ], [ 139.341733715258215, 35.881003377625312 ], [ 139.330364448473347, 35.881003377625312 ], [ 139.339980715843495, 35.889763750932666 ], [ 139.31724061291149, 35.889763750932666 ], [ 139.346110005385384, 35.916047058686885 ], [ 139.334737597811312, 35.916047058686885 ], [ 139.344368382298313, 35.924808891030111 ], [ 139.321621995033809, 35.924808891030111 ], [ 139.331255429686678, 35.933571088493309 ], [ 139.297133489581455, 35.933571088493309 ], [ 139.306768788348904, 35.942333651220956 ], [ 139.295394021566153, 35.942333651220956 ], [ 139.30503275864055, 35.951096579357639 ], [ 139.293657204765111, 35.951096579357639 ], [ 139.303299381534231, 35.959859873047996 ], [ 139.314675722847568, 35.959859873047996 ], [ 139.324322916266766, 35.968623532436744 ], [ 139.335700045363325, 35.968623532436744 ], [ 139.35500870476821, 35.986151948888384 ], [ 139.366387410467951, 35.986151948888384 ], [ 139.356730175430073, 35.977387557668592 ], [ 139.447753513232414, 35.977387557668592 ], [ 139.438094207232183, 35.968623532436744 ], [ 139.449471336328742, 35.968623532436744 ], [ 139.439815477294019, 35.959859873047996 ], [ 139.462568159920636, 35.959859873047996 ], [ 139.452914959021257, 35.951096579357639 ], [ 139.464290512896696, 35.951096579357639 ], [ 139.45464075652464, 35.942333651220956 ], [ 139.47739029009017, 35.942333651220956 ], [ 139.487041620647602, 35.951096579357639 ], [ 139.498417174523041, 35.951096579357639 ], [ 139.508073525173899, 35.959859873047996 ], [ 139.519449866487236, 35.959859873047996 ], [ 139.538776851034811, 35.977387557668592 ], [ 139.527398933809508, 35.977387557668592 ], [ 139.537067995964151, 35.986151948888384 ], [ 139.525689290264381, 35.986151948888384 ], [ 139.535361804939186, 35.994916706240993 ], [ 139.523982310419115, 35.994916706240993 ], [ 139.533658279011007, 36.003681829871333 ], [ 139.510897711638194, 36.003681829871333 ], [ 139.520576346032669, 36.012447319924419 ], [ 139.509195272833693, 36.012447319924419 ], [ 139.518877363596033, 36.021213176545295 ], [ 139.507495500538141, 36.021213176545295 ], [ 139.517181049068455, 36.029979399879075 ], [ 139.505798395805073, 36.029979399879075 ], [ 139.515487403504579, 36.038745990070964 ], [ 139.504103959689019, 36.038745990070964 ], [ 139.513796427960017, 36.047512947266149 ], [ 139.491027958530736, 36.047512947266149 ], [ 139.500723097530511, 36.056280271609964 ], [ 139.489338071569733, 36.056280271609964 ], [ 139.499036673601836, 36.065047963247757 ], [ 139.476265038493494, 36.065047963247757 ], [ 139.485966313022601, 36.073816022324934 ], [ 139.463193094032704, 36.073816022324934 ], [ 139.472897041770267, 36.082584448986985 ], [ 139.461509639986957, 36.082584448986985 ], [ 139.471217054281198, 36.091353243379451 ], [ 139.437052471023037, 36.091353243379451 ], [ 139.446761767314456, 36.10012240564793 ], [ 139.435372779911035, 36.10012240564793 ], [ 139.445085544881124, 36.108891935938061 ], [ 139.422305983410126, 36.108891935938061 ], [ 139.432021424788985, 36.117661834395598 ], [ 139.420630850373101, 36.117661834395598 ], [ 139.430349762904228, 36.126432101166316 ], [ 139.396175657570183, 36.126432101166316 ], [ 139.405896453911254, 36.135202736396032 ], [ 139.417288616733344, 36.135202736396032 ], [ 139.427014475807624, 36.14397374023067 ], [ 139.438407433355906, 36.14397374023067 ], [ 139.448138357973676, 36.152745112816213 ], [ 139.45953211059711, 36.152745112816213 ], [ 139.479008371941234, 36.170288964824074 ], [ 139.490403715762483, 36.170288964824074 ], [ 139.480662651618388, 36.16151685429864 ], [ 139.492057199666078, 36.16151685429864 ], [ 139.48231961584392, 36.152745112816213 ], [ 139.505107121090759, 36.152745112816213 ], [ 139.466193148036609, 36.117661834395598 ], [ 139.477583722452493, 36.117661834395598 ], [ 139.46786510635215, 36.108891935938061 ], [ 139.479254887087706, 36.108891935938061 ], [ 139.46953974212127, 36.10012240564793 ], [ 139.503706704331478, 36.10012240564793 ], [ 139.49399344311999, 36.091353243379451 ], [ 139.505381637539358, 36.091353243379451 ], [ 139.49567184533683, 36.082584448986985 ], [ 139.507059247120139, 36.082584448986985 ], [ 139.497352922517535, 36.073816022324934 ], [ 139.542899360497273, 36.073816022324934 ], [ 139.533194126264306, 36.065047963247757 ], [ 139.544579943818462, 36.065047963247757 ], [ 139.534878175412871, 36.056280271609964 ], [ 139.546263201373705, 36.056280271609964 ], [ 139.536564897389326, 36.047512947266149 ], [ 139.559333366818606, 36.047512947266149 ], [ 139.569033253295231, 36.056280271609964 ], [ 139.580418279256037, 36.056280271609964 ], [ 139.599832407971974, 36.073816022324934 ], [ 139.611219017466937, 36.073816022324934 ], [ 139.620933264953067, 36.082584448986985 ], [ 139.632320666736348, 36.082584448986985 ], [ 139.661491378855885, 36.108891935938061 ], [ 139.650101598120358, 36.108891935938061 ], [ 139.659832913106584, 36.117661834395598 ], [ 139.648442338690728, 36.117661834395598 ], [ 139.658177131797856, 36.126432101166316 ], [ 139.669568500242548, 36.126432101166316 ], [ 139.708553612571933, 36.16151685429864 ], [ 139.697159064524271, 36.16151685429864 ], [ 139.706915248365988, 36.170288964824074 ], [ 139.695519904544739, 36.170288964824074 ], [ 139.705279576767509, 36.179061444538668 ], [ 139.693883436823256, 36.179061444538668 ], [ 139.703646598850696, 36.187834293588601 ], [ 139.692249662433767, 36.187834293588601 ], [ 139.702016315690656, 36.196607512120174 ], [ 139.690618582451236, 36.196607512120174 ], [ 139.710163165880772, 36.214155058213557 ], [ 139.73296182174991, 36.214155058213557 ], [ 139.723185789187312, 36.205381100279681 ], [ 139.745982850011103, 36.205381100279681 ], [ 139.755760477618992, 36.214155058213557 ], [ 139.767159805553547, 36.214155058213557 ], [ 139.757381380423027, 36.205381100279681 ] ], [ [ 139.6687262551537, 35.399740044853118 ], [ 139.657399620958955, 35.399740044853118 ], [ 139.647958752895278, 35.390999857489319 ], [ 139.659284621407295, 35.390999857489319 ], [ 139.6687262551537, 35.399740044853118 ] ] ] ] } }
]
}
