{
"type": "FeatureCollection",
"name": "ghsl_1689",
"crs": { "type": "name", "properties": { "name": "urn:ogc:def:crs:OGC:1.3:CRS84" } },
"features": [
{ "type": "Feature", "properties": { "city_id": "ghsl_1689", "city_name": "Zurich" }, "geometry": { "type": "MultiPolygon", "coordinates": [ [ [ [ 8.595091611597134, 47.451153744057152 ], [ 8.658758956868223, 47.451153744057152 ], [ 8.657787887134077, 47.441782236694635 ], [ 8.645055846123586, 47.441782236694635 ], [ 8.639248464889677, 47.385566170621502 ], [ 8.613801488557161, 47.385566170621502 ], [ 8.612838178995716, 47.376198986723459 ], [ 8.600116113738705, 47.376198986723459 ], [ 8.598193823362367, 47.357466468265592 ], [ 8.585474601730173, 47.357466468265592 ], [ 8.583557126942418, 47.33873641376254 ], [ 8.596273507871222, 47.33873641376254 ], [ 8.595314089826886, 47.32937230980869 ], [ 8.608029051498228, 47.32937230980869 ], [ 8.605149498549789, 47.301283687851765 ], [ 8.579728082010499, 47.301283687851765 ], [ 8.578772048866002, 47.291922042922614 ], [ 8.591481340790246, 47.291922042922614 ], [ 8.589567915247237, 47.273200595009534 ], [ 8.602274376660326, 47.273200595009534 ], [ 8.601316985741107, 47.263840791479744 ], [ 8.626727080233696, 47.263840791479744 ], [ 8.625767353370174, 47.254481601204155 ], [ 8.613063719565508, 47.254481601204155 ], [ 8.612105897457941, 47.245123023910203 ], [ 8.599403676370244, 47.245123023910203 ], [ 8.600360085760839, 47.254481601204155 ], [ 8.587656451956168, 47.254481601204155 ], [ 8.588611938494813, 47.263840791479744 ], [ 8.57590689124852, 47.263840791479744 ], [ 8.57686145383415, 47.273200595009534 ], [ 8.564154992421063, 47.273200595009534 ], [ 8.565108629951425, 47.282561012066211 ], [ 8.526985001034726, 47.282561012066211 ], [ 8.528885248931918, 47.301283687851765 ], [ 8.516174540662274, 47.301283687851765 ], [ 8.518073905591681, 47.320008821021368 ], [ 8.505360362449006, 47.320008821021368 ], [ 8.509159271937017, 47.357466468265592 ], [ 8.496440050304823, 47.357466468265592 ], [ 8.497389576880268, 47.366832419363014 ], [ 8.484668933801105, 47.366832419363014 ], [ 8.485617526425617, 47.376198986723459 ], [ 8.472895461168607, 47.376198986723459 ], [ 8.473843118728313, 47.385566170621502 ], [ 8.461119630562056, 47.385566170621502 ], [ 8.462066351941873, 47.394933971331838 ], [ 8.436616528327011, 47.394933971331838 ], [ 8.435672654229538, 47.385566170621502 ], [ 8.422949166063278, 47.385566170621502 ], [ 8.423891616519578, 47.394933971331838 ], [ 8.385716881097284, 47.394933971331838 ], [ 8.389474429510683, 47.432411347796233 ], [ 8.414935656914356, 47.432411347796233 ], [ 8.413992691429145, 47.423041077086232 ], [ 8.452180252812333, 47.423041077086232 ], [ 8.451233494994614, 47.413671424289063 ], [ 8.502144540145185, 47.413671424289063 ], [ 8.503097001323251, 47.423041077086232 ], [ 8.52855537557871, 47.423041077086232 ], [ 8.529511180230891, 47.432411347796233 ], [ 8.54224179393273, 47.432411347796233 ], [ 8.543199518039657, 47.441782236694635 ], [ 8.555931559050148, 47.441782236694635 ], [ 8.557851344141502, 47.460525870159699 ], [ 8.596056037642132, 47.460525870159699 ], [ 8.595091611597134, 47.451153744057152 ] ] ] ] } }
]
}
