{
"type": "FeatureCollection",
"name": "ghsl_2734",
"crs": { "type": "name", "properties": { "name": "urn:ogc:def:crs:OGC:1.3:CRS84" } },
"features": [
{ "type": "Feature", "properties": { "city_id": "ghsl_2734", "city_name": "Brisbane" }, "geometry": { "type": "MultiPolygon", "coordinates": [ [ [ [ 153.029904830420321, -27.3149966473662 ], [ 153.040640004382482, -27.3149966473662 ], [ 153.076912191790285, -27.357301858534967 ], [ 153.066174473482789, -27.357301858534967 ], [ 153.095248004036506, -27.391150439150724 ], [ 153.073768488357246, -27.391150439150724 ], [ 153.081043889918618, -27.399613197882136 ], [ 153.070303621631979, -27.399613197882136 ], [ 153.084863057860019, -27.416539452347543 ], [ 153.095604347718137, -27.416539452347543 ], [ 153.102889406316564, -27.425002948284408 ], [ 153.167340212212736, -27.425002948284408 ], [ 153.181926132277596, -27.441930678073891 ], [ 153.192668956187532, -27.441930678073891 ], [ 153.207268800470359, -27.458859392427975 ], [ 153.196524952728396, -27.458859392427975 ], [ 153.203829203559764, -27.467324119070682 ], [ 153.193084843562303, -27.467324119070682 ], [ 153.200391810563417, -27.475789092159353 ], [ 153.168157193125381, -27.475789092159353 ], [ 153.175465851612984, -27.484254311795656 ], [ 153.164720466425223, -27.484254311795656 ], [ 153.172031842097311, -27.49271977808128 ], [ 153.118302351483436, -27.49271977808128 ], [ 153.125614392427934, -27.501185491117965 ], [ 153.114867981143476, -27.501185491117965 ], [ 153.12218273983521, -27.509651451007471 ], [ 153.111435815162281, -27.509651451007471 ], [ 153.126074002572295, -27.526584111752136 ], [ 153.104578098311379, -27.526584111752136 ], [ 153.111901014659963, -27.535050812810983 ], [ 153.101152548460249, -27.535050812810983 ], [ 153.115807058495989, -27.551984956811118 ], [ 153.105057563476407, -27.551984956811118 ], [ 153.11238915886679, -27.560452399956272 ], [ 153.101639149096485, -27.560452399956272 ], [ 153.123651823105291, -27.585856215195946 ], [ 153.134403378492379, -27.585856215195946 ], [ 153.14909573140838, -27.602793331213057 ], [ 153.138343144472231, -27.602793331213057 ], [ 153.145693670354149, -27.61126226128512 ], [ 153.134940567301868, -27.61126226128512 ], [ 153.15701007040812, -27.636670540981459 ], [ 153.167764723176219, -27.636670540981459 ], [ 153.197238280506014, -27.670551726514343 ], [ 153.175724836006623, -27.670551726514343 ], [ 153.168352604897279, -27.66208105704515 ], [ 153.157596400360433, -27.66208105704515 ], [ 153.150227938549307, -27.653610636368182 ], [ 153.117960877392221, -27.653610636368182 ], [ 153.125327786749864, -27.66208105704515 ], [ 153.114571582212989, -27.66208105704515 ], [ 153.136690266678613, -27.687493812238927 ], [ 153.125932508317788, -27.687493812238927 ], [ 153.133311391704439, -27.695965228699201 ], [ 153.122553114945163, -27.695965228699201 ], [ 153.115174749956935, -27.687493812238927 ], [ 153.093659233235229, -27.687493812238927 ], [ 153.101036561426582, -27.695965228699201 ], [ 153.07952000790803, -27.695965228699201 ], [ 153.07214371651358, -27.687493812238927 ], [ 153.018354924709314, -27.687493812238927 ], [ 153.010984477077216, -27.679022644878135 ], [ 153.021741717268242, -27.679022644878135 ], [ 153.014374002260809, -27.670551726514343 ], [ 153.025130724510547, -27.670551726514343 ], [ 153.01040400686864, -27.653610636368182 ], [ 152.999648319816288, -27.653610636368182 ], [ 152.992290349974695, -27.645140464381047 ], [ 152.981535180178554, -27.645140464381047 ], [ 152.97418097335057, -27.636670540981459 ], [ 152.952671667814343, -27.636670540981459 ], [ 152.945321739143395, -27.628200866067115 ], [ 152.923813467207083, -27.628200866067115 ], [ 152.909125403204314, -27.61126226128512 ], [ 152.919878506256566, -27.61126226128512 ], [ 152.912538818813346, -27.602793331213057 ], [ 152.923291405749495, -27.602793331213057 ], [ 152.915954441499565, -27.594324649217373 ], [ 152.926706512547327, -27.594324649217373 ], [ 152.919372270750387, -27.585856215195946 ], [ 152.930123826137475, -27.585856215195946 ], [ 152.922792306053594, -27.577388029046663 ], [ 152.93354334600761, -27.577388029046663 ], [ 152.918888983000812, -27.560452399956272 ], [ 152.908138973230479, -27.560452399956272 ], [ 152.900817158104957, -27.551984956811118 ], [ 152.91156665312451, -27.551984956811118 ], [ 152.904247556076655, -27.543517761130001 ], [ 152.925745517068719, -27.543517761130001 ], [ 152.918428623065466, -27.535050812810983 ], [ 152.929177089265153, -27.535050812810983 ], [ 152.921862912093673, -27.526584111752136 ], [ 152.932610864224159, -27.526584111752136 ], [ 152.910686166738515, -27.501185491117965 ], [ 152.942925400591918, -27.501185491117965 ], [ 152.935622083396197, -27.49271977808128 ], [ 152.967859777764517, -27.49271977808128 ], [ 152.960558147857682, -27.484254311795656 ], [ 152.982048918233204, -27.484254311795656 ], [ 152.974749488497082, -27.475789092159353 ], [ 152.985494360976446, -27.475789092159353 ], [ 152.970904150147078, -27.458859392427975 ], [ 152.981647997889041, -27.458859392427975 ], [ 152.967069654078159, -27.441930678073891 ], [ 152.977812477988124, -27.441930678073891 ], [ 152.955967579562639, -27.416539452347543 ], [ 152.94522628970455, -27.416539452347543 ], [ 152.937951603879782, -27.408076202247273 ], [ 152.927210824920309, -27.408076202247273 ], [ 152.912672120762693, -27.391150439150724 ], [ 152.934151636441982, -27.391150439150724 ], [ 152.926886084411507, -27.382687925951657 ], [ 152.959103827266375, -27.382687925951657 ], [ 152.951839957791037, -27.374225658183555 ], [ 152.962578695413555, -27.374225658183555 ], [ 152.940804825907179, -27.348840326451921 ], [ 152.951542034895226, -27.348840326451921 ], [ 152.937041149602067, -27.331917997262135 ], [ 152.958513531651846, -27.331917997262135 ], [ 152.965763388138953, -27.340379039394715 ], [ 152.97650008803285, -27.340379039394715 ], [ 152.983753661859424, -27.348840326451921 ], [ 153.005228079835547, -27.348840326451921 ], [ 152.997973487820616, -27.340379039394715 ], [ 153.008710187714485, -27.340379039394715 ], [ 153.001458295751434, -27.331917997262135 ], [ 153.012194486776337, -27.331917997262135 ], [ 153.004945294142345, -27.323457199953015 ], [ 153.015680976523328, -27.323457199953015 ], [ 153.001191194547573, -27.306536339400584 ], [ 153.022660526084024, -27.306536339400584 ], [ 153.029904830420321, -27.3149966473662 ] ] ] ] } }
]
}
