{
"type": "FeatureCollection",
"name": "ghsl_4443",
"crs": { "type": "name", "properties": { "name": "urn:ogc:def:crs:OGC:1.3:CRS84" } },
"features": [
{ "type": "Feature", "properties": { "city_id": "ghsl_4443", "city_name": "Buenos Aires" }, "geometry": { "type": "MultiPolygon", "coordinates": [ [ [ [ -58.684074543754988, -34.388220304425381 ], [ -58.672834537138677, -34.388220304425381 ], [ -58.676635919931556, -34.396920413494399 ], [ -58.654154450230429, -34.396920413494399 ], [ -58.65035452390606, -34.388220304425381 ], [ -58.627874510673429, -34.388220304425381 ], [ -58.631672980529295, -34.396920413494399 ], [ -58.597950775977615, -34.396920413494399 ], [ -58.601748713367677, -34.405620863279239 ], [ -58.57926578656415, -34.405620863279239 ], [ -58.583063919227115, -34.414321653914556 ], [ -58.560579534687015, -34.414321653914556 ], [ -58.564377862127017, -34.423022785535053 ], [ -58.553134940671434, -34.423022785535053 ], [ -58.556934191895252, -34.431724258275501 ], [ -58.534446889978248, -34.431724258275501 ], [ -58.538246335304045, -34.440426072270668 ], [ -58.49326881218817, -34.440426072270668 ], [ -58.500866822882614, -34.457830724564779 ], [ -58.489620981509518, -34.457830724564779 ], [ -58.493421736934259, -34.466533563133574 ], [ -58.470928592640099, -34.466533563133574 ], [ -58.478532143108012, -34.483940265789812 ], [ -58.467284108458443, -34.483940265789812 ], [ -58.474892817272988, -34.50134833670495 ], [ -58.46364331884719, -34.50134833670495 ], [ -58.467449425647501, -34.510052885597624 ], [ -58.456199194855571, -34.510052885597624 ], [ -58.460006226194331, -34.518757776960697 ], [ -58.448755262717398, -34.518757776960697 ], [ -58.452563218734312, -34.527463010929566 ], [ -58.441311522253322, -34.527463010929566 ], [ -58.445120403088239, -34.53616858763958 ], [ -58.422615543479814, -34.53616858763958 ], [ -58.426424615630147, -34.544874507226197 ], [ -58.415171452183372, -34.544874507226197 ], [ -58.41898144911233, -34.553580769824947 ], [ -58.396473654294716, -34.553580769824947 ], [ -58.400283841860734, -34.562287375571351 ], [ -58.36651994678931, -34.562287375571351 ], [ -58.370329589891625, -34.570994324601045 ], [ -58.359074223599698, -34.570994324601045 ], [ -58.362884790941557, -34.579701617049672 ], [ -58.351628689728265, -34.579701617049672 ], [ -58.355440181449772, -34.588409253052966 ], [ -58.344183344995017, -34.588409253052966 ], [ -58.347995761236369, -34.597117232746697 ], [ -58.336738189219922, -34.597117232746697 ], [ -58.340551530121473, -34.605825556266673 ], [ -58.329293222222951, -34.605825556266673 ], [ -58.336923415092024, -34.623243235328964 ], [ -58.325663634467617, -34.623243235328964 ], [ -58.329480487037358, -34.63195259114319 ], [ -58.31821996956883, -34.63195259114319 ], [ -58.32585718896771, -34.649372336018004 ], [ -58.314595196847797, -34.649372336018004 ], [ -58.326061293186818, -34.675504538488404 ], [ -58.314797086679846, -34.675504538488404 ], [ -58.318621710951149, -34.684215962565673 ], [ -58.284826875113232, -34.684215962565673 ], [ -58.288650948555059, -34.692927731830402 ], [ -58.277385264181547, -34.692927731830402 ], [ -58.281210264480706, -34.70163984641902 ], [ -58.258677416901165, -34.70163984641902 ], [ -58.262502604461538, -34.710352306467996 ], [ -58.239968277405083, -34.710352306467996 ], [ -58.236144569321624, -34.70163984641902 ], [ -58.21361172174209, -34.70163984641902 ], [ -58.217433950348642, -34.710352306467996 ], [ -58.206166786820397, -34.710352306467996 ], [ -58.209989940957321, -34.719065112113853 ], [ -58.198722037368292, -34.719065112113853 ], [ -58.202546117177434, -34.727778263493178 ], [ -58.191277473205083, -34.727778263493178 ], [ -58.195102478828439, -34.736491760742616 ], [ -58.17256370947181, -34.736491760742616 ], [ -58.184044283295165, -34.762634329078672 ], [ -58.172772674561479, -34.762634329078672 ], [ -58.176602126862463, -34.771349211175931 ], [ -58.16532977613064, -34.771349211175931 ], [ -58.169160155281304, -34.780064439827292 ], [ -58.146613969174602, -34.780064439827292 ], [ -58.150444532672793, -34.788780015169721 ], [ -58.139170696974318, -34.788780015169721 ], [ -58.154506682868309, -34.823645786191122 ], [ -58.165783492386019, -34.823645786191122 ], [ -58.173463006761843, -34.841080755413209 ], [ -58.218576200252933, -34.841080755413209 ], [ -58.222421448504285, -34.849798761432552 ], [ -58.244979535078663, -34.849798761432552 ], [ -58.248827950437274, -34.85851711524063 ], [ -58.260107738963704, -34.85851711524063 ], [ -58.267811096154283, -34.875954866772837 ], [ -58.29037365611407, -34.875954866772837 ], [ -58.282667316016543, -34.85851711524063 ], [ -58.293947104542973, -34.85851711524063 ], [ -58.290095708227462, -34.849798761432552 ], [ -58.301374751514651, -34.849798761432552 ], [ -58.297524288862348, -34.841080755413209 ], [ -58.308802587235121, -34.841080755413209 ], [ -58.304953058099301, -34.832363097045182 ], [ -58.316230611882297, -34.832363097045182 ], [ -58.312382016116359, -34.823645786191122 ], [ -58.334935635151787, -34.823645786191122 ], [ -58.338785719448289, -34.832363097045182 ], [ -58.350063273231292, -34.832363097045182 ], [ -58.361625835701489, -34.85851711524063 ], [ -58.350346047175073, -34.85851711524063 ], [ -58.354202850685731, -34.867235816974883 ], [ -58.342922316595121, -34.867235816974883 ], [ -58.346780056013536, -34.875954866772837 ], [ -58.335498776033646, -34.875954866772837 ], [ -58.339357451507887, -34.88467426477203 ], [ -58.350639477702344, -34.88467426477203 ], [ -58.358363371087982, -34.902114105924724 ], [ -58.347079851488012, -34.902114105924724 ], [ -58.350943577593526, -34.910834549353616 ], [ -58.339659310802276, -34.910834549353616 ], [ -58.343523974535039, -34.91955534153459 ], [ -58.354808988843473, -34.91955534153459 ], [ -58.358676086039175, -34.928276482605455 ], [ -58.369961848190798, -34.928276482605455 ], [ -58.373831380303635, -34.936997972704113 ], [ -58.39640440094567, -34.936997972704113 ], [ -58.392533372494043, -34.928276482605455 ], [ -58.415104896797288, -34.928276482605455 ], [ -58.403497449487901, -34.902114105924724 ], [ -58.414780969087879, -34.902114105924724 ], [ -58.410914446132736, -34.893394011110104 ], [ -58.422197218867161, -34.893394011110104 ], [ -58.406744989807173, -34.85851711524063 ], [ -58.418024778333589, -34.85851711524063 ], [ -58.414165184386611, -34.849798761432552 ], [ -58.459281357535396, -34.849798761432552 ], [ -58.463143932439287, -34.85851711524063 ], [ -58.485703509492119, -34.85851711524063 ], [ -58.489569259772964, -34.867235816974883 ], [ -58.500849793863573, -34.867235816974883 ], [ -58.508587844424667, -34.88467426477203 ], [ -58.519869870619111, -34.88467426477203 ], [ -58.523742173477018, -34.893394011110104 ], [ -58.535024946211443, -34.893394011110104 ], [ -58.538899684687635, -34.902114105924724 ], [ -58.55018320428762, -34.902114105924724 ], [ -58.554060379836173, -34.910834549353616 ], [ -58.576628913418688, -34.910834549353616 ], [ -58.580509275011877, -34.91955534153459 ], [ -58.591794289320305, -34.91955534153459 ], [ -58.595677091223244, -34.928276482605455 ], [ -58.60696285337486, -34.928276482605455 ], [ -58.595317282687525, -34.902114105924724 ], [ -58.584033763087561, -34.902114105924724 ], [ -58.572405655611426, -34.875954866772837 ], [ -58.561124375631536, -34.875954866772837 ], [ -58.54951370383295, -34.849798761432552 ], [ -58.538234660545761, -34.849798761432552 ], [ -58.534368554690573, -34.841080755413209 ], [ -58.523090256317801, -34.841080755413209 ], [ -58.511504277896798, -34.81492882271376 ], [ -58.50022821232001, -34.81492882271376 ], [ -58.492514125970949, -34.797495937340209 ], [ -58.503788704638254, -34.797495937340209 ], [ -58.499933439325147, -34.788780015169721 ], [ -58.511207275023608, -34.788780015169721 ], [ -58.499649327838405, -34.762634329078672 ], [ -58.510920936572106, -34.762634329078672 ], [ -58.503222545528466, -34.745205603998819 ], [ -58.514492671235558, -34.745205603998819 ], [ -58.510645249821316, -34.736491760742616 ], [ -58.544453403856259, -34.736491760742616 ], [ -58.548303048356843, -34.745205603998819 ], [ -58.559573174063935, -34.745205603998819 ], [ -58.571134402475735, -34.771349211175931 ], [ -58.58240675320755, -34.771349211175931 ], [ -58.590124124912855, -34.788780015169721 ], [ -58.601397960611322, -34.788780015169721 ], [ -58.632340760335602, -34.85851711524063 ], [ -58.643620548862017, -34.85851711524063 ], [ -58.651374615470694, -34.875954866772837 ], [ -58.662655895450584, -34.875954866772837 ], [ -58.670418219024576, -34.893394011110104 ], [ -58.681700991759001, -34.893394011110104 ], [ -58.685585439487362, -34.902114105924724 ], [ -58.696868959087325, -34.902114105924724 ], [ -58.700755848122512, -34.910834549353616 ], [ -58.712040114913769, -34.910834549353616 ], [ -58.708152478687317, -34.902114105924724 ], [ -58.719435998287295, -34.902114105924724 ], [ -58.715549309962284, -34.893394011110104 ], [ -58.704266537227859, -34.893394011110104 ], [ -58.696499735390269, -34.875954866772837 ], [ -58.685218455410364, -34.875954866772837 ], [ -58.65422483604371, -34.806212206475863 ], [ -58.665500158003731, -34.806212206475863 ], [ -58.66163280598051, -34.797495937340209 ], [ -58.672907384647822, -34.797495937340209 ], [ -58.665176249628672, -34.780064439827292 ], [ -58.676449342682012, -34.780064439827292 ], [ -58.672585559062021, -34.771349211175931 ], [ -58.683857909793822, -34.771349211175931 ], [ -58.679995067577416, -34.762634329078672 ], [ -58.713809893778482, -34.762634329078672 ], [ -58.706084808256165, -34.745205603998819 ], [ -58.717354933963264, -34.745205603998819 ], [ -58.71349417403102, -34.736491760742616 ], [ -58.724763558709327, -34.736491760742616 ], [ -58.720903739905445, -34.727778263493178 ], [ -58.732172383877781, -34.727778263493178 ], [ -58.728313506052949, -34.719065112113853 ], [ -58.773385120409095, -34.719065112113853 ], [ -58.777246959767176, -34.727778263493178 ], [ -58.788515603739533, -34.727778263493178 ], [ -58.80011344593688, -34.75391979339858 ], [ -58.811384312995706, -34.75391979339858 ], [ -58.80364925145755, -34.736491760742616 ], [ -58.814918636135857, -34.736491760742616 ], [ -58.795606745363131, -34.692927731830402 ], [ -58.806872429736643, -34.692927731830402 ], [ -58.803014357961167, -34.684215962565673 ], [ -58.836809193799077, -34.684215962565673 ], [ -58.829093658670921, -34.666793459462234 ], [ -58.840357126727334, -34.666793459462234 ], [ -58.836501140942971, -34.658082725350859 ], [ -58.847763870870402, -34.658082725350859 ], [ -58.843908826483151, -34.649372336018004 ], [ -58.877694802842861, -34.649372336018004 ], [ -58.873839224731498, -34.640662291327509 ], [ -58.896361733998802, -34.640662291327509 ], [ -58.892506360464374, -34.63195259114319 ], [ -58.903766877932902, -34.63195259114319 ], [ -58.899912446312754, -34.623243235328964 ], [ -58.978730910683652, -34.623243235328964 ], [ -58.967162222140864, -34.597117232746697 ], [ -58.955904650124417, -34.597117232746697 ], [ -58.952052513551777, -34.588409253052966 ], [ -58.940795677097036, -34.588409253052966 ], [ -58.944647078107977, -34.597117232746697 ], [ -58.877101646009294, -34.597117232746697 ], [ -58.873254658368502, -34.588409253052966 ], [ -58.839484149004242, -34.588409253052966 ], [ -58.843328929959959, -34.597117232746697 ], [ -58.820813785927072, -34.597117232746697 ], [ -58.816970476094717, -34.588409253052966 ], [ -58.805713639639976, -34.588409253052966 ], [ -58.798033508984538, -34.570994324601045 ], [ -58.809288875276451, -34.570994324601045 ], [ -58.805450582717725, -34.562287375571351 ], [ -58.816705214408202, -34.562287375571351 ], [ -58.812867858420532, -34.553580769824947 ], [ -58.824121755829346, -34.553580769824947 ], [ -58.816450586627305, -34.53616858763958 ], [ -58.827703016431514, -34.53616858763958 ], [ -58.816206580197246, -34.510052885597624 ], [ -58.827456810989176, -34.510052885597624 ], [ -58.823627268472578, -34.50134833670495 ], [ -58.846126265324166, -34.50134833670495 ], [ -58.849957272573036, -34.510052885597624 ], [ -58.861207503364973, -34.510052885597624 ], [ -58.845890547389565, -34.475236743496893 ], [ -58.85713785062876, -34.475236743496893 ], [ -58.853312045640635, -34.466533563133574 ], [ -58.88705176208186, -34.466533563133574 ], [ -58.890879760346294, -34.475236743496893 ], [ -58.902127063585475, -34.475236743496893 ], [ -58.90595745979163, -34.483940265789812 ], [ -58.928453529090767, -34.483940265789812 ], [ -58.920791478523086, -34.466533563133574 ], [ -58.932038050670144, -34.466533563133574 ], [ -58.924381205693479, -34.449128227655457 ], [ -58.935626316610602, -34.449128227655457 ], [ -58.927974673525931, -34.431724258275501 ], [ -58.905487371608928, -34.431724258275501 ], [ -58.901665505794483, -34.423022785535053 ], [ -58.8904225843389, -34.423022785535053 ], [ -58.882785298411648, -34.405620863279239 ], [ -58.860302371608121, -34.405620863279239 ], [ -58.856487677540542, -34.396920413494399 ], [ -58.845246942689968, -34.396920413494399 ], [ -58.849060908206361, -34.405620863279239 ], [ -58.826577981402849, -34.405620863279239 ], [ -58.830392149168198, -34.414321653914556 ], [ -58.807907764628091, -34.414321653914556 ], [ -58.804095054599323, -34.405620863279239 ], [ -58.792853591197577, -34.405620863279239 ], [ -58.789043268437162, -34.396920413494399 ], [ -58.777802533586602, -34.396920413494399 ], [ -58.773994596685469, -34.388220304425381 ], [ -58.751514583452852, -34.388220304425381 ], [ -58.747709758920344, -34.379520535937594 ], [ -58.702752644124921, -34.379520535937594 ], [ -58.69895238512234, -34.370821107896482 ], [ -58.676475282926233, -34.370821107896482 ], [ -58.684074543754988, -34.388220304425381 ] ], [ [ -58.60245219515064, -34.510052885597624 ], [ -58.658703349110269, -34.510052885597624 ], [ -58.662523568779299, -34.518757776960697 ], [ -58.673774532256246, -34.518757776960697 ], [ -58.685247374905856, -34.544874507226197 ], [ -58.673994211459082, -34.544874507226197 ], [ -58.677821089514865, -34.553580769824947 ], [ -58.644059397288437, -34.553580769824947 ], [ -58.647885739051112, -34.562287375571351 ], [ -58.625376475670173, -34.562287375571351 ], [ -58.621551602470838, -34.553580769824947 ], [ -58.610297705062024, -34.553580769824947 ], [ -58.595017787917648, -34.518757776960697 ], [ -58.606268751394587, -34.518757776960697 ], [ -58.60245219515064, -34.510052885597624 ] ] ] ] } }
]
}
