{
"type": "FeatureCollection",
"name": "ghsl_1876",
"crs": { "type": "name", "properties": { "name": "urn:ogc:def:crs:OGC:1.3:CRS84" } },
"features": [
{ "type": "Feature", "properties": { "city_id": "ghsl_1876", "city_name": "Kinshasa" }, "geometry": { "type": "MultiPolygon", "coordinates": [ [ [ [ 15.322501169720258, -4.296100233130321 ], [ 15.33249627811538, -4.296100233130321 ], [ 15.332596788377362, -4.304196651400559 ], [ 15.342591962294167, -4.304196651400559 ], [ 15.342692729291455, -4.312293102655315 ], [ 15.352687968854509, -4.312293102655315 ], [ 15.352991614926955, -4.336582654951895 ], [ 15.362987052176255, -4.336582654951895 ], [ 15.363190572202958, -4.352775855885126 ], [ 15.373186141866073, -4.352775855885126 ], [ 15.373288255563574, -4.360872506359983 ], [ 15.383283891620506, -4.360872506359983 ], [ 15.383386263503143, -4.368969190257051 ], [ 15.39338196607852, -4.368969190257051 ], [ 15.393484596406976, -4.377065907638865 ], [ 15.403480365625425, -4.377065907638865 ], [ 15.403583254660427, -4.385162658567969 ], [ 15.423574926632732, -4.385162658567969 ], [ 15.4236781415274, -4.393259443106906 ], [ 15.453665850162903, -4.393259443106906 ], [ 15.45356243459119, -4.385162658567969 ], [ 15.463558270577341, -4.385162658567969 ], [ 15.463454980936101, -4.377065907638865 ], [ 15.473450750154544, -4.377065907638865 ], [ 15.473141838497188, -4.352775855885126 ], [ 15.483137408160303, -4.352775855885126 ], [ 15.482830034182085, -4.328486104368461 ], [ 15.492825405411381, -4.328486104368461 ], [ 15.492723267521887, -4.320389586957108 ], [ 15.502718572855771, -4.320389586957108 ], [ 15.502616562300354, -4.312293102655315 ], [ 15.522607041426465, -4.312293102655315 ], [ 15.522709183523544, -4.320389586957108 ], [ 15.532704488857428, -4.320389586957108 ], [ 15.532806890328571, -4.328486104368461 ], [ 15.54280226155787, -4.328486104368461 ], [ 15.542904922663682, -4.336582654951895 ], [ 15.532909485414381, -4.336582654951895 ], [ 15.533012274126317, -4.344679238769941 ], [ 15.523016770732413, -4.344679238769941 ], [ 15.523533286494251, -4.385162658567969 ], [ 15.5135374505081, -4.385162658567969 ], [ 15.513641267433909, -4.393259443106906 ], [ 15.503645364555407, -4.393259443106906 ], [ 15.503749307921851, -4.401356261318229 ], [ 15.483757368130849, -4.401356261318229 ], [ 15.483861370558573, -4.409453113264482 ], [ 15.473865333521413, -4.409453113264482 ], [ 15.473969461789707, -4.417549999008224 ], [ 15.463973357486225, -4.417549999008224 ], [ 15.464077611357386, -4.425646918612009 ], [ 15.454081439662909, -4.425646918612009 ], [ 15.454395155686983, -4.449937881209238 ], [ 15.464391530302564, -4.449937881209238 ], [ 15.464601774159384, -4.466132026721289 ], [ 15.4745982846792, -4.466132026721289 ], [ 15.474703764150014, -4.474229150799197 ], [ 15.454710606831991, -4.474229150799197 ], [ 15.454605263639564, -4.466132026721289 ], [ 15.424615732080108, -4.466132026721289 ], [ 15.424720870854955, -4.474229150799197 ], [ 15.374737977559901, -4.474229150799197 ], [ 15.374842967467421, -4.482326309175135 ], [ 15.344853026698626, -4.482326309175135 ], [ 15.344539245703027, -4.458034936878827 ], [ 15.334542803197683, -4.458034936878827 ], [ 15.33443866030002, -4.449937881209238 ], [ 15.31444591106886, -4.449937881209238 ], [ 15.314549918186996, -4.458034936878827 ], [ 15.304553475681649, -4.458034936878827 ], [ 15.304657605842285, -4.466132026721289 ], [ 15.294661095322466, -4.466132026721289 ], [ 15.294765348287807, -4.474229150799197 ], [ 15.244782454992745, -4.474229150799197 ], [ 15.244886557469322, -4.482326309175135 ], [ 15.234889910546389, -4.482326309175135 ], [ 15.234994134853139, -4.490423501911676 ], [ 15.224997419541557, -4.490423501911676 ], [ 15.225311027228516, -4.514715286910799 ], [ 15.205317184776476, -4.514715286910799 ], [ 15.20521259640617, -4.506617990716919 ], [ 15.19521574394305, -4.506617990716919 ], [ 15.195007273606805, -4.490423501911676 ], [ 15.20500398891839, -4.490423501911676 ], [ 15.204796140356702, -4.474229150799197 ], [ 15.214792719015714, -4.474229150799197 ], [ 15.21427607785551, -4.433743872138399 ], [ 15.224272317065667, -4.433743872138399 ], [ 15.223964407592451, -4.409453113264482 ], [ 15.213968370555293, -4.409453113264482 ], [ 15.213866180952325, -4.401356261318229 ], [ 15.203870211056824, -4.401356261318229 ], [ 15.20376827820037, -4.393259443106906 ], [ 15.193772375321871, -4.393259443106906 ], [ 15.193467914571007, -4.368969190257051 ], [ 15.183472211995634, -4.368969190257051 ], [ 15.183371170481839, -4.360872506359983 ], [ 15.193366806538773, -4.360872506359983 ], [ 15.193165158733592, -4.344679238769941 ], [ 15.213156165521399, -4.344679238769941 ], [ 15.213055493436736, -4.336582654951895 ], [ 15.223050930686036, -4.336582654951895 ], [ 15.222950382220343, -4.328486104368461 ], [ 15.242941124678939, -4.328486104368461 ], [ 15.24284063417476, -4.320389586957108 ], [ 15.262831244842531, -4.320389586957108 ], [ 15.262730812787003, -4.312293102655315 ], [ 15.272726052350057, -4.312293102655315 ], [ 15.272625744876539, -4.304196651400559 ], [ 15.282620918793342, -4.304196651400559 ], [ 15.282520736139775, -4.296100233130321 ], [ 15.292515844534897, -4.296100233130321 ], [ 15.29241578693923, -4.288003847782089 ], [ 15.322400915933226, -4.288003847782089 ], [ 15.322501169720258, -4.296100233130321 ] ] ] ] } }
]
}
