{
"type": "FeatureCollection",
"name": "ghsl_1289",
"crs": { "type": "name", "properties": { "name": "urn:ogc:def:crs:OGC:1.3:CRS84" } },
"features": [
{ "type": "Feature", "properties": { "city_id": "ghsl_1289", "city_name": "Lagos" }, "geometry": { "type": "MultiPolygon", "coordinates": [ [ [ [ 3.216979138000489, 6.832207464037152 ], [ 3.227000879863418, 6.832207464037152 ], [ 3.226967129475971, 6.824097704569872 ], [ 3.236988766524033, 6.824097704569872 ], [ 3.236954952518635, 6.815987997699843 ], [ 3.226933420157895, 6.815987997699843 ], [ 3.226866124714591, 6.79976874149672 ], [ 3.23688744808327, 6.79976874149672 ], [ 3.236853757645664, 6.791659192036241 ], [ 3.276938633901337, 6.791659192036241 ], [ 3.276972741557985, 6.79976874149672 ], [ 3.286994064926664, 6.79976874149672 ], [ 3.286891554495918, 6.775440250079017 ], [ 3.296912565332796, 6.775440250079017 ], [ 3.296878374894832, 6.76733085745491 ], [ 3.306899281809407, 6.76733085745491 ], [ 3.306865029511589, 6.759221516982241 ], [ 3.326906635751053, 6.759221516982241 ], [ 3.326837842912579, 6.743002992236558 ], [ 3.336858438824966, 6.743002992236558 ], [ 3.33682400245368, 6.734893807836218 ], [ 3.346844494953541, 6.734893807836218 ], [ 3.346809997726362, 6.726784675332674 ], [ 3.356830386941112, 6.726784675332674 ], [ 3.356761313953019, 6.710566565761376 ], [ 3.366781496979744, 6.710566565761376 ], [ 3.366712389002423, 6.694348663013527 ], [ 3.376732366350645, 6.694348663013527 ], [ 3.376594254038547, 6.661913475951994 ], [ 3.386613821557949, 6.661913475951994 ], [ 3.386579298609808, 6.653804807655943 ], [ 3.406618229370812, 6.653804807655943 ], [ 3.406583545426487, 6.6456961906204 ], [ 3.416602908795388, 6.6456961906204 ], [ 3.416498811341779, 6.621370646440829 ], [ 3.426517869439556, 6.621370646440829 ], [ 3.426483155577477, 6.613262233811345 ], [ 3.436502112172732, 6.613262233811345 ], [ 3.436432612370932, 6.597045561316414 ], [ 3.426413858399005, 6.597045561316414 ], [ 3.426379275074779, 6.588937301323817 ], [ 3.416360622223682, 6.588937301323817 ], [ 3.416291787945751, 6.572720933530492 ], [ 3.426310238936794, 6.572720933530492 ], [ 3.426241376786763, 6.556504768235914 ], [ 3.416223127147035, 6.556504768235914 ], [ 3.416120461154606, 6.532180898867002 ], [ 3.406102512588169, 6.532180898867002 ], [ 3.405898949675677, 6.483534516701411 ], [ 3.39588159982369, 6.483534516701411 ], [ 3.395814289717711, 6.467319456063486 ], [ 3.405831441014813, 6.467319456063486 ], [ 3.405865173746998, 6.475426961451302 ], [ 3.455951426302101, 6.475426961451302 ], [ 3.455917197500325, 6.467319456063486 ], [ 3.485968651391632, 6.467319456063486 ], [ 3.486003177835163, 6.475426961451302 ], [ 3.516054929368225, 6.475426961451302 ], [ 3.516020105282939, 6.467319456063486 ], [ 3.526037256580042, 6.467319456063486 ], [ 3.526072179879244, 6.475426961451302 ], [ 3.556123931412307, 6.475426961451302 ], [ 3.556159197455486, 6.483534516701411 ], [ 3.566176547307474, 6.483534516701411 ], [ 3.566211957924886, 6.491642121877324 ], [ 3.5762294072449, 6.491642121877324 ], [ 3.576264962694675, 6.49974977704255 ], [ 3.566247413779565, 6.49974977704255 ], [ 3.566282914875516, 6.507857482260606 ], [ 3.576300563512806, 6.507857482260606 ], [ 3.576336209703315, 6.515965237595016 ], [ 3.626424952136134, 6.515965237595016 ], [ 3.626280646419398, 6.483534516701411 ], [ 3.636297996271385, 6.483534516701411 ], [ 3.636261935500472, 6.475426961451302 ], [ 3.666313687033532, 6.475426961451302 ], [ 3.666277374739475, 6.467319456063486 ], [ 3.676294526036578, 6.467319456063486 ], [ 3.676258161151293, 6.45921200047446 ], [ 3.666241108941072, 6.45921200047446 ], [ 3.666168716814845, 6.442997238438791 ], [ 3.656151862397318, 6.442997238438791 ], [ 3.656187936383859, 6.451104594620726 ], [ 3.646170983133492, 6.451104594620726 ], [ 3.646207004520629, 6.45921200047446 ], [ 3.626172900100186, 6.45921200047446 ], [ 3.626137076632759, 6.451104594620726 ], [ 3.616120123382391, 6.451104594620726 ], [ 3.61608444472721, 6.442997238438791 ], [ 3.606067590309684, 6.442997238438791 ], [ 3.606103170132025, 6.451104594620726 ], [ 3.576052310380925, 6.451104594620726 ], [ 3.576017027057103, 6.442997238438791 ], [ 3.566000172639576, 6.442997238438791 ], [ 3.565965033361937, 6.434889931865159 ], [ 3.555948277650247, 6.434889931865159 ], [ 3.555878331749833, 6.418675467288886 ], [ 3.405629951535051, 6.418675467288886 ], [ 3.405663425168114, 6.426782674836354 ], [ 3.375613453769572, 6.426782674836354 ], [ 3.375580275492095, 6.418675467288886 ], [ 3.365563716811109, 6.418675467288886 ], [ 3.365530679647539, 6.410568309159282 ], [ 3.355514219291446, 6.410568309159282 ], [ 3.355547158130124, 6.418675467288886 ], [ 3.325497482087167, 6.418675467288886 ], [ 3.325530168105335, 6.426782674836354 ], [ 3.315513510972488, 6.426782674836354 ], [ 3.315546140569666, 6.434889931865159 ], [ 3.285495873434594, 6.434889931865159 ], [ 3.285463539573946, 6.426782674836354 ], [ 3.265430225308251, 6.426782674836354 ], [ 3.265398130001255, 6.418675467288886 ], [ 3.245365012639284, 6.418675467288886 ], [ 3.245396911042556, 6.426782674836354 ], [ 3.235380253909709, 6.426782674836354 ], [ 3.23541209487614, 6.434889931865159 ], [ 3.215378583452758, 6.434889931865159 ], [ 3.215410268026135, 6.442997238438791 ], [ 3.1653259959385, 6.442997238438791 ], [ 3.165357227115889, 6.451104594620726 ], [ 3.145323320615155, 6.451104594620726 ], [ 3.145292287103446, 6.442997238438791 ], [ 3.135275432685919, 6.442997238438791 ], [ 3.135306367364788, 6.451104594620726 ], [ 3.105255507613688, 6.451104594620726 ], [ 3.105286185168667, 6.45921200047446 ], [ 3.095269132958446, 6.45921200047446 ], [ 3.095299750804639, 6.467319456063486 ], [ 3.105316902101741, 6.467319456063486 ], [ 3.10534765841638, 6.475426961451302 ], [ 3.115364908927401, 6.475426961451302 ], [ 3.115395803968046, 6.483534516701411 ], [ 3.105378454116059, 6.483534516701411 ], [ 3.105440163684452, 6.49974977704255 ], [ 3.135492810429785, 6.49974977704255 ], [ 3.135524023472012, 6.507857482260606 ], [ 3.165576969383884, 6.507857482260606 ], [ 3.165608521754194, 6.515965237595016 ], [ 3.185644018727322, 6.515965237595016 ], [ 3.185675811215497, 6.524073043109305 ], [ 3.195693659678438, 6.524073043109305 ], [ 3.195757566261234, 6.540288804931643 ], [ 3.185739517464177, 6.540288804931643 ], [ 3.185771431231883, 6.548396761366766 ], [ 3.175753282077065, 6.548396761366766 ], [ 3.175785135793578, 6.556504768235914 ], [ 3.185803385433306, 6.556504768235914 ], [ 3.185835380072058, 6.564612825602641 ], [ 3.195853730323857, 6.564612825602641 ], [ 3.195918042533493, 6.58082909208303 ], [ 3.185899490676021, 6.58082909208303 ], [ 3.185995959952499, 6.605153872124399 ], [ 3.196014815172475, 6.605153872124399 ], [ 3.196079533190697, 6.621370646440829 ], [ 3.186060475092921, 6.621370646440829 ], [ 3.186092793360897, 6.629479110076441 ], [ 3.176073633633347, 6.629479110076441 ], [ 3.176105890614334, 6.637587624781767 ], [ 3.166086629129746, 6.637587624781767 ], [ 3.1661833361311, 6.661913475951994 ], [ 3.156163768611698, 6.661913475951994 ], [ 3.156228236430582, 6.678130966580065 ], [ 3.166248008609727, 6.678130966580065 ], [ 3.166377836445236, 6.710566565761376 ], [ 3.15635765341851, 6.710566565761376 ], [ 3.156455137456184, 6.734893807836218 ], [ 3.166475629956045, 6.734893807836218 ], [ 3.16654102693958, 6.751112228597348 ], [ 3.17656172639192, 6.751112228597348 ], [ 3.176627491919945, 6.76733085745491 ], [ 3.186648398834519, 6.76733085745491 ], [ 3.186714533956409, 6.783549694918236 ], [ 3.176693419069754, 6.783549694918236 ], [ 3.176825758354201, 6.815987997699843 ], [ 3.166804225993463, 6.815987997699843 ], [ 3.166837307187599, 6.824097704569872 ], [ 3.176858944235661, 6.824097704569872 ], [ 3.176925437297287, 6.840317276165381 ], [ 3.186947284102641, 6.840317276165381 ], [ 3.187014149188545, 6.856537058659544 ], [ 3.207058263334384, 6.856537058659544 ], [ 3.207091967387249, 6.864647029152912 ], [ 3.217114129785334, 6.864647029152912 ], [ 3.216979138000489, 6.832207464037152 ] ] ] ] } }
]
}
