{
"type": "FeatureCollection",
"name": "ghsl_4155",
"crs": { "type": "name", "properties": { "name": "urn:ogc:def:crs:OGC:1.3:CRS84" } },
"features": [
{ "type": "Feature", "properties": { "city_id": "ghsl_4155", "city_name": "Khartoum" }, "geometry": { "type": "MultiPolygon", "coordinates": [ [ [ [ 32.592654418613897, 15.774714232778299 ], [ 32.602871551660485, 15.774714232778299 ], [ 32.601241399724863, 15.75829986524036 ], [ 32.591024777537548, 15.75829986524036 ], [ 32.588583923332045, 15.733679263740125 ], [ 32.598799780361304, 15.733679263740125 ], [ 32.59798686910937, 15.725472649563752 ], [ 32.608202471387365, 15.725472649563752 ], [ 32.607389786299663, 15.717266161761181 ], [ 32.617605133977079, 15.717266161761181 ], [ 32.616792675253102, 15.709059800259604 ], [ 32.637222861708004, 15.709059800259604 ], [ 32.636410375247848, 15.700853564986229 ], [ 32.646625214175941, 15.700853564986229 ], [ 32.641758871525397, 15.651618800062899 ], [ 32.65197218781811, 15.651618800062899 ], [ 32.651162560167137, 15.643413446349573 ], [ 32.671588686260442, 15.643413446349573 ], [ 32.672398820403544, 15.651618800062899 ], [ 32.682612136696264, 15.651618800062899 ], [ 32.685046186499136, 15.67623561580746 ], [ 32.705474340365697, 15.67623561580746 ], [ 32.704662001662768, 15.668029884719124 ], [ 32.694448178426768, 15.668029884719124 ], [ 32.691204652972402, 15.635208218282504 ], [ 32.701417462923345, 15.635208218282504 ], [ 32.700607531749085, 15.627003115789002 ], [ 32.71082008875463, 15.627003115789002 ], [ 32.710010385986742, 15.618798138796391 ], [ 32.730434994407588, 15.618798138796391 ], [ 32.729625267600476, 15.610593287232016 ], [ 32.739837319166035, 15.610593287232016 ], [ 32.739027821314011, 15.60238856102322 ], [ 32.728816022243109, 15.60238856102322 ], [ 32.728007258234292, 15.594183960097361 ], [ 32.707584164781423, 15.594183960097361 ], [ 32.708392424101305, 15.60238856102322 ], [ 32.667545227817691, 15.60238856102322 ], [ 32.66673797787567, 15.594183960097361 ], [ 32.656526431149224, 15.594183960097361 ], [ 32.655719913748023, 15.585979484381832 ], [ 32.645508619215896, 15.585979484381832 ], [ 32.643897528537629, 15.569570908291292 ], [ 32.613265156756079, 15.569570908291292 ], [ 32.612461086315434, 15.561366807771092 ], [ 32.602250547465616, 15.561366807771092 ], [ 32.600644347102119, 15.54495898141796 ], [ 32.610854382913928, 15.54495898141796 ], [ 32.607646723221237, 15.512144825429399 ], [ 32.61785575475637, 15.512144825429399 ], [ 32.617054785869051, 15.503941597825397 ], [ 32.637472347550343, 15.503941597825397 ], [ 32.638273817826644, 15.512144825429399 ], [ 32.65869188089691, 15.512144825429399 ], [ 32.657088416807518, 15.495738494633651 ], [ 32.636671356215579, 15.495738494633651 ], [ 32.635870843722344, 15.487535515781682 ], [ 32.615454283920194, 15.487535515781682 ], [ 32.614654750658879, 15.479332661197024 ], [ 32.57382263203521, 15.479332661197024 ], [ 32.573024577497982, 15.471129930807221 ], [ 32.562816797937494, 15.471129930807221 ], [ 32.562019470989917, 15.462927324539844 ], [ 32.551811941375192, 15.462927324539844 ], [ 32.54703949803514, 15.413714289451178 ], [ 32.526627431871425, 15.413714289451178 ], [ 32.525834191298408, 15.405512550013402 ], [ 32.515628407115386, 15.405512550013402 ], [ 32.514043851976169, 15.389109441695494 ], [ 32.524249138809807, 15.389109441695494 ], [ 32.523457326696679, 15.380908072670707 ], [ 32.533662365079707, 15.380908072670707 ], [ 32.532870780621174, 15.372706826972296 ], [ 32.543075570702925, 15.372706826972296 ], [ 32.541493333552431, 15.356304705265408 ], [ 32.531289039625321, 15.356304705265408 ], [ 32.52970920186776, 15.339903075996608 ], [ 32.53991300023722, 15.339903075996608 ], [ 32.539123547271799, 15.331702445845856 ], [ 32.549327098086245, 15.331702445845856 ], [ 32.548537873378649, 15.323501938587873 ], [ 32.55874117678723, 15.323501938587873 ], [ 32.557163660053291, 15.307101292461361 ], [ 32.546960851009082, 15.307101292461361 ], [ 32.545385730712802, 15.290701137039445 ], [ 32.535183415436713, 15.290701137039445 ], [ 32.535970491065186, 15.298901153448426 ], [ 32.525767928979562, 15.298901153448426 ], [ 32.528131266561488, 15.323501938587873 ], [ 32.517927963152907, 15.323501938587873 ], [ 32.518716445642902, 15.331702445845856 ], [ 32.508512894828456, 15.331702445845856 ], [ 32.510090790743611, 15.348103829112381 ], [ 32.499886744669929, 15.348103829112381 ], [ 32.502256410375928, 15.372706826972296 ], [ 32.492051620294163, 15.372706826972296 ], [ 32.494424820676578, 15.39731093411895 ], [ 32.484219285242951, 15.39731093411895 ], [ 32.485011054566307, 15.405512550013402 ], [ 32.474805270383285, 15.405512550013402 ], [ 32.475597266462152, 15.413714289451178 ], [ 32.465391233380302, 15.413714289451178 ], [ 32.467769328040539, 15.438320249747985 ], [ 32.457562547365271, 15.438320249747985 ], [ 32.459944174842612, 15.462927324539844 ], [ 32.449736645227887, 15.462927324539844 ], [ 32.450531222772199, 15.471129930807221 ], [ 32.460739002332673, 15.471129930807221 ], [ 32.46233008540414, 15.487535515781682 ], [ 32.472538365305212, 15.487535515781682 ], [ 32.479724081267811, 15.561366807771092 ], [ 32.48993462011763, 15.561366807771092 ], [ 32.490735669629878, 15.569570908291292 ], [ 32.500946460223723, 15.569570908291292 ], [ 32.503353230252657, 15.594183960097361 ], [ 32.48293013679978, 15.594183960097361 ], [ 32.482127906701834, 15.585979484381832 ], [ 32.471916612169707, 15.585979484381832 ], [ 32.468713473486794, 15.553162832170836 ], [ 32.448292898975168, 15.553162832170836 ], [ 32.447493809925, 15.54495898141796 ], [ 32.43728377411319, 15.54495898141796 ], [ 32.434890119555249, 15.520348177518153 ], [ 32.424680837175785, 15.520348177518153 ], [ 32.423884155588809, 15.512144825429399 ], [ 32.413675124053668, 15.512144825429399 ], [ 32.412879169056104, 15.503941597825397 ], [ 32.402670388215448, 15.503941597825397 ], [ 32.40187515940827, 15.495738494633651 ], [ 32.391666629112301, 15.495738494633651 ], [ 32.394849394636175, 15.528551654164149 ], [ 32.384639861262507, 15.528551654164149 ], [ 32.385436490361414, 15.53675525543991 ], [ 32.375226705843652, 15.53675525543991 ], [ 32.376023559242348, 15.54495898141796 ], [ 32.365813523430546, 15.54495898141796 ], [ 32.366610600928659, 15.553162832170836 ], [ 32.376820888184476, 15.553162832170836 ], [ 32.378416973097529, 15.569570908291292 ], [ 32.40904934487908, 15.569570908291292 ], [ 32.40984885673172, 15.577775133804009 ], [ 32.420059899219666, 15.577775133804009 ], [ 32.42166085644115, 15.594183960097361 ], [ 32.411449309714712, 15.594183960097361 ], [ 32.412250251045123, 15.60238856102322 ], [ 32.371403054761515, 15.60238856102322 ], [ 32.372203462806084, 15.610593287232016 ], [ 32.351779359674978, 15.610593287232016 ], [ 32.350979456619704, 15.60238856102322 ], [ 32.330555858477901, 15.60238856102322 ], [ 32.331355256543873, 15.610593287232016 ], [ 32.300719101847207, 15.610593287232016 ], [ 32.303117874836524, 15.635208218282504 ], [ 32.292905064885581, 15.635208218282504 ], [ 32.293705353534079, 15.643413446349573 ], [ 32.283492290487423, 15.643413446349573 ], [ 32.28429280128028, 15.651618800062899 ], [ 32.27407948498756, 15.651618800062899 ], [ 32.274880217724203, 15.659824279495179 ], [ 32.285093787413352, 15.659824279495179 ], [ 32.285895248986883, 15.668029884719124 ], [ 32.296109072222883, 15.668029884719124 ], [ 32.295307357102502, 15.659824279495179 ], [ 32.305520926791658, 15.659824279495179 ], [ 32.304719433865714, 15.651618800062899 ], [ 32.335359382743867, 15.651618800062899 ], [ 32.336161635859121, 15.659824279495179 ], [ 32.34637520554827, 15.659824279495179 ], [ 32.348785583542835, 15.684441472832923 ], [ 32.41007156822905, 15.684441472832923 ], [ 32.410877504705191, 15.692647455868256 ], [ 32.421092089484482, 15.692647455868256 ], [ 32.422705903931515, 15.709059800259604 ], [ 32.432920997158973, 15.709059800259604 ], [ 32.435346067893185, 15.733679263740125 ], [ 32.425130210863919, 15.733679263740125 ], [ 32.425939269649398, 15.741886004363122 ], [ 32.41572315771819, 15.741886004363122 ], [ 32.417342200353183, 15.75829986524036 ], [ 32.427558822540497, 15.75829986524036 ], [ 32.429180289868498, 15.774714232778299 ], [ 32.470048822054849, 15.774714232778299 ], [ 32.469236827015258, 15.766506985640302 ], [ 32.499887459639879, 15.766506985640302 ], [ 32.499075177851708, 15.75829986524036 ], [ 32.519508422226338, 15.75829986524036 ], [ 32.520321214722955, 15.766506985640302 ], [ 32.540754969806038, 15.766506985640302 ], [ 32.539941666600974, 15.75829986524036 ], [ 32.560374910975597, 15.75829986524036 ], [ 32.561188724889121, 15.766506985640302 ], [ 32.571405602430666, 15.766506985640302 ], [ 32.572220152520721, 15.774714232778299 ], [ 32.582437285567309, 15.774714232778299 ], [ 32.586518531717779, 15.815752372090378 ], [ 32.596736944553058, 15.815752372090378 ], [ 32.592654418613897, 15.774714232778299 ] ] ] ] } }
]
}
