{
"type": "FeatureCollection",
"name": "ghsl_1590",
"crs": { "type": "name", "properties": { "name": "urn:ogc:def:crs:OGC:1.3:CRS84" } },
"features": [
{ "type": "Feature", "properties": { "city_id": "ghsl_1590", "city_name": "Amsterdam" }, "geometry": { "type": "MultiPolygon", "coordinates": [ [ [ [ 4.790370258555078, 52.512590279661055 ], [ 4.803979264971428, 52.512590279661055 ], [ 4.803305689962892, 52.50284732364058 ], [ 4.816912788234742, 52.50284732364058 ], [ 4.815563003930871, 52.483363791281079 ], [ 4.829166289252709, 52.483363791281079 ], [ 4.828490082619282, 52.47362321415266 ], [ 4.842091463133703, 52.47362321415266 ], [ 4.840736425879847, 52.454144436027107 ], [ 4.854334000109845, 52.454144436027107 ], [ 4.852976739588572, 52.434668823451666 ], [ 4.866570511968372, 52.434668823451666 ], [ 4.865890575228271, 52.424932203261967 ], [ 4.906666194573758, 52.424932203261967 ], [ 4.905980959202232, 52.415196373280423 ], [ 4.933160909114711, 52.415196373280423 ], [ 4.932472278456229, 52.405461333114559 ], [ 4.959648434260396, 52.405461333114559 ], [ 4.958956412389547, 52.39572708237214 ], [ 4.972542594341299, 52.39572708237214 ], [ 4.971849080174874, 52.385993620661225 ], [ 4.985433367279176, 52.385993620661225 ], [ 4.984738362677405, 52.376260947590211 ], [ 4.998320756036199, 52.376260947590211 ], [ 4.997624262856905, 52.366529062767718 ], [ 5.011204763571191, 52.366529062767718 ], [ 5.009112040250097, 52.337338133882405 ], [ 4.995537210872725, 52.337338133882405 ], [ 4.994147862397775, 52.317881448706565 ], [ 5.007718916371682, 52.317881448706565 ], [ 5.007022960898493, 52.308154285173259 ], [ 5.020592128814207, 52.308154285173259 ], [ 5.019894692229065, 52.298427907157155 ], [ 5.006327409277096, 52.298427907157155 ], [ 5.005632261163855, 52.288702314269258 ], [ 4.937805265755131, 52.288702314269258 ], [ 4.938490994517243, 52.298427907157155 ], [ 4.924923711565274, 52.298427907157155 ], [ 4.925607953404208, 52.308154285173259 ], [ 4.89846961757278, 52.308154285173259 ], [ 4.897789145661332, 52.298427907157155 ], [ 4.884221862709362, 52.298427907157155 ], [ 4.883543669428152, 52.288702314269258 ], [ 4.869978270346406, 52.288702314269258 ], [ 4.868626827908077, 52.269253482323236 ], [ 4.855065193289949, 52.269253482323236 ], [ 4.854391940191222, 52.259530242488523 ], [ 4.840832186168341, 52.259530242488523 ], [ 4.838820401697093, 52.230365222883655 ], [ 4.77104980783579, 52.230365222883655 ], [ 4.770389370799483, 52.220645115024055 ], [ 4.729732643207443, 52.220645115024055 ], [ 4.73104263920426, 52.240086113156174 ], [ 4.717486643103388, 52.240086113156174 ], [ 4.718140332068033, 52.2498077862287 ], [ 4.704582457550596, 52.2498077862287 ], [ 4.705887212490536, 52.269253482323236 ], [ 4.733010481726794, 52.269253482323236 ], [ 4.733667190133403, 52.278977506120761 ], [ 4.747230706437509, 52.278977506120761 ], [ 4.747889678610703, 52.288702314269258 ], [ 4.761455077692449, 52.288702314269258 ], [ 4.762116316141627, 52.298427907157155 ], [ 4.789250882045569, 52.298427907157155 ], [ 4.789916274247068, 52.308154285173259 ], [ 4.803485442162782, 52.308154285173259 ], [ 4.802818164997539, 52.298427907157155 ], [ 4.82995273090148, 52.298427907157155 ], [ 4.83062377799421, 52.308154285173259 ], [ 4.844192945909924, 52.308154285173259 ], [ 4.845539982510947, 52.327609398146407 ], [ 4.831967041383465, 52.327609398146407 ], [ 4.832639258344267, 52.337338133882405 ], [ 4.805489599589523, 52.337338133882405 ], [ 4.804821159128501, 52.327609398146407 ], [ 4.777675276873539, 52.327609398146407 ], [ 4.778339940834781, 52.337338133882405 ], [ 4.76476511145741, 52.337338133882405 ], [ 4.766091818612743, 52.356797965802734 ], [ 4.77967042778258, 52.356797965802734 ], [ 4.781669060714632, 52.385993620661225 ], [ 4.76808477361033, 52.385993620661225 ], [ 4.768749865065016, 52.39572708237214 ], [ 4.755163683113263, 52.39572708237214 ], [ 4.755827265729146, 52.405461333114559 ], [ 4.742239187827064, 52.405461333114559 ], [ 4.742901259727366, 52.415196373280423 ], [ 4.756491234683605, 52.415196373280423 ], [ 4.757155590306968, 52.424932203261967 ], [ 4.770747463422131, 52.424932203261967 ], [ 4.771414105309772, 52.434668823451666 ], [ 4.785007877689572, 52.434668823451666 ], [ 4.787685941076021, 52.47362321415266 ], [ 4.774084560561601, 52.47362321415266 ], [ 4.774753147965355, 52.483363791281079 ], [ 4.733943291999839, 52.483363791281079 ], [ 4.734606551751055, 52.493105160978878 ], [ 4.748211742991719, 52.493105160978878 ], [ 4.749543239306029, 52.512590279661055 ], [ 4.776761252138729, 52.512590279661055 ], [ 4.777431401966988, 52.522334029435441 ], [ 4.791042317642107, 52.522334029435441 ], [ 4.790370258555078, 52.512590279661055 ] ] ] ] } }
]
}
