{
"type": "FeatureCollection",
"name": "ghsl_1082",
"crs": { "type": "name", "properties": { "name": "urn:ogc:def:crs:OGC:1.3:CRS84" } },
"features": [
{ "type": "Feature", "properties": { "city_id": "ghsl_1082", "city_name": "Luanda" }, "geometry": { "type": "MultiPolygon", "coordinates": [ [ [ [ 13.417028777206948, -8.755847658563937 ], [ 13.427078986028825, -8.755847658563937 ], [ 13.427260070831979, -8.763971759451678 ], [ 13.44736075956077, -8.763971759451678 ], [ 13.447542290486142, -8.772095928310389 ], [ 13.467643250561609, -8.772095928310389 ], [ 13.468007381085801, -8.788344470200757 ], [ 13.47805813286273, -8.788344470200757 ], [ 13.478240597222637, -8.796468843362451 ], [ 13.488291485065458, -8.796468843362451 ], [ 13.488474261135581, -8.804593284755187 ], [ 13.478423237095987, -8.804593284755187 ], [ 13.478606052503778, -8.812717794444 ], [ 13.458503731769246, -8.812717794444 ], [ 13.458138821536997, -8.796468843362451 ], [ 13.448087933694175, -8.796468843362451 ], [ 13.447905877531941, -8.788344470200757 ], [ 13.417753622201152, -8.788344470200757 ], [ 13.417935270165712, -8.796468843362451 ], [ 13.407884382322893, -8.796468843362451 ], [ 13.408429965686086, -8.820842372493924 ], [ 13.418481262511937, -8.820842372493924 ], [ 13.418663609514629, -8.828967018970012 ], [ 13.438766476345364, -8.828967018970012 ], [ 13.43913224195126, -8.845216517460878 ], [ 13.42908053496401, -8.845216517460878 ], [ 13.4301812113784, -8.89396666192804 ], [ 13.440233742225242, -8.89396666192804 ], [ 13.440417938830038, -8.902091927167664 ], [ 13.470575944676328, -8.902091927167664 ], [ 13.470760730243992, -8.910217261484254 ], [ 13.460707923728883, -8.910217261484254 ], [ 13.461077745727929, -8.926468137608786 ], [ 13.45102466302014, -8.926468137608786 ], [ 13.451580297723279, -8.950844971500887 ], [ 13.441526799742919, -8.950844971500887 ], [ 13.441712223641003, -8.958970721646885 ], [ 13.421604950307209, -8.958970721646885 ], [ 13.421790271982676, -8.967096541325787 ], [ 13.411736496498046, -8.967096541325787 ], [ 13.412107387356604, -8.983348389542929 ], [ 13.422161440870363, -8.983348389542929 ], [ 13.422905881391737, -9.015852923239438 ], [ 13.432960492538847, -9.015852923239438 ], [ 13.433147180602891, -9.023979231473445 ], [ 13.423092429719205, -9.023979231473445 ], [ 13.423466052361073, -9.040232058169726 ], [ 13.433521083111906, -9.040232058169726 ], [ 13.433708297599974, -9.048358576762421 ], [ 13.443763468481412, -9.048358576762421 ], [ 13.443950998749258, -9.056485165605118 ], [ 13.454006309892673, -9.056485165605118 ], [ 13.454194156224682, -9.064611824763045 ], [ 13.444138704687893, -9.064611824763045 ], [ 13.444326586318958, -9.072738554301434 ], [ 13.434270994257387, -9.072738554301434 ], [ 13.434458910946329, -9.080865354285535 ], [ 13.424403178228555, -9.080865354285535 ], [ 13.424779256734363, -9.097119165851849 ], [ 13.414723242309842, -9.097119165851849 ], [ 13.414535256228765, -9.088992224780588 ], [ 13.404479382723345, -9.088992224780588 ], [ 13.404291712793007, -9.080865354285535 ], [ 13.394235980075234, -9.080865354285535 ], [ 13.394048626011108, -9.072738554301434 ], [ 13.383993033949537, -9.072738554301434 ], [ 13.383619131888752, -9.056485165605118 ], [ 13.373563820745334, -9.056485165605118 ], [ 13.373190898606913, -9.040232058169726 ], [ 13.363135867856082, -9.040232058169726 ], [ 13.362949808858957, -9.032105609761805 ], [ 13.342840027355782, -9.032105609761805 ], [ 13.343025806354415, -9.040232058169726 ], [ 13.332970775603584, -9.040232058169726 ], [ 13.333342576171665, -9.056485165605118 ], [ 13.303176642741413, -9.056485165605118 ], [ 13.302991076141293, -9.048358576762421 ], [ 13.292935905259856, -9.048358576762421 ], [ 13.292750652600255, -9.040232058169726 ], [ 13.282695621849422, -9.040232058169726 ], [ 13.282325917347617, -9.023979231473445 ], [ 13.272271166463934, -9.023979231473445 ], [ 13.272086714185088, -9.015852923239438 ], [ 13.262032103037978, -9.015852923239438 ], [ 13.261847963695047, -9.007726684994575 ], [ 13.251793492153199, -9.007726684994575 ], [ 13.251242531136432, -8.983348389542929 ], [ 13.271350638163957, -8.983348389542929 ], [ 13.271167052326232, -8.975222430602747 ], [ 13.281220966759813, -8.975222430602747 ], [ 13.280854036970654, -8.958970721646885 ], [ 13.270800400303758, -8.958970721646885 ], [ 13.270617334076778, -8.950844971500887 ], [ 13.250510338116054, -8.950844971500887 ], [ 13.250693126969962, -8.958970721646885 ], [ 13.240639490303066, -8.958970721646885 ], [ 13.241005309025491, -8.975222430602747 ], [ 13.22089748015833, -8.975222430602747 ], [ 13.221080370595153, -8.983348389542929 ], [ 13.211026317081393, -8.983348389542929 ], [ 13.211392337190844, -8.999600516673663 ], [ 13.221446669258722, -8.999600516673663 ], [ 13.221630077527662, -9.007726684994575 ], [ 13.211575605985816, -9.007726684994575 ], [ 13.211942661161824, -9.023979231473445 ], [ 13.20188791027814, -9.023979231473445 ], [ 13.202071556833566, -9.032105609761805 ], [ 13.19201666608198, -9.032105609761805 ], [ 13.191833159394456, -9.023979231473445 ], [ 13.161668906743401, -9.023979231473445 ], [ 13.16185199382722, -9.032105609761805 ], [ 13.141742212324045, -9.032105609761805 ], [ 13.141925191337769, -9.040232058169726 ], [ 13.131870160586939, -9.040232058169726 ], [ 13.132053171156862, -9.048358576762421 ], [ 13.101887658512551, -9.048358576762421 ], [ 13.101705068334443, -9.040232058169726 ], [ 13.061484945331113, -9.040232058169726 ], [ 13.060758532858124, -9.007726684994575 ], [ 13.07081300439997, -9.007726684994575 ], [ 13.07063168824056, -8.999600516673663 ], [ 13.080686020308439, -8.999600516673663 ], [ 13.080142678088203, -8.975222430602747 ], [ 13.120358335822525, -8.975222430602747 ], [ 13.12017700744374, -8.967096541325787 ], [ 13.13023078292837, -8.967096541325787 ], [ 13.130049486967202, -8.958970721646885 ], [ 13.140103123634098, -8.958970721646885 ], [ 13.139921860332082, -8.950844971500887 ], [ 13.149975358312442, -8.950844971500887 ], [ 13.148890548982566, -8.902091927167664 ], [ 13.158943217597995, -8.902091927167664 ], [ 13.158762878513718, -8.89396666192804 ], [ 13.168815409360557, -8.89396666192804 ], [ 13.168454970745177, -8.877716338419251 ], [ 13.178507226448039, -8.877716338419251 ], [ 13.178327127268624, -8.869591280019888 ], [ 13.18837924559606, -8.869591280019888 ], [ 13.18819918094478, -8.861466290437095 ], [ 13.198251162027818, -8.861466290437095 ], [ 13.197352732343202, -8.820842372493924 ], [ 13.207404029169053, -8.820842372493924 ], [ 13.20704558802694, -8.804593284755187 ], [ 13.217096612066534, -8.804593284755187 ], [ 13.21673858666256, -8.788344470200757 ], [ 13.226789338439488, -8.788344470200757 ], [ 13.226610447947648, -8.780220165205076 ], [ 13.236661063789553, -8.780220165205076 ], [ 13.236482209693758, -8.772095928310389 ], [ 13.246532689731492, -8.772095928310389 ], [ 13.246353872272865, -8.763971759451678 ], [ 13.256404216637261, -8.763971759451678 ], [ 13.256225436056901, -8.755847658563937 ], [ 13.26627564487878, -8.755847658563937 ], [ 13.266633649806957, -8.772095928310389 ], [ 13.256583169769224, -8.772095928310389 ], [ 13.256762295473363, -8.780220165205076 ], [ 13.246711679631458, -8.780220165205076 ], [ 13.247070176837758, -8.796468843362451 ], [ 13.257121064680581, -8.796468843362451 ], [ 13.256941593770277, -8.788344470200757 ], [ 13.266992345547209, -8.788344470200757 ], [ 13.26681291131527, -8.780220165205076 ], [ 13.276863527157174, -8.780220165205076 ], [ 13.276684129844689, -8.772095928310389 ], [ 13.286734609882421, -8.772095928310389 ], [ 13.286376062522535, -8.755847658563937 ], [ 13.306476480166291, -8.755847658563937 ], [ 13.306297195058418, -8.747723625582164 ], [ 13.316347268468585, -8.747723625582164 ], [ 13.316526688988169, -8.755847658563937 ], [ 13.326576897810048, -8.755847658563937 ], [ 13.326756627188029, -8.763971759451678 ], [ 13.356907660281214, -8.763971759451678 ], [ 13.357087970146551, -8.772095928310389 ], [ 13.367138450184282, -8.772095928310389 ], [ 13.366958004645609, -8.763971759451678 ], [ 13.377008349010003, -8.763971759451678 ], [ 13.376827941919435, -8.755847658563937 ], [ 13.386878150741314, -8.755847658563937 ], [ 13.386697782339738, -8.747723625582164 ], [ 13.416848002570234, -8.747723625582164 ], [ 13.417028777206948, -8.755847658563937 ] ], [ [ 13.23701928899494, -8.796468843362451 ], [ 13.226968401152119, -8.796468843362451 ], [ 13.227147636106126, -8.804593284755187 ], [ 13.237198660145722, -8.804593284755187 ], [ 13.23701928899494, -8.796468843362451 ] ] ] ] } }
]
}
