{
"type": "FeatureCollection",
"name": "ghsl_2007",
"crs": { "type": "name", "properties": { "name": "urn:ogc:def:crs:OGC:1.3:CRS84" } },
"features": [
{ "type": "Feature", "properties": { "city_id": "ghsl_2007", "city_name": "Los Angeles" }, "geometry": { "type": "MultiPolygon", "coordinates": [ [ [ [ -118.39715090644151, 34.318631681502374 ], [ -118.408385098576119, 34.318631681502374 ], [ -118.400739504921233, 34.309934632825232 ], [ -118.411972971667439, 34.309934632825232 ], [ -118.389053960537751, 34.283845522490964 ], [ -118.377822668064496, 34.283845522490964 ], [ -118.370190365321804, 34.275149830498528 ], [ -118.392651502013521, 34.275149830498528 ], [ -118.385021070506937, 34.266454477342343 ], [ -118.396250915040284, 34.266454477342343 ], [ -118.373377352475003, 34.240370449553048 ], [ -118.362149677491374, 34.240370449553048 ], [ -118.339308104353776, 34.214289466474277 ], [ -118.328082596091178, 34.214289466474277 ], [ -118.32047607944628, 34.205596481426774 ], [ -118.309251292796091, 34.205596481426774 ], [ -118.30164880430182, 34.196903834146113 ], [ -118.290424738950378, 34.196903834146113 ], [ -118.275231117093796, 34.179519552351614 ], [ -118.264008493399217, 34.179519552351614 ], [ -118.256417356030042, 34.170827917571053 ], [ -118.233973549357799, 34.170827917571053 ], [ -118.218804051979021, 34.153445659576832 ], [ -118.207583588420533, 34.153445659576832 ], [ -118.200004504054732, 34.144755036096782 ], [ -118.166345271637795, 34.144755036096782 ], [ -118.173922197745156, 34.153445659576832 ], [ -118.162701734186697, 34.153445659576832 ], [ -118.170281235403451, 34.162136620023858 ], [ -118.15906005211265, 34.162136620023858 ], [ -118.189408150787301, 34.196903834146113 ], [ -118.200632216138771, 34.196903834146113 ], [ -118.208228212944562, 34.205596481426774 ], [ -118.230677786244897, 34.205596481426774 ], [ -118.22308034684167, 34.196903834146113 ], [ -118.234304412193111, 34.196903834146113 ], [ -118.272328277622293, 34.240370449553048 ], [ -118.283555952605923, 34.240370449553048 ], [ -118.291171374822213, 34.249064787003398 ], [ -118.313628170526954, 34.249064787003398 ], [ -118.328871847840219, 34.266454477342343 ], [ -118.317642003306872, 34.266454477342343 ], [ -118.325268091938369, 34.275149830498528 ], [ -118.302806955246666, 34.275149830498528 ], [ -118.295182314240179, 34.266454477342343 ], [ -118.283952469706833, 34.266454477342343 ], [ -118.276331867626482, 34.257759462888579 ], [ -118.265102746590912, 34.257759462888579 ], [ -118.257486181265065, 34.249064787003398 ], [ -118.246257783412688, 34.249064787003398 ], [ -118.23864525267139, 34.240370449553048 ], [ -118.227417577687746, 34.240370449553048 ], [ -118.212203889046592, 34.222982789422119 ], [ -118.200977658857695, 34.222982789422119 ], [ -118.193376496939933, 34.214289466474277 ], [ -118.182150988677336, 34.214289466474277 ], [ -118.174553852994052, 34.205596481426774 ], [ -118.129654706393367, 34.205596481426774 ], [ -118.122063758678593, 34.196903834146113 ], [ -118.110839693327151, 34.196903834146113 ], [ -118.103252766583495, 34.188211524498861 ], [ -118.09202942221718, 34.188211524498861 ], [ -118.084446514286057, 34.179519552351614 ], [ -118.073223890591493, 34.179519552351614 ], [ -118.065644999316021, 34.170827917571053 ], [ -118.031979289307657, 34.170827917571053 ], [ -118.024405852623076, 34.162136620023858 ], [ -117.990742302750661, 34.162136620023858 ], [ -117.98317431725124, 34.153445659576832 ], [ -117.93829246301739, 34.153445659576832 ], [ -117.930730644719432, 34.144755036096782 ], [ -117.908291156441493, 34.144755036096782 ], [ -117.915851535900458, 34.153445659576832 ], [ -117.904631072342013, 34.153445659576832 ], [ -117.897071412302523, 34.144755036096782 ], [ -117.874631924024584, 34.144755036096782 ], [ -117.882190145225067, 34.153445659576832 ], [ -117.837308290991231, 34.153445659576832 ], [ -117.822200887879902, 34.136064749450576 ], [ -117.810981862847726, 34.136064749450576 ], [ -117.803433804465286, 34.12737479950512 ], [ -117.769778885751521, 34.12737479950512 ], [ -117.762236263393859, 34.118685186127415 ], [ -117.728583500125609, 34.118685186127415 ], [ -117.721046310399998, 34.10999590918447 ], [ -117.687395701640483, 34.10999590918447 ], [ -117.694930736857359, 34.118685186127415 ], [ -117.683713149101251, 34.118685186127415 ], [ -117.691250742086041, 34.12737479950512 ], [ -117.680032435848105, 34.12737479950512 ], [ -117.687572587493818, 34.136064749450576 ], [ -117.676353562461642, 34.136064749450576 ], [ -117.683896273662072, 34.144755036096782 ], [ -117.672676529523102, 34.144755036096782 ], [ -117.680221801172735, 34.153445659576832 ], [ -117.624119483380412, 34.153445659576832 ], [ -117.631664437445096, 34.162136620023858 ], [ -117.564337337700323, 34.162136620023858 ], [ -117.556796702029629, 34.153445659576832 ], [ -117.534355774912697, 34.153445659576832 ], [ -117.541894971118708, 34.162136620023858 ], [ -117.530673787827908, 34.162136620023858 ], [ -117.52313531135421, 34.153445659576832 ], [ -117.500694384237306, 34.153445659576832 ], [ -117.508231421246322, 34.162136620023858 ], [ -117.485789054664707, 34.162136620023858 ], [ -117.493327929173901, 34.170827917571053 ], [ -117.48210602583778, 34.170827917571053 ], [ -117.474567871373907, 34.162136620023858 ], [ -117.463346688083107, 34.162136620023858 ], [ -117.455812530003442, 34.153445659576832 ], [ -117.433371602886524, 34.153445659576832 ], [ -117.44090432150152, 34.162136620023858 ], [ -117.42968313821072, 34.162136620023858 ], [ -117.437218412493309, 34.170827917571053 ], [ -117.414774605821066, 34.170827917571053 ], [ -117.399710212211104, 34.153445659576832 ], [ -117.38848974865266, 34.153445659576832 ], [ -117.380963181909863, 34.144755036096782 ], [ -117.358523693631938, 34.144755036096782 ], [ -117.366048821535728, 34.153445659576832 ], [ -117.354828357977269, 34.153445659576832 ], [ -117.362356038465933, 34.162136620023858 ], [ -117.351134855175133, 34.162136620023858 ], [ -117.358665089140487, 34.170827917571053 ], [ -117.347443185804337, 34.170827917571053 ], [ -117.36251203840763, 34.188211524498861 ], [ -117.351288694041315, 34.188211524498861 ], [ -117.343753350444317, 34.179519552351614 ], [ -117.287640231971451, 34.179519552351614 ], [ -117.280111765787638, 34.170827917571053 ], [ -117.268889862451516, 34.170827917571053 ], [ -117.261365388848731, 34.162136620023858 ], [ -117.250144205557945, 34.162136620023858 ], [ -117.242623722392622, 34.153445659576832 ], [ -117.231403258834163, 34.153445659576832 ], [ -117.223886763964288, 34.144755036096782 ], [ -117.201447275686348, 34.144755036096782 ], [ -117.193935486078217, 34.136064749450576 ], [ -117.171497436013851, 34.136064749450576 ], [ -117.15648652456521, 34.118685186127415 ], [ -117.167704112321289, 34.118685186127415 ], [ -117.160202831074585, 34.10999590918447 ], [ -117.193853439834129, 34.10999590918447 ], [ -117.186353265078495, 34.101306968543369 ], [ -117.197569416807539, 34.101306968543369 ], [ -117.182577409480672, 34.083930095635246 ], [ -117.171362692530778, 34.083930095635246 ], [ -117.163872291723592, 34.075242163102637 ], [ -117.119016291611899, 34.075242163102637 ], [ -117.111532012216017, 34.066554566340699 ], [ -117.133958579050983, 34.066554566340699 ], [ -117.126476119276305, 34.057867305216774 ], [ -117.148901253513202, 34.057867305216774 ], [ -117.141420613101673, 34.049180379598234 ], [ -117.152632464232326, 34.049180379598234 ], [ -117.145154358602866, 34.040493789352503 ], [ -117.156365494056828, 34.040493789352503 ], [ -117.148889922330014, 34.031807534347109 ], [ -117.193731602683087, 34.031807534347109 ], [ -117.201210035872748, 34.040493789352503 ], [ -117.25726571314263, 34.040493789352503 ], [ -117.264750975538902, 34.049180379598234 ], [ -117.287174677800223, 34.049180379598234 ], [ -117.279687984050582, 34.040493789352503 ], [ -117.302110254958535, 34.040493789352503 ], [ -117.29462538347741, 34.031807534347109 ], [ -117.305835803565685, 34.031807534347109 ], [ -117.298353469149177, 34.023121614449572 ], [ -117.309563174182557, 34.023121614449572 ], [ -117.302083375950716, 34.014436029527481 ], [ -117.324501356529026, 34.014436029527481 ], [ -117.331982584249275, 34.023121614449572 ], [ -117.320772879215895, 34.023121614449572 ], [ -117.328256643742208, 34.031807534347109 ], [ -117.317046223653961, 34.031807534347109 ], [ -117.324532525866488, 34.040493789352503 ], [ -117.313321390412511, 34.040493789352503 ], [ -117.328302327408323, 34.057867305216774 ], [ -117.339514894526744, 34.057867305216774 ], [ -117.347010963983209, 34.066554566340699 ], [ -117.369437530818203, 34.066554566340699 ], [ -117.361940028763655, 34.057867305216774 ], [ -117.373152595882075, 34.057867305216774 ], [ -117.35067748391873, 34.031807534347109 ], [ -117.361887904007006, 34.031807534347109 ], [ -117.354401994315992, 34.023121614449572 ], [ -117.376821404382753, 34.023121614449572 ], [ -117.384308744183528, 34.031807534347109 ], [ -117.395519164271803, 34.031807534347109 ], [ -117.403010474044336, 34.040493789352503 ], [ -117.425432744952261, 34.040493789352503 ], [ -117.417940004448297, 34.031807534347109 ], [ -117.429150424536573, 34.031807534347109 ], [ -117.39173195288538, 33.988381283290636 ], [ -117.40293880080452, 33.988381283290636 ], [ -117.395464144005615, 33.979697036947321 ], [ -117.406670278421828, 33.979697036947321 ], [ -117.414145648723647, 33.988381283290636 ], [ -117.436559344561914, 33.988381283290636 ], [ -117.429082547254183, 33.979697036947321 ], [ -117.440288681670395, 33.979697036947321 ], [ -117.43281441925788, 33.971013124918187 ], [ -117.488841525373942, 33.971013124918187 ], [ -117.496319353751332, 33.979697036947321 ], [ -117.5299377569999, 33.979697036947321 ], [ -117.522457789043571, 33.971013124918187 ], [ -117.544868631490004, 33.971013124918187 ], [ -117.537390487147036, 33.96232954707115 ], [ -117.548595195487081, 33.96232954707115 ], [ -117.541119587072671, 33.953646303274141 ], [ -117.574731574372393, 33.953646303274141 ], [ -117.567257076481582, 33.944963393395192 ], [ -117.58966364348683, 33.944963393395192 ], [ -117.582190968435356, 33.936280817302325 ], [ -117.604596111531492, 33.936280817302325 ], [ -117.612070210492064, 33.944963393395192 ], [ -117.600866926989426, 33.944963393395192 ], [ -117.615823445527383, 33.96232954707115 ], [ -117.627028153867442, 33.96232954707115 ], [ -117.634512001275695, 33.971013124918187 ], [ -117.612101158829262, 33.971013124918187 ], [ -117.619586832329432, 33.979697036947321 ], [ -117.563556160248467, 33.979697036947321 ], [ -117.571041519591446, 33.988381283290636 ], [ -117.559834671672334, 33.988381283290636 ], [ -117.574813723844713, 34.005750779448491 ], [ -117.586021999700165, 34.005750779448491 ], [ -117.593517123468601, 34.014436029527481 ], [ -117.649562074914357, 34.014436029527481 ], [ -117.642063378977511, 34.005750779448491 ], [ -117.653271654832977, 34.005750779448491 ], [ -117.645775502634805, 33.997065864080291 ], [ -117.656983064366983, 33.997065864080291 ], [ -117.649489455025375, 33.988381283290636 ], [ -117.660696302944515, 33.988381283290636 ], [ -117.653205235578, 33.979697036947321 ], [ -117.664411369994198, 33.979697036947321 ], [ -117.641955548971808, 33.953646303274141 ], [ -117.675567536271501, 33.953646303274141 ], [ -117.668086628005156, 33.944963393395192 ], [ -117.69049319501039, 33.944963393395192 ], [ -117.697975527804644, 33.953646303274141 ], [ -117.709179523571223, 33.953646303274141 ], [ -117.716665820587863, 33.96232954707115 ], [ -117.739075237267969, 33.96232954707115 ], [ -117.769058681688733, 33.997065864080291 ], [ -117.780266243420883, 33.997065864080291 ], [ -117.787770965098574, 34.005750779448491 ], [ -117.810187516809506, 34.005750779448491 ], [ -117.817696929251596, 34.014436029527481 ], [ -117.840114909829893, 34.014436029527481 ], [ -117.832604068520439, 34.005750779448491 ], [ -117.84381234437592, 34.005750779448491 ], [ -117.836304052081772, 33.997065864080291 ], [ -117.84751161381395, 33.997065864080291 ], [ -117.825004162070286, 33.971013124918187 ], [ -117.836209583293495, 33.971013124918187 ], [ -117.828712903988389, 33.96232954707115 ], [ -117.851122320668495, 33.96232954707115 ], [ -117.858620425739929, 33.971013124918187 ], [ -117.892236689409557, 33.971013124918187 ], [ -117.884736445688631, 33.96232954707115 ], [ -117.895941154028691, 33.96232954707115 ], [ -117.903442110632767, 33.971013124918187 ], [ -117.914647531855991, 33.971013124918187 ], [ -117.922152461566554, 33.979697036947321 ], [ -117.989389268063704, 33.979697036947321 ], [ -117.996901740518396, 33.988381283290636 ], [ -117.98569489259927, 33.988381283290636 ], [ -117.993209916332205, 33.997065864080291 ], [ -117.982002354600027, 33.997065864080291 ], [ -118.004564886251273, 34.023121614449572 ], [ -118.015774591284654, 34.023121614449572 ], [ -118.023302689214404, 34.031807534347109 ], [ -118.034513109302679, 34.031807534347109 ], [ -118.042045194921016, 34.040493789352503 ], [ -118.053256330374992, 34.040493789352503 ], [ -118.060792405815533, 34.049180379598234 ], [ -118.083216108076826, 34.049180379598234 ], [ -118.075678601282917, 34.040493789352503 ], [ -118.086889736736921, 34.040493789352503 ], [ -118.04924772499308, 33.997065864080291 ], [ -118.038040163260902, 33.997065864080291 ], [ -118.007988237429217, 33.96232954707115 ], [ -117.996783529089186, 33.96232954707115 ], [ -117.989279417735446, 33.953646303274141 ], [ -117.955667430435724, 33.953646303274141 ], [ -117.948168715570631, 33.944963393395192 ], [ -117.903355581560149, 33.944963393395192 ], [ -117.895862971781042, 33.936280817302325 ], [ -117.884660400232988, 33.936280817302325 ], [ -117.877171756630602, 33.927598574863666 ], [ -117.865969896727862, 33.927598574863666 ], [ -117.858485217186356, 33.918916665947371 ], [ -117.8472840686198, 33.918916665947371 ], [ -117.839803351024884, 33.910235090421637 ], [ -117.828602913485582, 33.910235090421637 ], [ -117.821126155724485, 33.901553848154727 ], [ -117.765127521620016, 33.901553848154727 ], [ -117.735267147725409, 33.866832209042293 ], [ -117.724070260692827, 33.866832209042293 ], [ -117.716613979639874, 33.858152631095152 ], [ -117.727810157495995, 33.858152631095152 ], [ -117.720356405587751, 33.849473385617458 ], [ -117.731551874575445, 33.849473385617458 ], [ -117.724100650941438, 33.840794472477832 ], [ -117.735295411368497, 33.840794472477832 ], [ -117.742747343563138, 33.849473385617458 ], [ -117.776333750526234, 33.849473385617458 ], [ -117.768879692649676, 33.840794472477832 ], [ -117.780074453076722, 33.840794472477832 ], [ -117.772622923835272, 33.832115891544923 ], [ -117.78381697600939, 33.832115891544923 ], [ -117.776367974533343, 33.823437642687438 ], [ -117.787561318762059, 33.823437642687438 ], [ -117.780114844182393, 33.814759725774167 ], [ -117.791307480773114, 33.814759725774167 ], [ -117.776422815853707, 33.797404887255531 ], [ -117.765231593617301, 33.797404887255531 ], [ -117.750361264637377, 33.78005137494015 ], [ -117.772740882857377, 33.78005137494015 ], [ -117.765309148057113, 33.771375115781133 ], [ -117.776498251064055, 33.771375115781133 ], [ -117.746800741486808, 33.736673389415074 ], [ -117.757987023145674, 33.736673389415074 ], [ -117.728338232805299, 33.701976953204174 ], [ -117.71715476759843, 33.701976953204174 ], [ -117.709751315540686, 33.693303669758365 ], [ -117.732116839256321, 33.693303669758365 ], [ -117.724715194739076, 33.684630716294315 ], [ -117.769443429995434, 33.684630716294315 ], [ -117.762042187295265, 33.675958092681547 ], [ -117.773223543370776, 33.675958092681547 ], [ -117.758429289518588, 33.658613834488499 ], [ -117.769609241031887, 33.658613834488499 ], [ -117.76221622786413, 33.649942199647583 ], [ -117.773395477553507, 33.649942199647583 ], [ -117.780789192545171, 33.658613834488499 ], [ -117.803149095571754, 33.658613834488499 ], [ -117.795753976932261, 33.649942199647583 ], [ -117.806933226621609, 33.649942199647583 ], [ -117.792151214109836, 33.632599917825864 ], [ -117.825684754975498, 33.632599917825864 ], [ -117.818296457270392, 33.623929270584725 ], [ -117.829473603315094, 33.623929270584725 ], [ -117.822087811489368, 33.615258952283305 ], [ -117.833264256927762, 33.615258952283305 ], [ -117.825880970129248, 33.606588962791534 ], [ -117.859408205537591, 33.606588962791534 ], [ -117.852026022918025, 33.597919301979474 ], [ -117.863201068055815, 33.597919301979474 ], [ -117.855821389368558, 33.58924996971718 ], [ -117.866995734811738, 33.58924996971718 ], [ -117.859618559206311, 33.580580965874738 ], [ -117.870792205258567, 33.580580965874738 ], [ -117.878170080254947, 33.58924996971718 ], [ -117.889344425698127, 33.58924996971718 ], [ -117.896726203469086, 33.597919301979474 ], [ -117.919076293744638, 33.597919301979474 ], [ -117.926462676354333, 33.606588962791534 ], [ -117.937638421490462, 33.606588962791534 ], [ -117.959818918438145, 33.632599917825864 ], [ -117.970996765393366, 33.632599917825864 ], [ -117.978397386838608, 33.641270894136767 ], [ -117.989575935008659, 33.641270894136767 ], [ -117.99698047134099, 33.649942199647583 ], [ -118.008159721030353, 33.649942199647583 ], [ -118.037812841533608, 33.684630716294315 ], [ -118.04899490034768, 33.684630716294315 ], [ -118.063842189011652, 33.701976953204174 ], [ -118.05265872380474, 33.701976953204174 ], [ -118.060086500593243, 33.71065056676219 ], [ -118.07127066945462, 33.71065056676219 ], [ -118.086137309929867, 33.727998784737025 ], [ -118.097322887017114, 33.727998784737025 ], [ -118.104761754571314, 33.736673389415074 ], [ -118.127134317889087, 33.736673389415074 ], [ -118.142024566912156, 33.754023590805787 ], [ -118.153212258632507, 33.754023590805787 ], [ -118.1457648125064, 33.745348324727736 ], [ -118.156951799042943, 33.745348324727736 ], [ -118.171851336616257, 33.762699187779972 ], [ -118.183039733826689, 33.762699187779972 ], [ -118.175587642073211, 33.754023590805787 ], [ -118.186775333793562, 33.754023590805787 ], [ -118.171879444524649, 33.736673389415074 ], [ -118.205438289501345, 33.736673389415074 ], [ -118.212886731725732, 33.745348324727736 ], [ -118.224073718262247, 33.745348324727736 ], [ -118.231526100674969, 33.754023590805787 ], [ -118.242713792395321, 33.754023590805787 ], [ -118.227810852819118, 33.736673389415074 ], [ -118.238997134477998, 33.736673389415074 ], [ -118.224105722614539, 33.719324510562942 ], [ -118.246475468257415, 33.719324510562942 ], [ -118.239033202375126, 33.71065056676219 ], [ -118.283769877820589, 33.71065056676219 ], [ -118.276328027942327, 33.701976953204174 ], [ -118.29869495835608, 33.701976953204174 ], [ -118.306138215543328, 33.71065056676219 ], [ -118.328506553266052, 33.71065056676219 ], [ -118.335954450828922, 33.719324510562942 ], [ -118.324769578007491, 33.719324510562942 ], [ -118.332220005849038, 33.727998784737025 ], [ -118.321034428761806, 33.727998784737025 ], [ -118.328487387749121, 33.736673389415074 ], [ -118.317301106090241, 33.736673389415074 ], [ -118.324756597091223, 33.745348324727736 ], [ -118.313569610554651, 33.745348324727736 ], [ -118.328488897562366, 33.762699187779972 ], [ -118.317300500351919, 33.762699187779972 ], [ -118.324764298404176, 33.771375115781133 ], [ -118.313575195397235, 33.771375115781133 ], [ -118.32851110617807, 33.788727965387949 ], [ -118.33970162169787, 33.788727965387949 ], [ -118.347175149909987, 33.797404887255531 ], [ -118.369557594382798, 33.797404887255531 ], [ -118.377035783001332, 33.806082140673901 ], [ -118.399419641521348, 33.806082140673901 ], [ -118.406902493262891, 33.814759725774167 ], [ -118.39570985667217, 33.814759725774167 ], [ -118.403195251341373, 33.823437642687438 ], [ -118.392001907112657, 33.823437642687438 ], [ -118.414475482824713, 33.849473385617458 ], [ -118.403280013837019, 33.849473385617458 ], [ -118.418277256713651, 33.866832209042293 ], [ -118.407080369681054, 33.866832209042293 ], [ -118.42959854788937, 33.89287293901495 ], [ -118.418399531478244, 33.89287293901495 ], [ -118.433426540608011, 33.910235090421637 ], [ -118.422226103068738, 33.910235090421637 ], [ -118.44478897763598, 33.936280817302325 ], [ -118.433586406087926, 33.936280817302325 ], [ -118.493892343992968, 34.005750779448491 ], [ -118.505100619848449, 34.005750779448491 ], [ -118.527771593186174, 34.031807534347109 ], [ -118.538982013274421, 34.031807534347109 ], [ -118.55411385556441, 34.049180379598234 ], [ -118.54290200443377, 34.049180379598234 ], [ -118.550472143318814, 34.057867305216774 ], [ -118.539259576200379, 34.057867305216774 ], [ -118.531690153303117, 34.049180379598234 ], [ -118.498054599911129, 34.049180379598234 ], [ -118.505621874845019, 34.057867305216774 ], [ -118.494409307726585, 34.057867305216774 ], [ -118.501979155984188, 34.066554566340699 ], [ -118.490765872566712, 34.066554566340699 ], [ -118.498338295046238, 34.075242163102637 ], [ -118.464696294962479, 34.075242163102637 ], [ -118.472269858718903, 34.083930095635246 ], [ -118.427410990919313, 34.083930095635246 ], [ -118.434984978371929, 34.092618364071221 ], [ -118.401338675821236, 34.092618364071221 ], [ -118.408913803544564, 34.101306968543369 ], [ -118.39769765181552, 34.101306968543369 ], [ -118.405275355176983, 34.10999590918447 ], [ -118.394058485590477, 34.10999590918447 ], [ -118.401638765490787, 34.118685186127415 ], [ -118.390421177734709, 34.118685186127415 ], [ -118.382841616003958, 34.10999590918447 ], [ -118.326757268071418, 34.10999590918447 ], [ -118.334333238954287, 34.118685186127415 ], [ -118.267027712417757, 34.118685186127415 ], [ -118.274602666458208, 34.12737479950512 ], [ -118.263384360220286, 34.12737479950512 ], [ -118.27854271302752, 34.144755036096782 ], [ -118.289762457166489, 34.144755036096782 ], [ -118.297347296888248, 34.153445659576832 ], [ -118.331008687563639, 34.153445659576832 ], [ -118.323421689583398, 34.144755036096782 ], [ -118.345861177861337, 34.144755036096782 ], [ -118.33827603935984, 34.136064749450576 ], [ -118.349495064392016, 34.136064749450576 ], [ -118.34191250388578, 34.12737479950512 ], [ -118.386785728837467, 34.12737479950512 ], [ -118.394371164520706, 34.136064749450576 ], [ -118.42802823961722, 34.136064749450576 ], [ -118.435619130973095, 34.144755036096782 ], [ -118.469278363390004, 34.144755036096782 ], [ -118.461685314713762, 34.136064749450576 ], [ -118.495342389810276, 34.136064749450576 ], [ -118.502937595806912, 34.144755036096782 ], [ -118.559036316501789, 34.144755036096782 ], [ -118.56663842229139, 34.153445659576832 ], [ -118.600299812966782, 34.153445659576832 ], [ -118.592695548918698, 34.144755036096782 ], [ -118.615135037196637, 34.144755036096782 ], [ -118.607532640132007, 34.136064749450576 ], [ -118.618751665164183, 34.136064749450576 ], [ -118.626354781335607, 34.144755036096782 ], [ -118.637574525474577, 34.144755036096782 ], [ -118.668022946403809, 34.179519552351614 ], [ -118.656800322709245, 34.179519552351614 ], [ -118.664419984898544, 34.188211524498861 ], [ -118.653196640532229, 34.188211524498861 ], [ -118.660818895548303, 34.196903834146113 ], [ -118.649594830196833, 34.196903834146113 ], [ -118.664847843969241, 34.214289466474277 ], [ -118.642396827444031, 34.214289466474277 ], [ -118.650026866413455, 34.222982789422119 ], [ -118.616348175846781, 34.222982789422119 ], [ -118.62397936681343, 34.231676450403839 ], [ -118.612752414384261, 34.231676450403839 ], [ -118.628023310393601, 34.249064787003398 ], [ -118.616794912541209, 34.249064787003398 ], [ -118.624434619729044, 34.257759462888579 ], [ -118.613205498693503, 34.257759462888579 ], [ -118.620847805707129, 34.266454477342343 ], [ -118.587158272107132, 34.266454477342343 ], [ -118.594801732238935, 34.275149830498528 ], [ -118.583571163893069, 34.275149830498528 ], [ -118.575928427573785, 34.266454477342343 ], [ -118.553468738507092, 34.266454477342343 ], [ -118.561110027201337, 34.275149830498528 ], [ -118.549879458855472, 34.275149830498528 ], [ -118.572821103089268, 34.301237923520333 ], [ -118.561588361416014, 34.301237923520333 ], [ -118.553938544949091, 34.292541553453582 ], [ -118.520242494202037, 34.292541553453582 ], [ -118.527890136396195, 34.301237923520333 ], [ -118.50542465304963, 34.301237923520333 ], [ -118.497778460370682, 34.292541553453582 ], [ -118.475314426539356, 34.292541553453582 ], [ -118.482959169703079, 34.301237923520333 ], [ -118.471726428029797, 34.301237923520333 ], [ -118.487024443518251, 34.318631681502374 ], [ -118.475790251383643, 34.318631681502374 ], [ -118.483443525863308, 34.327329069685852 ], [ -118.404799100993131, 34.327329069685852 ], [ -118.39715090644151, 34.318631681502374 ] ] ] ] } }
]
}
