{
"type": "FeatureCollection",
"name": "ghsl_2637",
"crs": { "type": "name", "properties": { "name": "urn:ogc:def:crs:OGC:1.3:CRS84" } },
"features": [
{ "type": "Feature", "properties": { "city_id": "ghsl_2637", "city_name": "Istanbul" }, "geometry": { "type": "Polygon", "coordinates": [ [ [ 29.05730908144071, 41.208253223728562 ], [ 29.05480459146256, 41.199246263992876 ], [ 29.066712298262335, 41.199246263992876 ], [ 29.059202684996894, 41.172228163489748 ], [ 29.071107315347156, 41.172228163489748 ], [ 29.06860539613232, 41.163223055593001 ], [ 29.104316213572282, 41.163223055593001 ], [ 29.099309694176828, 41.145214227072231 ], [ 29.111211252333948, 41.145214227072231 ], [ 29.108708701300625, 41.136210506070661 ], [ 29.120609236337952, 41.136210506070661 ], [ 29.118106816756438, 41.127207246990082 ], [ 29.153805353924511, 41.127207246990082 ], [ 29.148797844148476, 41.109202113837775 ], [ 29.136900375640653, 41.109202113837775 ], [ 29.134399373282374, 41.100200239389252 ], [ 29.110606478734987, 41.100200239389252 ], [ 29.108108670736243, 41.091198826108069 ], [ 29.096213244225929, 41.091198826108069 ], [ 29.09122312134415, 41.073197382295191 ], [ 29.103116507738815, 41.073197382295191 ], [ 29.100622151404639, 41.064197351387406 ], [ 29.112514518446481, 41.064197351387406 ], [ 29.11002029244947, 41.055197780894851 ], [ 29.121911640608154, 41.055197780894851 ], [ 29.119417545220752, 41.046198670629693 ], [ 29.131307874965643, 41.046198670629693 ], [ 29.128813910460078, 41.037200020404249 ], [ 29.152592534060449, 41.037200020404249 ], [ 29.155088534455405, 41.046198670629693 ], [ 29.166978864200289, 41.046198670629693 ], [ 29.169477033242874, 41.055197780894851 ], [ 29.193259729560236, 41.055197780894851 ], [ 29.190759523690055, 41.046198670629693 ], [ 29.214540183179825, 41.046198670629693 ], [ 29.217042425877594, 41.055197780894851 ], [ 29.228933774036275, 41.055197780894851 ], [ 29.231438188864974, 41.064197351387406 ], [ 29.243330555906827, 41.064197351387406 ], [ 29.240825122194956, 41.055197780894851 ], [ 29.252716470353633, 41.055197780894851 ], [ 29.247707028461956, 41.037200020404249 ], [ 29.259596340262142, 41.037200020404249 ], [ 29.257092332151721, 41.028201830030888 ], [ 29.268980626476043, 41.028201830030888 ], [ 29.266476754476749, 41.01920409932211 ], [ 29.278364031793757, 41.01920409932211 ], [ 29.275860296174393, 41.010206828090446 ], [ 29.287746556952371, 41.010206828090446 ], [ 29.282740511530708, 40.992213663309258 ], [ 29.294624740634415, 40.992213663309258 ], [ 29.289621272821901, 40.974222334189704 ], [ 29.301503472121219, 40.974222334189704 ], [ 29.29900245082861, 40.965227357535476 ], [ 29.31088363592627, 40.965227357535476 ], [ 29.308382751688157, 40.956232839235703 ], [ 29.320262923050823, 40.956232839235703 ], [ 29.315262579611208, 40.938245176952549 ], [ 29.327140724902783, 40.938245176952549 ], [ 29.319645795429626, 40.911267116519788 ], [ 29.331520905107805, 40.911267116519788 ], [ 29.329023881632633, 40.902275344427608 ], [ 29.376520276582642, 40.902275344427608 ], [ 29.379021343820533, 40.911267116519788 ], [ 29.390896453498712, 40.911267116519788 ], [ 29.38839437532015, 40.902275344427608 ], [ 29.400268474057651, 40.902275344427608 ], [ 29.397766535732305, 40.893284029384361 ], [ 29.409639623993915, 40.893284029384361 ], [ 29.407137825787341, 40.884293171203872 ], [ 29.430881982287772, 40.884293171203872 ], [ 29.425877797744945, 40.866312824687057 ], [ 29.437747857364847, 40.866312824687057 ], [ 29.435246481105722, 40.857323335978911 ], [ 29.447115532106174, 40.857323335978911 ], [ 29.444614297025808, 40.84833430338989 ], [ 29.456482339870231, 40.84833430338989 ], [ 29.453981246233052, 40.839345726734273 ], [ 29.465848281384634, 40.839345726734273 ], [ 29.460847526263709, 40.821369940480999 ], [ 29.472712547418062, 40.821369940480999 ], [ 29.470212885999661, 40.812382730512432 ], [ 29.493940915698527, 40.812382730512432 ], [ 29.496442589726769, 40.821369940480999 ], [ 29.520172632035482, 40.821369940480999 ], [ 29.517668945397403, 40.812382730512432 ], [ 29.52953296024684, 40.812382730512432 ], [ 29.527029417493715, 40.803395975735455 ], [ 29.538892426500343, 40.803395975735455 ], [ 29.536389027894671, 40.794409675964815 ], [ 29.560113035145989, 40.794409675964815 ], [ 29.55010289359009, 40.758469023244338 ], [ 29.51452893344532, 40.758469023244338 ], [ 29.522025779911846, 40.7854238310154 ], [ 29.510164781205571, 40.7854238310154 ], [ 29.51266502064335, 40.794409675964815 ], [ 29.453355002515046, 40.794409675964815 ], [ 29.450859787674208, 40.7854238310154 ], [ 29.43899878896794, 40.7854238310154 ], [ 29.431523026440853, 40.758469023244338 ], [ 29.407807053011005, 40.758469023244338 ], [ 29.405319425208138, 40.749484995730157 ], [ 29.346034507012156, 40.749484995730157 ], [ 29.348517119436387, 40.758469023244338 ], [ 29.336659132721465, 40.758469023244338 ], [ 29.341625770038956, 40.776438440702137 ], [ 29.329765775790758, 40.776438440702137 ], [ 29.332249800611489, 40.7854238310154 ], [ 29.320388801905214, 40.7854238310154 ], [ 29.322872962632783, 40.794409675964815 ], [ 29.334734966258438, 40.794409675964815 ], [ 29.337221273387687, 40.803395975735455 ], [ 29.325358264381062, 40.803395975735455 ], [ 29.32784470780642, 40.812382730512432 ], [ 29.315980692956987, 40.812382730512432 ], [ 29.313495255374431, 40.803395975735455 ], [ 29.289769237361181, 40.803395975735455 ], [ 29.292252663258111, 40.812382730512432 ], [ 29.280388648408678, 40.812382730512432 ], [ 29.27790622835456, 40.803395975735455 ], [ 29.266043219347928, 40.803395975735455 ], [ 29.263562944504478, 40.794409675964815 ], [ 29.25170094087882, 40.794409675964815 ], [ 29.254180210341303, 40.803395975735455 ], [ 29.242317201334679, 40.803395975735455 ], [ 29.247277145485317, 40.821369940480999 ], [ 29.271007187794023, 40.821369940480999 ], [ 29.273490882708451, 40.830357605826478 ], [ 29.249758826865158, 40.830357605826478 ], [ 29.257210716099035, 40.857323335978911 ], [ 29.245341665098589, 40.857323335978911 ], [ 29.247826903446363, 40.866312824687057 ], [ 29.21221672458665, 40.866312824687057 ], [ 29.214700078262858, 40.875302769700085 ], [ 29.190957940856716, 40.875302769700085 ], [ 29.193440417283437, 40.884293171203872 ], [ 29.157824182532785, 40.884293171203872 ], [ 29.160304770500222, 40.893284029384361 ], [ 29.136558593977011, 40.893284029384361 ], [ 29.139038301832585, 40.902275344427608 ], [ 29.127164203095077, 40.902275344427608 ], [ 29.129644040578725, 40.911267116519788 ], [ 29.117768930900539, 40.911267116519788 ], [ 29.120248897740542, 40.920259345847086 ], [ 29.108372776656633, 40.920259345847086 ], [ 29.110852872581074, 40.929252032595883 ], [ 29.098975739626123, 40.929252032595883 ], [ 29.101455964362831, 40.938245176952549 ], [ 29.089577819071248, 40.938245176952549 ], [ 29.092058172347826, 40.947238779103621 ], [ 29.068299856159715, 40.947238779103621 ], [ 29.070779324434909, 40.956232839235703 ], [ 29.047018981709584, 40.956232839235703 ], [ 29.049497563777752, 40.965227357535476 ], [ 29.025735193582431, 40.965227357535476 ], [ 29.028212888236876, 40.974222334189704 ], [ 29.016330688937558, 40.974222334189704 ], [ 29.018808509639108, 40.983217769385313 ], [ 29.006925295671195, 40.983217769385313 ], [ 29.009403242145478, 40.992213663309258 ], [ 28.997519013041778, 40.992213663309258 ], [ 29.004956653502553, 41.01920409932211 ], [ 28.993069376185538, 41.01920409932211 ], [ 28.985634783938064, 40.992213663309258 ], [ 28.938097867523243, 40.992213663309258 ], [ 28.935626011863732, 40.983217769385313 ], [ 28.911859583927907, 40.983217769385313 ], [ 28.909390895243686, 40.974222334189704 ], [ 28.885626496645049, 40.974222334189704 ], [ 28.883160972410522, 40.965227357535476 ], [ 28.847517417117544, 40.965227357535476 ], [ 28.842595852372611, 40.947238779103621 ], [ 28.806958378090439, 40.947238779103621 ], [ 28.809415554456336, 40.956232839235703 ], [ 28.785655211731012, 40.956232839235703 ], [ 28.788111491629241, 40.965227357535476 ], [ 28.776230306531588, 40.965227357535476 ], [ 28.778686702951177, 40.974222334189704 ], [ 28.754922304352533, 40.974222334189704 ], [ 28.752467936336263, 40.965227357535476 ], [ 28.693062010847967, 40.965227357535476 ], [ 28.690613840829709, 40.956232839235703 ], [ 28.6312129840164, 40.956232839235703 ], [ 28.636100311359343, 40.974222334189704 ], [ 28.624218112060024, 40.974222334189704 ], [ 28.626662448698042, 40.983217769385313 ], [ 28.591012806794307, 40.983217769385313 ], [ 28.595898764977061, 41.001210016148562 ], [ 28.584013520270084, 41.001210016148562 ], [ 28.586457171051322, 41.010206828090446 ], [ 28.574570910273341, 41.010206828090446 ], [ 28.579459555665476, 41.028201830030888 ], [ 28.603236144314117, 41.028201830030888 ], [ 28.605684191251814, 41.037200020404249 ], [ 28.617573503052004, 41.037200020404249 ], [ 28.622475017943575, 41.055197780894851 ], [ 28.610583669784898, 41.055197780894851 ], [ 28.613035102688826, 41.064197351387406 ], [ 28.601142735646974, 41.064197351387406 ], [ 28.603594279162994, 41.073197382295191 ], [ 28.615487665557662, 41.073197382295191 ], [ 28.620396183813408, 41.091198826108069 ], [ 28.64418703683403, 41.091198826108069 ], [ 28.646645035060825, 41.100200239389252 ], [ 28.682334376881915, 41.100200239389252 ], [ 28.679873316364969, 41.091198826108069 ], [ 28.691768742875283, 41.091198826108069 ], [ 28.689307796351454, 41.082197873806074 ], [ 28.724991015003628, 41.082197873806074 ], [ 28.727455022406218, 41.091198826108069 ], [ 28.739350448916532, 41.091198826108069 ], [ 28.7467523544743, 41.118204449641937 ], [ 28.758650844687246, 41.118204449641937 ], [ 28.761121445075727, 41.127207246990082 ], [ 28.773020957465086, 41.127207246990082 ], [ 28.775493720255483, 41.136210506070661 ], [ 28.78739425529281, 41.136210506070661 ], [ 28.784920469854441, 41.127207246990082 ], [ 28.808719494633152, 41.127207246990082 ], [ 28.806244805539023, 41.118204449641937 ], [ 28.841940276177855, 41.118204449641937 ], [ 28.844418031801229, 41.127207246990082 ], [ 28.880116568969299, 41.127207246990082 ], [ 28.87763574681669, 41.118204449641937 ], [ 28.913331217455521, 41.118204449641937 ], [ 28.910848473992157, 41.109202113837775 ], [ 28.934643411007791, 41.109202113837775 ], [ 28.932159769629536, 41.100200239389252 ], [ 28.967849111450629, 41.100200239389252 ], [ 28.970335816531232, 41.109202113837775 ], [ 28.982233285039051, 41.109202113837775 ], [ 28.984722158733195, 41.118204449641937 ], [ 28.996620648946138, 41.118204449641937 ], [ 28.999111692862868, 41.127207246990082 ], [ 29.011011205252228, 41.127207246990082 ], [ 29.013504421002018, 41.136210506070661 ], [ 29.025404956039338, 41.136210506070661 ], [ 29.030396885895094, 41.154218410183447 ], [ 29.018494304146056, 41.154218410183447 ], [ 29.023488793946097, 41.172228163489748 ], [ 29.035393424296359, 41.172228163489748 ], [ 29.040394576609589, 41.190239767500628 ], [ 29.028487895766375, 41.190239767500628 ], [ 29.030989177862999, 41.199246263992876 ], [ 29.007173764263435, 41.199246263992876 ], [ 29.0121756875232, 41.217260646896989 ], [ 29.047904967926552, 41.217260646896989 ], [ 29.04540034821061, 41.208253223728562 ], [ 29.05730908144071, 41.208253223728562 ] ], [ [ 29.056701790319, 41.163223055593001 ], [ 29.054202049393162, 41.154218410183447 ], [ 29.066104631142199, 41.154218410183447 ], [ 29.06860539613232, 41.163223055593001 ], [ 29.056701790319, 41.163223055593001 ] ], [ [ 29.073007096188643, 41.136210506070661 ], [ 29.070508767199009, 41.127207246990082 ], [ 29.082408279588368, 41.127207246990082 ], [ 29.08490763122597, 41.136210506070661 ], [ 29.073007096188643, 41.136210506070661 ] ], [ [ 29.079910080436754, 41.118204449641937 ], [ 29.091808570649697, 41.118204449641937 ], [ 29.094307791977727, 41.127207246990082 ], [ 29.082408279588368, 41.127207246990082 ], [ 29.079910080436754, 41.118204449641937 ] ], [ [ 29.068011590223804, 41.118204449641937 ], [ 29.06551556459376, 41.109202113837775 ], [ 29.077413033101575, 41.109202113837775 ], [ 29.079910080436754, 41.118204449641937 ], [ 29.068011590223804, 41.118204449641937 ] ], [ [ 28.99803148065801, 41.037200020404249 ], [ 28.995549857016677, 41.028201830030888 ], [ 29.007438151340999, 41.028201830030888 ], [ 29.009920792458203, 41.037200020404249 ], [ 28.99803148065801, 41.037200020404249 ] ] ] } }
]
}
