{
"type": "FeatureCollection",
"name": "ghsl_3338",
"crs": { "type": "name", "properties": { "name": "urn:ogc:def:crs:OGC:1.3:CRS84" } },
"features": [
{ "type": "Feature", "properties": { "city_id": "ghsl_3338", "city_name": "Madrid" }, "geometry": { "type": "MultiPolygon", "coordinates": [ [ [ [ -3.918382087379325, 40.578874503359117 ], [ -3.882868050333591, 40.578874503359117 ], [ -3.880264176814728, 40.507087222959193 ], [ -3.868434103104927, 40.507087222959193 ], [ -3.868110279018425, 40.4981158350733 ], [ -3.85628119559635, 40.4981158350733 ], [ -3.855958509457021, 40.489144895949423 ], [ -3.844130415869729, 40.489144895949423 ], [ -3.843808866687883, 40.480174405405442 ], [ -3.808327554072303, 40.480174405405442 ], [ -3.808009118718437, 40.471204363259339 ], [ -3.784356888167391, 40.471204363259339 ], [ -3.784673345661915, 40.480174405405442 ], [ -3.772846241456722, 40.480174405405442 ], [ -3.772530772891867, 40.471204363259339 ], [ -3.760704657616345, 40.471204363259339 ], [ -3.759762081124441, 40.444296925389622 ], [ -3.771585232322945, 40.444296925389622 ], [ -3.771270340235275, 40.435328675016756 ], [ -3.783092504311248, 40.435328675016756 ], [ -3.782461178905868, 40.417393516557034 ], [ -3.770640987721787, 40.417393516557034 ], [ -3.770326527132515, 40.408426608107298 ], [ -3.746688116304099, 40.408426608107298 ], [ -3.747000605353625, 40.417393516557034 ], [ -3.735180414169545, 40.417393516557034 ], [ -3.735803848007357, 40.435328675016756 ], [ -3.747626012083329, 40.435328675016756 ], [ -3.748251990862117, 40.453265623433225 ], [ -3.736427852089681, 40.453265623433225 ], [ -3.737052427065298, 40.471204363259339 ], [ -3.748878542340822, 40.471204363259339 ], [ -3.749192033046335, 40.480174405405442 ], [ -3.737364928841142, 40.480174405405442 ], [ -3.737990361375604, 40.4981158350733 ], [ -3.714332194531455, 40.4981158350733 ], [ -3.714643144877514, 40.507087222959193 ], [ -3.702813071167713, 40.507087222959193 ], [ -3.703123173078009, 40.516059059789256 ], [ -3.679461044176552, 40.516059059789256 ], [ -3.679769305630883, 40.525031345745788 ], [ -3.667937249985767, 40.525031345745788 ], [ -3.669167738353701, 40.560924984485062 ], [ -3.633659663466408, 40.560924984485062 ], [ -3.633964657395297, 40.569899518811113 ], [ -3.598453602111303, 40.569899518811113 ], [ -3.598151588579114, 40.560924984485062 ], [ -3.609987613541545, 40.560924984485062 ], [ -3.608172481489305, 40.507087222959193 ], [ -3.596342407779503, 40.507087222959193 ], [ -3.596041360310708, 40.4981158350733 ], [ -3.584212276888633, 40.4981158350733 ], [ -3.583612574173626, 40.480174405405442 ], [ -3.571785469968433, 40.480174405405442 ], [ -3.571486813207975, 40.471204363259339 ], [ -3.559660697932452, 40.471204363259339 ], [ -3.559363166204892, 40.462234769329221 ], [ -3.54753803940687, 40.462234769329221 ], [ -3.54724163173071, 40.453265623433225 ], [ -3.535417492958274, 40.453265623433225 ], [ -3.535122208352855, 40.444296925389622 ], [ -3.523299057154351, 40.444296925389622 ], [ -3.52241697285609, 40.417393516557034 ], [ -3.53423716404017, 40.417393516557034 ], [ -3.533942418848345, 40.408426608107298 ], [ -3.557580829676762, 40.408426608107298 ], [ -3.557284248507913, 40.39946014660255 ], [ -3.580920688697335, 40.39946014660255 ], [ -3.580622273275498, 40.390494131861558 ], [ -3.592439508500829, 40.390494131861558 ], [ -3.59184111811624, 40.372563441946433 ], [ -3.580025851280331, 40.372563441946433 ], [ -3.579429973901309, 40.354634536913942 ], [ -3.603056574389107, 40.354634536913942 ], [ -3.603356411183118, 40.363598766410306 ], [ -3.650613544444536, 40.363598766410306 ], [ -3.650309775364701, 40.354634536913942 ], [ -3.662123075608601, 40.354634536913942 ], [ -3.661209653689009, 40.327744522856051 ], [ -3.649399299967431, 40.327744522856051 ], [ -3.649096085187339, 40.318782075711781 ], [ -3.672714830075282, 40.318782075711781 ], [ -3.672409792014429, 40.309820073704294 ], [ -3.684218183628623, 40.309820073704294 ], [ -3.683606564697926, 40.291897404378126 ], [ -3.695412995995034, 40.291897404378126 ], [ -3.694799976476515, 40.273976513435876 ], [ -3.68299550370822, 40.273976513435876 ], [ -3.681775053029758, 40.238140060943152 ], [ -3.693575614097162, 40.238140060943152 ], [ -3.693269872345676, 40.229182057061045 ], [ -3.705069456602372, 40.229182057061045 ], [ -3.705376175164564, 40.238140060943152 ], [ -3.728977297299371, 40.238140060943152 ], [ -3.728668625115763, 40.229182057061045 ], [ -3.740468209372458, 40.229182057061045 ], [ -3.740158701539136, 40.220224496516131 ], [ -3.751957309430427, 40.220224496516131 ], [ -3.751646966758079, 40.211267379128898 ], [ -3.763444598729016, 40.211267379128898 ], [ -3.763755917321717, 40.220224496516131 ], [ -3.787353133104299, 40.220224496516131 ], [ -3.787980102636386, 40.238140060943152 ], [ -3.799780663703789, 40.238140060943152 ], [ -3.800095340220143, 40.247098508341971 ], [ -3.835499955191139, 40.247098508341971 ], [ -3.836135606504249, 40.265016734408576 ], [ -3.847939100678108, 40.265016734408576 ], [ -3.848258122464358, 40.273976513435876 ], [ -3.836453649696062, 40.273976513435876 ], [ -3.837090171560339, 40.291897404378126 ], [ -3.848896602857448, 40.291897404378126 ], [ -3.849216061629058, 40.300858516653143 ], [ -3.872830884093041, 40.300858516653143 ], [ -3.873152449455732, 40.309820073704294 ], [ -3.884960841069927, 40.309820073704294 ], [ -3.885283534066778, 40.318782075711781 ], [ -3.89709290651075, 40.318782075711781 ], [ -3.898064815024645, 40.345670753276544 ], [ -3.909877132645932, 40.345670753276544 ], [ -3.910202380730473, 40.354634536913942 ], [ -3.922015680974372, 40.354634536913942 ], [ -3.922342060697689, 40.363598766410306 ], [ -3.863270644120917, 40.363598766410306 ], [ -3.862949179754878, 40.354634536913942 ], [ -3.839322579267081, 40.354634536913942 ], [ -3.839642077490208, 40.363598766410306 ], [ -3.816013510859499, 40.363598766410306 ], [ -3.816331187998505, 40.372563441946433 ], [ -3.804515921162596, 40.372563441946433 ], [ -3.804832759472779, 40.381528563703199 ], [ -3.793016508666963, 40.381528563703199 ], [ -3.793648650402127, 40.39946014660255 ], [ -3.805466870496838, 40.39946014660255 ], [ -3.805784143375141, 40.408426608107298 ], [ -3.81760334878935, 40.408426608107298 ], [ -3.817921752458111, 40.417393516557034 ], [ -3.829741943642191, 40.417393516557034 ], [ -3.83006147908506, 40.426360872133046 ], [ -3.865525011298811, 40.426360872133046 ], [ -3.865202517194434, 40.417393516557034 ], [ -3.877022708378515, 40.417393516557034 ], [ -3.876376191065102, 40.39946014660255 ], [ -3.900012631254523, 40.39946014660255 ], [ -3.90033778668881, 40.408426608107298 ], [ -3.912156992103018, 40.408426608107298 ], [ -3.912483281930757, 40.417393516557034 ], [ -3.924303473114839, 40.417393516557034 ], [ -3.924958473222919, 40.435328675016756 ], [ -3.913136309146946, 40.435328675016756 ], [ -3.913463046705, 40.444296925389622 ], [ -3.901639895506495, 40.444296925389622 ], [ -3.901965794903781, 40.453265623433225 ], [ -3.890141656131346, 40.453265623433225 ], [ -3.891768445862575, 40.4981158350733 ], [ -3.90359752928465, 40.4981158350733 ], [ -3.90392432423433, 40.507087222959193 ], [ -3.91575439794413, 40.507087222959193 ], [ -3.916082333191121, 40.516059059789256 ], [ -3.939744462092578, 40.516059059789256 ], [ -3.940404748642349, 40.534004081011126 ], [ -3.95223779593557, 40.534004081011126 ], [ -3.952569158030827, 40.542977265767753 ], [ -3.940735118635524, 40.542977265767753 ], [ -3.941727136523236, 40.569899518811113 ], [ -3.953564154951234, 40.569899518811113 ], [ -3.953896124425059, 40.578874503359117 ], [ -3.965734136773637, 40.578874503359117 ], [ -3.966067252684752, 40.587849938311997 ], [ -3.918711225787023, 40.587849938311997 ], [ -3.918382087379325, 40.578874503359117 ] ] ] ] } }
]
}
