{
"type": "FeatureCollection",
"name": "ghsl_2171",
"crs": { "type": "name", "properties": { "name": "urn:ogc:def:crs:OGC:1.3:CRS84" } },
"features": [
{ "type": "Feature", "properties": { "city_id": "ghsl_2171", "city_name": "Lima" }, "geometry": { "type": "MultiPolygon", "coordinates": [ [ [ [ -77.042362710532245, -11.815878377551332 ], [ -77.032252164244781, -11.815878377551332 ], [ -77.036506193598356, -11.840341558860599 ], [ -77.026395088966041, -11.840341558860599 ], [ -77.027815013729295, -11.848496138627612 ], [ -77.007592431683165, -11.848496138627612 ], [ -77.00617287970141, -11.840341558860599 ], [ -76.985950670436793, -11.840341558860599 ], [ -76.988790079113159, -11.856650811506279 ], [ -76.998901556664933, -11.856650811506279 ], [ -77.00174554059052, -11.872960436869898 ], [ -76.991633689567465, -11.872960436869898 ], [ -76.993057070883253, -11.881115389490528 ], [ -77.003169108848965, -11.881115389490528 ], [ -77.006019398802266, -11.897425574948704 ], [ -76.99590698653715, -11.897425574948704 ], [ -76.997333521213719, -11.905580807921984 ], [ -76.977108321969894, -11.905580807921984 ], [ -76.975682162006933, -11.897425574948704 ], [ -76.965569749741817, -11.897425574948704 ], [ -76.964144828010944, -11.889270435494174 ], [ -76.95403260296456, -11.889270435494174 ], [ -76.958309958881983, -11.913736134481894 ], [ -76.948197171765187, -11.913736134481894 ], [ -76.951053622070646, -11.930047068633186 ], [ -76.940940459549665, -11.930047068633186 ], [ -76.942370073624133, -11.938202676360365 ], [ -76.952483424054421, -11.938202676360365 ], [ -76.953914277485367, -11.94635837794579 ], [ -76.964027815963149, -11.94635837794579 ], [ -76.96689305435649, -11.962670062963067 ], [ -76.956779139369075, -11.962670062963067 ], [ -76.958213148162287, -11.970826046530799 ], [ -76.897528527464573, -11.970826046530799 ], [ -76.896095649444476, -11.962670062963067 ], [ -76.885981734457047, -11.962670062963067 ], [ -76.888848164733091, -11.978982124228523 ], [ -76.878733872683, -11.978982124228523 ], [ -76.880168475993074, -11.987138296124199 ], [ -76.839710552837701, -11.987138296124199 ], [ -76.838276704482681, -11.978982124228523 ], [ -76.8180481203825, -11.978982124228523 ], [ -76.816615699867597, -11.970826046530799 ], [ -76.806501596417974, -11.970826046530799 ], [ -76.805070414557591, -11.962670062963067 ], [ -76.784842584582719, -11.962670062963067 ], [ -76.786273389518726, -11.970826046530799 ], [ -76.755931079169869, -11.970826046530799 ], [ -76.75450083962042, -11.962670062963067 ], [ -76.744386924632991, -11.962670062963067 ], [ -76.747248076031923, -11.978982124228523 ], [ -76.76747666013209, -11.978982124228523 ], [ -76.768909187315813, -11.987138296124199 ], [ -76.789138148893471, -11.987138296124199 ], [ -76.790572103672773, -11.995294562285794 ], [ -76.800686773338683, -11.995294562285794 ], [ -76.806433853940618, -12.027920570951066 ], [ -76.816549280498492, -12.027920570951066 ], [ -76.817988867566498, -12.036077309462105 ], [ -76.828104483693394, -12.036077309462105 ], [ -76.826664707056381, -12.027920570951066 ], [ -76.857010986729989, -12.027920570951066 ], [ -76.85845133207404, -12.036077309462105 ], [ -76.868566948200922, -12.036077309462105 ], [ -76.870008535226347, -12.044234142647063 ], [ -76.880124341060693, -12.044234142647063 ], [ -76.884455986480404, -12.068705210925794 ], [ -76.874339610692701, -12.068705210925794 ], [ -76.875785407884138, -12.076862423486819 ], [ -76.865668841834946, -12.076862423486819 ], [ -76.867115501597681, -12.085019731062006 ], [ -76.856998745148402, -12.085019731062006 ], [ -76.865699677554645, -12.133965575623353 ], [ -76.875817579315537, -12.133965575623353 ], [ -76.874364598934946, -12.125807696533306 ], [ -76.884482309463905, -12.125807696533306 ], [ -76.881579128086372, -12.109492224553334 ], [ -76.891696456567487, -12.109492224553334 ], [ -76.890246255640847, -12.101334631527175 ], [ -76.900363393306066, -12.101334631527175 ], [ -76.8989140553292, -12.093177133719433 ], [ -76.919147949305085, -12.093177133719433 ], [ -76.920597668636503, -12.101334631527175 ], [ -76.930714806301708, -12.101334631527175 ], [ -76.935070862108631, -12.125807696533306 ], [ -76.924953151579686, -12.125807696533306 ], [ -76.927862079395183, -12.142123550204273 ], [ -76.917743986263602, -12.142123550204273 ], [ -76.919199840937395, -12.150281620344209 ], [ -76.89896327165539, -12.150281620344209 ], [ -76.900419797975587, -12.158439786111307 ], [ -76.910538274264809, -12.158439786111307 ], [ -76.914914758730333, -12.182914857857172 ], [ -76.904795706663663, -12.182914857857172 ], [ -76.906256453381545, -12.191073406814562 ], [ -76.896137209111359, -12.191073406814562 ], [ -76.899061484500635, -12.207390792701643 ], [ -76.888941855406742, -12.207390792701643 ], [ -76.890405384009981, -12.215549629767738 ], [ -76.880285562295853, -12.215549629767738 ], [ -76.886149464380765, -12.248185940441074 ], [ -76.876028870795878, -12.248185940441074 ], [ -76.877497293414194, -12.256345259052855 ], [ -76.867376506514063, -12.256345259052855 ], [ -76.868845792054074, -12.264504674178529 ], [ -76.858724811699616, -12.264504674178529 ], [ -76.861666164865753, -12.280823794244659 ], [ -76.88190890022652, -12.280823794244659 ], [ -76.878966772408518, -12.264504674178529 ], [ -76.889087752762975, -12.264504674178529 ], [ -76.88761808031434, -12.256345259052855 ], [ -76.897738867214457, -12.256345259052855 ], [ -76.896270057965637, -12.248185940441074 ], [ -76.916511245135425, -12.248185940441074 ], [ -76.917980441014734, -12.256345259052855 ], [ -76.948342801715128, -12.256345259052855 ], [ -76.946873025890085, -12.248185940441074 ], [ -76.956993619474957, -12.248185940441074 ], [ -76.955524707647896, -12.240026718274923 ], [ -76.975765508465273, -12.240026718274923 ], [ -76.974297267701886, -12.231867592486145 ], [ -76.994537682444914, -12.231867592486145 ], [ -76.993070113126137, -12.2237085630065 ], [ -77.013310142072797, -12.2237085630065 ], [ -77.011843244579623, -12.215549629767738 ], [ -77.032082888007892, -12.215549629767738 ], [ -77.030616662721258, -12.207390792701643 ], [ -77.040736291815151, -12.207390792701643 ], [ -77.034881195332161, -12.174756404799618 ], [ -77.045000055334171, -12.174756404799618 ], [ -77.042078466024492, -12.158439786111307 ], [ -77.031959989735284, -12.158439786111307 ], [ -77.029043010710978, -12.142123550204273 ], [ -77.039161103842545, -12.142123550204273 ], [ -77.037704007489936, -12.133965575623353 ], [ -77.047821909250843, -12.133965575623353 ], [ -77.046365677927056, -12.125807696533306 ], [ -77.056483388455987, -12.125807696533306 ], [ -77.055028022265034, -12.117649912866003 ], [ -77.065145541700744, -12.117649912866003 ], [ -77.063691040746662, -12.109492224553334 ], [ -77.073808369227791, -12.109492224553334 ], [ -77.072354733614731, -12.101334631527175 ], [ -77.092589008945168, -12.101334631527175 ], [ -77.091136048100068, -12.093177133719433 ], [ -77.101252995088004, -12.093177133719433 ], [ -77.09980089993104, -12.085019731062006 ], [ -77.120034412829582, -12.085019731062006 ], [ -77.11858299306499, -12.076862423486819 ], [ -77.148932691212607, -12.076862423486819 ], [ -77.147481756960474, -12.068705210925794 ], [ -77.157598132748163, -12.068705210925794 ], [ -77.159049257261813, -12.076862423486819 ], [ -77.179282389360196, -12.076862423486819 ], [ -77.177830884323555, -12.068705210925794 ], [ -77.167714508535852, -12.068705210925794 ], [ -77.166264250577754, -12.060548093310866 ], [ -77.156148064913026, -12.060548093310866 ], [ -77.153251098588171, -12.044234142647063 ], [ -77.143135292753811, -12.044234142647063 ], [ -77.141688583626831, -12.036077309462105 ], [ -77.131572967499949, -12.036077309462105 ], [ -77.130127503792608, -12.027920570951066 ], [ -77.120012077234747, -12.027920570951066 ], [ -77.117124694991688, -12.011607377678667 ], [ -77.127239742826831, -12.011607377678667 ], [ -77.12579744522489, -12.003450922781287 ], [ -77.146027162587572, -12.003450922781287 ], [ -77.137393262476436, -11.954514173457378 ], [ -77.147506989139913, -11.954514173457378 ], [ -77.144637082229863, -11.938202676360365 ], [ -77.114297030939014, -11.938202676360365 ], [ -77.112864222406174, -11.930047068633186 ], [ -77.102751059885207, -11.930047068633186 ], [ -77.101319492611424, -11.92189155469633 ], [ -77.091206517861607, -11.92189155469633 ], [ -77.088346917810881, -11.905580807921984 ], [ -77.078234318188976, -11.905580807921984 ], [ -77.075379303521132, -11.889270435494174 ], [ -77.08549152856753, -11.889270435494174 ], [ -77.084065412574603, -11.881115389490528 ], [ -77.104289488506012, -11.881115389490528 ], [ -77.105715978660285, -11.889270435494174 ], [ -77.11582820370667, -11.889270435494174 ], [ -77.117255933718454, -11.897425574948704 ], [ -77.137480758248657, -11.897425574948704 ], [ -77.136052653799425, -11.889270435494174 ], [ -77.146164878845809, -11.889270435494174 ], [ -77.141886322309972, -11.864805577564429 ], [ -77.1519979865284, -11.864805577564429 ], [ -77.150573719941349, -11.856650811506279 ], [ -77.160685197493109, -11.856650811506279 ], [ -77.159261797029174, -11.848496138627612 ], [ -77.169373088052254, -11.848496138627612 ], [ -77.165108642951878, -11.82403267839026 ], [ -77.154997910687342, -11.82403267839026 ], [ -77.153578719694423, -11.815878377551332 ], [ -77.143468173406958, -11.815878377551332 ], [ -77.14205022019965, -11.807724169552827 ], [ -77.121829499303118, -11.807724169552827 ], [ -77.123247080832002, -11.815878377551332 ], [ -77.092915441969595, -11.815878377551332 ], [ -77.094333517100125, -11.82403267839026 ], [ -77.064001320306502, -11.82403267839026 ], [ -77.062583803107188, -11.815878377551332 ], [ -77.052473256819709, -11.815878377551332 ], [ -77.051056976165341, -11.807724169552827 ], [ -77.04094661571709, -11.807724169552827 ], [ -77.042362710532245, -11.815878377551332 ] ] ] ] } }
]
}
