{
"type": "FeatureCollection",
"name": "ghsl_1147",
"crs": { "type": "name", "properties": { "name": "urn:ogc:def:crs:OGC:1.3:CRS84" } },
"features": [
{ "type": "Feature", "properties": { "city_id": "ghsl_1147", "city_name": "Auckland" }, "geometry": { "type": "MultiPolygon", "coordinates": [ [ [ [ 174.810951122086209, -37.031769899128683 ], [ 174.822426174673978, -37.031769899128683 ], [ 174.835090006323782, -37.040579278405282 ], [ 174.823614122503216, -37.040579278405282 ], [ 174.810951122086209, -37.031769899128683 ] ] ], [ [ [ 174.770819061822124, -36.714886686669388 ], [ 174.759373690567259, -36.714886686669388 ], [ 174.771865775610109, -36.723682344113563 ], [ 174.760419586221417, -36.723682344113563 ], [ 174.772916359509537, -36.732478380079307 ], [ 174.761469351626403, -36.732478380079307 ], [ 174.773970815216018, -36.741274794716801 ], [ 174.762522988477656, -36.741274794716801 ], [ 174.787540814372392, -36.758868760607918 ], [ 174.776091348840197, -36.758868760607918 ], [ 174.788607715627478, -36.76766631216217 ], [ 174.777157430156393, -36.76766631216217 ], [ 174.789678495848392, -36.776464242989398 ], [ 174.778227390076921, -36.776464242989398 ], [ 174.790753156738333, -36.785262553240074 ], [ 174.779301230304668, -36.785262553240074 ], [ 174.816909221660751, -36.811659762038545 ], [ 174.805454831068317, -36.811659762038545 ], [ 174.830552836467888, -36.829259801116343 ], [ 174.819096801290897, -36.829259801116343 ], [ 174.83165328573017, -36.838060391071259 ], [ 174.820196427716695, -36.838060391071259 ], [ 174.832757628713921, -36.84686136150475 ], [ 174.855672991139897, -36.84686136150475 ], [ 174.843110143743672, -36.838060391071259 ], [ 174.866023859770621, -36.838060391071259 ], [ 174.878588353565817, -36.84686136150475 ], [ 174.901503715991794, -36.84686136150475 ], [ 174.914075400564428, -36.855662712567785 ], [ 174.902616895788782, -36.855662712567785 ], [ 174.965554459422862, -36.89967518261529 ], [ 174.954091831379145, -36.89967518261529 ], [ 174.966695189779216, -36.908478820629973 ], [ 174.943768282200125, -36.908478820629973 ], [ 174.956375551732577, -36.917282840332938 ], [ 174.93344699193284, -36.917282840332938 ], [ 174.946058173962342, -36.926087241875692 ], [ 174.9231279612126, -36.926087241875692 ], [ 174.935743057104787, -36.934892025409788 ], [ 174.92427712389005, -36.934892025409788 ], [ 174.936896962216764, -36.943697191086869 ], [ 174.925430201797127, -36.943697191086869 ], [ 174.938054784656828, -36.952502739058652 ], [ 174.926587196667043, -36.952502739058652 ], [ 174.939216526159896, -36.961308669476878 ], [ 174.927748110234461, -36.961308669476878 ], [ 174.940382188462365, -36.970114982493392 ], [ 174.917443700009159, -36.970114982493392 ], [ 174.930081700408579, -36.9789216782601 ], [ 174.907141554621347, -36.9789216782601 ], [ 174.91978347856562, -36.987728756928959 ], [ 174.90831257663902, -36.987728756928959 ], [ 174.920959254901646, -36.996536218651983 ], [ 174.909487523575905, -36.996536218651983 ], [ 174.934795981623012, -37.014152291869003 ], [ 174.923322590399721, -37.014152291869003 ], [ 174.935984374772517, -37.022960903667368 ], [ 174.924510153050448, -37.022960903667368 ], [ 174.937176700551674, -37.031769899128683 ], [ 174.925701647963933, -37.031769899128683 ], [ 174.951049872414558, -37.049389041649619 ], [ 174.962526587835214, -37.049389041649619 ], [ 174.987898883848032, -37.06700972065142 ], [ 174.976420504124604, -37.06700972065142 ], [ 174.98911422984304, -37.075820636714077 ], [ 174.943197380137008, -37.075820636714077 ], [ 174.955893383959648, -37.0846319373548 ], [ 174.921453247466729, -37.0846319373548 ], [ 174.896071846060551, -37.06700972065142 ], [ 174.907550225783979, -37.06700972065142 ], [ 174.894867101605229, -37.058199189014147 ], [ 174.860434459440597, -37.058199189014147 ], [ 174.835090006323782, -37.040579278405282 ], [ 174.858041773964914, -37.040579278405282 ], [ 174.832716379273847, -37.022960903667368 ], [ 174.844190600995915, -37.022960903667368 ], [ 174.806241941644231, -36.996536218651983 ], [ 174.794770210318489, -36.996536218651983 ], [ 174.78213265544656, -36.987728756928959 ], [ 174.77066175351996, -36.987728756928959 ], [ 174.758030607004457, -36.9789216782601 ], [ 174.769500679898073, -36.9789216782601 ], [ 174.756874280836627, -36.970114982493392 ], [ 174.768343525063216, -36.970114982493392 ], [ 174.755721871353387, -36.961308669476878 ], [ 174.767190287278765, -36.961308669476878 ], [ 174.741962035082679, -36.943697191086869 ], [ 174.730495274663014, -36.943697191086869 ], [ 174.717890326024985, -36.934892025409788 ], [ 174.683492526380803, -36.934892025409788 ], [ 174.696094993404074, -36.943697191086869 ], [ 174.673161472564772, -36.943697191086869 ], [ 174.660560659951329, -36.934892025409788 ], [ 174.649094726736593, -36.934892025409788 ], [ 174.611328122303377, -36.908478820629973 ], [ 174.622791576092936, -36.908478820629973 ], [ 174.597639953644205, -36.890871926137422 ], [ 174.609101756306416, -36.890871926137422 ], [ 174.571413442569195, -36.864464444411418 ], [ 174.594332099972718, -36.864464444411418 ], [ 174.581778762070087, -36.855662712567785 ], [ 174.604695771621408, -36.855662712567785 ], [ 174.592146323241565, -36.84686136150475 ], [ 174.603604004454525, -36.84686136150475 ], [ 174.591059267447065, -36.838060391071259 ], [ 174.602516125460539, -36.838060391071259 ], [ 174.589976097750537, -36.829259801116343 ], [ 174.612888168104575, -36.829259801116343 ], [ 174.600352025145213, -36.820459591489048 ], [ 174.623262450551977, -36.820459591489048 ], [ 174.610730190997003, -36.811659762038545 ], [ 174.63363897218187, -36.811659762038545 ], [ 174.621110594686172, -36.802860312614015 ], [ 174.644017732374039, -36.802860312614015 ], [ 174.669083301365561, -36.820459591489048 ], [ 174.646172875958797, -36.820459591489048 ], [ 174.683807772945329, -36.84686136150475 ], [ 174.706723135371277, -36.84686136150475 ], [ 174.694170989568391, -36.838060391071259 ], [ 174.739998421622317, -36.838060391071259 ], [ 174.702365315736444, -36.811659762038545 ], [ 174.690910925144038, -36.811659762038545 ], [ 174.665851477966783, -36.794061243064746 ], [ 174.654398730509058, -36.794061243064746 ], [ 174.641878113100915, -36.785262553240074 ], [ 174.65333003953458, -36.785262553240074 ], [ 174.640814120819186, -36.776464242989398 ], [ 174.663716332362156, -36.776464242989398 ], [ 174.651204289974828, -36.76766631216217 ], [ 174.685555146387969, -36.76766631216217 ], [ 174.6730461590505, -36.758868760607918 ], [ 174.684495624582695, -36.758868760607918 ], [ 174.671991330834459, -36.75007158817624 ], [ 174.694888622743861, -36.75007158817624 ], [ 174.682388201308811, -36.741274794716801 ], [ 174.69383602804723, -36.741274794716801 ], [ 174.681340296444574, -36.732478380079307 ], [ 174.69278730432768, -36.732478380079307 ], [ 174.680296260500739, -36.723682344113563 ], [ 174.71463482866676, -36.723682344113563 ], [ 174.702146834292932, -36.714886686669388 ], [ 174.713592205547798, -36.714886686669388 ], [ 174.701108895562214, -36.706091407596709 ], [ 174.723998002525235, -36.706091407596709 ], [ 174.711518557462824, -36.697296506745523 ], [ 174.734406029599796, -36.697296506745523 ], [ 174.721930448130223, -36.688501983965836 ], [ 174.756259205176832, -36.688501983965836 ], [ 174.781220769932901, -36.706091407596709 ], [ 174.758331662969852, -36.706091407596709 ], [ 174.770819061822124, -36.714886686669388 ] ], [ [ 174.660892410519381, -36.84686136150475 ], [ 174.686006729586751, -36.864464444411418 ], [ 174.697466058288512, -36.864464444411418 ], [ 174.684905305051075, -36.855662712567785 ], [ 174.69636380982675, -36.855662712567785 ], [ 174.683807772945329, -36.84686136150475 ], [ 174.660892410519381, -36.84686136150475 ] ], [ [ 174.762912137649295, -36.838060391071259 ], [ 174.785825853676243, -36.838060391071259 ], [ 174.773272660582819, -36.829259801116343 ], [ 174.750360590228809, -36.829259801116343 ], [ 174.762912137649295, -36.838060391071259 ] ], [ [ 174.798384585075041, -36.84686136150475 ], [ 174.809842266288001, -36.84686136150475 ], [ 174.797282711689718, -36.838060391071259 ], [ 174.785825853676243, -36.838060391071259 ], [ 174.798384585075041, -36.84686136150475 ] ], [ [ 174.89339480211413, -36.873266557186781 ], [ 174.904854955105577, -36.873266557186781 ], [ 174.892274646218397, -36.864464444411418 ], [ 174.880815317516635, -36.864464444411418 ], [ 174.89339480211413, -36.873266557186781 ] ] ] ] } }
]
}
