{
"type": "FeatureCollection",
"name": "ghsl_698",
"crs": { "type": "name", "properties": { "name": "urn:ogc:def:crs:OGC:1.3:CRS84" } },
"features": [
{ "type": "Feature", "properties": { "city_id": "ghsl_698", "city_name": "Copenhagen" }, "geometry": { "type": "MultiPolygon", "coordinates": [ [ [ [ 12.521770780905504, 55.793700843135973 ], [ 12.536081376083683, 55.793700843135973 ], [ 12.531985207690168, 55.773641438101009 ], [ 12.546291126877026, 55.773641438101009 ], [ 12.544242686826307, 55.763613149566396 ], [ 12.572849853728991, 55.763613149566396 ], [ 12.57490296525075, 55.773641438101009 ], [ 12.617820722811331, 55.773641438101009 ], [ 12.613701812592655, 55.753585803002018 ], [ 12.599400563372029, 55.753585803002018 ], [ 12.595291620897781, 55.733533933731621 ], [ 12.638181376701066, 55.733533933731621 ], [ 12.63612189973847, 55.723509410000489 ], [ 12.664710410823849, 55.723509410000489 ], [ 12.66264760249353, 55.713485826189398 ], [ 12.634063747860363, 55.713485826189398 ], [ 12.632006919780405, 55.703463181786908 ], [ 12.64629652036839, 55.703463181786908 ], [ 12.642182181495894, 55.683420709163904 ], [ 12.656467133113406, 55.683420709163904 ], [ 12.650298570168033, 55.653364033031977 ], [ 12.664576559524884, 55.653364033031977 ], [ 12.65841291958125, 55.623315784042319 ], [ 12.629870838590085, 55.623315784042319 ], [ 12.627823553782326, 55.613301571372304 ], [ 12.613554826602915, 55.613301571372304 ], [ 12.611511166142684, 55.603288293019958 ], [ 12.597244750796367, 55.603288293019958 ], [ 12.595204710451876, 55.5932759484785 ], [ 12.580940605457025, 55.5932759484785 ], [ 12.585017372244081, 55.613301571372304 ], [ 12.570748645064668, 55.613301571372304 ], [ 12.574826015997521, 55.633330931537145 ], [ 12.560552660701267, 55.633330931537145 ], [ 12.562590992917343, 55.643347014364359 ], [ 12.519763978168761, 55.643347014364359 ], [ 12.517732594812514, 55.633330931537145 ], [ 12.503459239516264, 55.633330931537145 ], [ 12.495355975487934, 55.5932759484785 ], [ 12.452563660503385, 55.5932759484785 ], [ 12.458618352643102, 55.623315784042319 ], [ 12.444347312147521, 55.623315784042319 ], [ 12.446365818331257, 55.633330931537145 ], [ 12.432092463035007, 55.633330931537145 ], [ 12.434109948671598, 55.643347014364359 ], [ 12.334180247591576, 55.643347014364359 ], [ 12.33618280431736, 55.653364033031977 ], [ 12.321904814960511, 55.653364033031977 ], [ 12.32590914866516, 55.67340087992266 ], [ 12.340191778037889, 55.67340087992266 ], [ 12.342198197528196, 55.683420709163904 ], [ 12.356483149145708, 55.683420709163904 ], [ 12.360504508608654, 55.703463181786908 ], [ 12.346214908020666, 55.703463181786908 ], [ 12.348225201528679, 55.713485826189398 ], [ 12.333933274212093, 55.713485826189398 ], [ 12.337953086078075, 55.733533933731621 ], [ 12.352249671345836, 55.733533933731621 ], [ 12.354263850171174, 55.743559397894686 ], [ 12.368562766664429, 55.743559397894686 ], [ 12.366546256613599, 55.733533933731621 ], [ 12.409436012416881, 55.733533933731621 ], [ 12.411459516144188, 55.743559397894686 ], [ 12.425758432637442, 55.743559397894686 ], [ 12.42778557272451, 55.753585803002018 ], [ 12.442086821945137, 55.753585803002018 ], [ 12.446149692569001, 55.773641438101009 ], [ 12.431843773382139, 55.773641438101009 ], [ 12.437940894675917, 55.803731960664869 ], [ 12.523818507297383, 55.803731960664869 ], [ 12.521770780905504, 55.793700843135973 ] ] ] ] } }
]
}
